<?xml version="1.0" encoding="utf-8"?>
<kml xmlns="http://earth.google.com/kml/2.2">
  <Document>
    <Placemark>
      <name>31-Buenos Aires-Aeroparque Jorge Newbery</name>
      <Point>
        <extrude>1</extrude>
        <altitudeMode>absolute</altitudeMode>
        <coordinates>-58.406101,-34.564499,5.486400000000001</coordinates>
      </Point>
    </Placemark>
    <Placemark>
      <name>groundRun-31</name>
      <Point>
        <extrude>1</extrude>
        <altitudeMode>absolute</altitudeMode>
        <coordinates>-58.40611845432646,-34.564489304997146,5.486400000000001</coordinates>
      </Point>
    </Placemark>
    <Placemark>
      <name></name>
      <Point>
        <extrude>1</extrude>
        <altitudeMode>absolute</altitudeMode>
        <coordinates>-58.40725298073124,-34.563859129267286,5.486400000000001</coordinates>
      </Point>
    </Placemark>
    <Placemark>
      <name></name>
      <Point>
        <extrude>1</extrude>
        <altitudeMode>absolute</altitudeMode>
        <coordinates>-58.41013289220594,-34.56225945052936,5.486400000000001</coordinates>
      </Point>
    </Placemark>
    <Placemark>
      <name></name>
      <Point>
        <extrude>1</extrude>
        <altitudeMode>absolute</altitudeMode>
        <coordinates>-58.41475808599549,-34.5596902663084,5.486400000000001</coordinates>
      </Point>
    </Placemark>
    <Placemark>
      <name></name>
      <Point>
        <extrude>1</extrude>
        <altitudeMode>absolute</altitudeMode>
        <coordinates>-58.421128398339306,-34.556151574130574,5.486400000000001</coordinates>
      </Point>
    </Placemark>
    <Placemark>
      <name>takeOff-1997.5-meters</name>
      <Point>
        <extrude>1</extrude>
        <altitudeMode>absolute</altitudeMode>
        <coordinates>-58.424165108180674,-34.55446463447771,5.486400000000001</coordinates>
      </Point>
    </Placemark>
    <Placemark>
      <name>climbRamp-31</name>
      <Point>
        <extrude>1</extrude>
        <altitudeMode>absolute</altitudeMode>
        <coordinates>-58.424946471959544,-34.55403056908522,18.0764</coordinates>
      </Point>
    </Placemark>
    <Placemark>
      <name></name>
      <Point>
        <extrude>1</extrude>
        <altitudeMode>absolute</altitudeMode>
        <coordinates>-58.43277253561973,-34.549682887317815,94.37639999999996</coordinates>
      </Point>
    </Placemark>
    <Placemark>
      <name></name>
      <Point>
        <extrude>1</extrude>
        <altitudeMode>absolute</altitudeMode>
        <coordinates>-58.440626391978185,-34.54531953711932,170.67639999999992</coordinates>
      </Point>
    </Placemark>
    <Placemark>
      <name></name>
      <Point>
        <extrude>1</extrude>
        <altitudeMode>absolute</altitudeMode>
        <coordinates>-58.4485081822568,-34.54094043760803,246.97639999999987</coordinates>
      </Point>
    </Placemark>
    <Placemark>
      <name></name>
      <Point>
        <extrude>1</extrude>
        <altitudeMode>absolute</altitudeMode>
        <coordinates>-58.456418048575685,-34.53654550737851,323.27639999999985</coordinates>
      </Point>
    </Placemark>
    <Placemark>
      <name></name>
      <Point>
        <extrude>1</extrude>
        <altitudeMode>absolute</altitudeMode>
        <coordinates>-58.46435613395926,-34.53213466449756,399.5763999999998</coordinates>
      </Point>
    </Placemark>
    <Placemark>
      <name></name>
      <Point>
        <extrude>1</extrude>
        <altitudeMode>absolute</altitudeMode>
        <coordinates>-58.47232258234291,-34.527707826500425,475.87639999999976</coordinates>
      </Point>
    </Placemark>
    <Placemark>
      <name></name>
      <Point>
        <extrude>1</extrude>
        <altitudeMode>absolute</altitudeMode>
        <coordinates>-58.48031753857947,-34.523264910386835,552.1763999999997</coordinates>
      </Point>
    </Placemark>
    <Placemark>
      <name></name>
      <Point>
        <extrude>1</extrude>
        <altitudeMode>absolute</altitudeMode>
        <coordinates>-58.4883411484455,-34.518805832617225,628.4763999999997</coordinates>
      </Point>
    </Placemark>
    <Placemark>
      <name></name>
      <Point>
        <extrude>1</extrude>
        <altitudeMode>absolute</altitudeMode>
        <coordinates>-58.49639355864821,-34.51433050910868,704.7763999999996</coordinates>
      </Point>
    </Placemark>
    <Placemark>
      <name>climbRamp-4.5 nm</name>
      <Point>
        <extrude>1</extrude>
        <altitudeMode>absolute</altitudeMode>
        <coordinates>-58.49962261986421,-34.512535811959694,727.6664011060526</coordinates>
      </Point>
    </Placemark>
    <Placemark>
      <name>turn-305.7-deg</name>
      <Point>
        <extrude>1</extrude>
        <altitudeMode>absolute</altitudeMode>
        <coordinates>-58.50041403001393,-34.512067612275224,735.2964011060526</coordinates>
      </Point>
    </Placemark>
    <Placemark>
      <name></name>
      <Point>
        <extrude>1</extrude>
        <altitudeMode>absolute</altitudeMode>
        <coordinates>-58.50848396498697,-34.50757014466919,735.296412166583</coordinates>
      </Point>
    </Placemark>
    <Placemark>
      <name></name>
      <Point>
        <extrude>1</extrude>
        <altitudeMode>absolute</altitudeMode>
        <coordinates>-58.51655302899098,-34.50307214649854,735.2964232271132</coordinates>
      </Point>
    </Placemark>
    <Placemark>
      <name></name>
      <Point>
        <extrude>1</extrude>
        <altitudeMode>absolute</altitudeMode>
        <coordinates>-58.52462122216365,-34.49857361790973,735.2964342876435</coordinates>
      </Point>
    </Placemark>
    <Placemark>
      <name></name>
      <Point>
        <extrude>1</extrude>
        <altitudeMode>absolute</altitudeMode>
        <coordinates>-58.5326885446428,-34.4940745590492,735.2964453481738</coordinates>
      </Point>
    </Placemark>
    <Placemark>
      <name></name>
      <Point>
        <extrude>1</extrude>
        <altitudeMode>absolute</altitudeMode>
        <coordinates>-58.54075499656624,-34.48957497006339,735.2964564087046</coordinates>
      </Point>
    </Placemark>
    <Placemark>
      <name></name>
      <Point>
        <extrude>1</extrude>
        <altitudeMode>absolute</altitudeMode>
        <coordinates>-58.54882057807182,-34.485074851098645,735.2964674692355</coordinates>
      </Point>
    </Placemark>
    <Placemark>
      <name></name>
      <Point>
        <extrude>1</extrude>
        <altitudeMode>absolute</altitudeMode>
        <coordinates>-58.55688528929743,-34.48057420230135,735.2964785297665</coordinates>
      </Point>
    </Placemark>
    <Placemark>
      <name></name>
      <Point>
        <extrude>1</extrude>
        <altitudeMode>absolute</altitudeMode>
        <coordinates>-58.564949130381045,-34.47607302381782,735.2964895902979</coordinates>
      </Point>
    </Placemark>
    <Placemark>
      <name></name>
      <Point>
        <extrude>1</extrude>
        <altitudeMode>absolute</altitudeMode>
        <coordinates>-58.573012101460634,-34.471571315794364,735.2965006508293</coordinates>
      </Point>
    </Placemark>
    <Placemark>
      <name>EndOfClimbRamp</name>
      <Point>
        <extrude>1</extrude>
        <altitudeMode>absolute</altitudeMode>
        <coordinates>-58.573818350723684,-34.471121115872954,735.2965017568824</coordinates>
      </Point>
    </Placemark>
    <Placemark>
      <name></name>
      <Point>
        <extrude>1</extrude>
        <altitudeMode>absolute</altitudeMode>
        <coordinates>-58.580470800007916,-34.46585302299051,803.9665028629355</coordinates>
      </Point>
    </Placemark>
    <Placemark>
      <name>turn-337.8-deg</name>
      <Point>
        <extrude>1</extrude>
        <altitudeMode>absolute</altitudeMode>
        <coordinates>-58.58532190403625,-34.45887649297196,880.2665028629355</coordinates>
      </Point>
    </Placemark>
    <Placemark>
      <name>31-Buenos Aires-Aeroparque Jorge Newbery</name>
      <Point>
        <extrude>1</extrude>
        <altitudeMode>absolute</altitudeMode>
        <coordinates>-58.406101,-34.564499,5.486400000000001</coordinates>
      </Point>
    </Placemark>
    <Placemark>
      <name>groundRun-31</name>
      <Point>
        <extrude>1</extrude>
        <altitudeMode>absolute</altitudeMode>
        <coordinates>-58.40611845432646,-34.564489304997146,5.486400000000001</coordinates>
      </Point>
    </Placemark>
    <Placemark>
      <name></name>
      <Point>
        <extrude>1</extrude>
        <altitudeMode>absolute</altitudeMode>
        <coordinates>-58.406153362971224,-34.56446991498897,5.486400000000001</coordinates>
      </Point>
    </Placemark>
    <Placemark>
      <name></name>
      <Point>
        <extrude>1</extrude>
        <altitudeMode>absolute</altitudeMode>
        <coordinates>-58.406205725920046,-34.564440829972995,5.486400000000001</coordinates>
      </Point>
    </Placemark>
    <Placemark>
      <name></name>
      <Point>
        <extrude>1</extrude>
        <altitudeMode>absolute</altitudeMode>
        <coordinates>-58.40627554315256,-34.56440204994674,5.486400000000001</coordinates>
      </Point>
    </Placemark>
    <Placemark>
      <name></name>
      <Point>
        <extrude>1</extrude>
        <altitudeMode>absolute</altitudeMode>
        <coordinates>-58.40636281464228,-34.564353574907734,5.486400000000001</coordinates>
      </Point>
    </Placemark>
    <Placemark>
      <name></name>
      <Point>
        <extrude>1</extrude>
        <altitudeMode>absolute</altitudeMode>
        <coordinates>-58.40646754035669,-34.5642954048535,5.486400000000001</coordinates>
      </Point>
    </Placemark>
    <Placemark>
      <name></name>
      <Point>
        <extrude>1</extrude>
        <altitudeMode>absolute</altitudeMode>
        <coordinates>-58.406589720257074,-34.56422753978158,5.486400000000001</coordinates>
      </Point>
    </Placemark>
    <Placemark>
      <name></name>
      <Point>
        <extrude>1</extrude>
        <altitudeMode>absolute</altitudeMode>
        <coordinates>-58.40672935429865,-34.56414997968946,5.486400000000001</coordinates>
      </Point>
    </Placemark>
    <Placemark>
      <name></name>
      <Point>
        <extrude>1</extrude>
        <altitudeMode>absolute</altitudeMode>
        <coordinates>-58.40688644243056,-34.56406272457469,5.486400000000001</coordinates>
      </Point>
    </Placemark>
    <Placemark>
      <name></name>
      <Point>
        <extrude>1</extrude>
        <altitudeMode>absolute</altitudeMode>
        <coordinates>-58.40706098459577,-34.5639657744348,5.486400000000001</coordinates>
      </Point>
    </Placemark>
    <Placemark>
      <name></name>
      <Point>
        <extrude>1</extrude>
        <altitudeMode>absolute</altitudeMode>
        <coordinates>-58.40725298073124,-34.563859129267286,5.486400000000001</coordinates>
      </Point>
    </Placemark>
    <Placemark>
      <name></name>
      <Point>
        <extrude>1</extrude>
        <altitudeMode>absolute</altitudeMode>
        <coordinates>-58.40746243076778,-34.5637427890697,5.486400000000001</coordinates>
      </Point>
    </Placemark>
    <Placemark>
      <name></name>
      <Point>
        <extrude>1</extrude>
        <altitudeMode>absolute</altitudeMode>
        <coordinates>-58.40768933463005,-34.56361675383956,5.486400000000001</coordinates>
      </Point>
    </Placemark>
    <Placemark>
      <name></name>
      <Point>
        <extrude>1</extrude>
        <altitudeMode>absolute</altitudeMode>
        <coordinates>-58.40793369223668,-34.563481023574376,5.486400000000001</coordinates>
      </Point>
    </Placemark>
    <Placemark>
      <name></name>
      <Point>
        <extrude>1</extrude>
        <altitudeMode>absolute</altitudeMode>
        <coordinates>-58.40819550350017,-34.56333559827169,5.486400000000001</coordinates>
      </Point>
    </Placemark>
    <Placemark>
      <name></name>
      <Point>
        <extrude>1</extrude>
        <altitudeMode>absolute</altitudeMode>
        <coordinates>-58.4084747683269,-34.56318047792903,5.486400000000001</coordinates>
      </Point>
    </Placemark>
    <Placemark>
      <name></name>
      <Point>
        <extrude>1</extrude>
        <altitudeMode>absolute</altitudeMode>
        <coordinates>-58.408771486617155,-34.563015662543904,5.486400000000001</coordinates>
      </Point>
    </Placemark>
    <Placemark>
      <name></name>
      <Point>
        <extrude>1</extrude>
        <altitudeMode>absolute</altitudeMode>
        <coordinates>-58.409085658265155,-34.562841152113855,5.486400000000001</coordinates>
      </Point>
    </Placemark>
    <Placemark>
      <name></name>
      <Point>
        <extrude>1</extrude>
        <altitudeMode>absolute</altitudeMode>
        <coordinates>-58.40941728315897,-34.5626569466364,5.486400000000001</coordinates>
      </Point>
    </Placemark>
    <Placemark>
      <name></name>
      <Point>
        <extrude>1</extrude>
        <altitudeMode>absolute</altitudeMode>
        <coordinates>-58.4097663611806,-34.56246304610906,5.486400000000001</coordinates>
      </Point>
    </Placemark>
    <Placemark>
      <name></name>
      <Point>
        <extrude>1</extrude>
        <altitudeMode>absolute</altitudeMode>
        <coordinates>-58.41013289220594,-34.56225945052936,5.486400000000001</coordinates>
      </Point>
    </Placemark>
    <Placemark>
      <name></name>
      <Point>
        <extrude>1</extrude>
        <altitudeMode>absolute</altitudeMode>
        <coordinates>-58.41051687610474,-34.562046159894834,5.486400000000001</coordinates>
      </Point>
    </Placemark>
    <Placemark>
      <name></name>
      <Point>
        <extrude>1</extrude>
        <altitudeMode>absolute</altitudeMode>
        <coordinates>-58.410918312740705,-34.56182317420299,5.486400000000001</coordinates>
      </Point>
    </Placemark>
    <Placemark>
      <name></name>
      <Point>
        <extrude>1</extrude>
        <altitudeMode>absolute</altitudeMode>
        <coordinates>-58.411337201971435,-34.56159049345138,5.486400000000001</coordinates>
      </Point>
    </Placemark>
    <Placemark>
      <name></name>
      <Point>
        <extrude>1</extrude>
        <altitudeMode>absolute</altitudeMode>
        <coordinates>-58.411773543648394,-34.5613481176375,5.486400000000001</coordinates>
      </Point>
    </Placemark>
    <Placemark>
      <name></name>
      <Point>
        <extrude>1</extrude>
        <altitudeMode>absolute</altitudeMode>
        <coordinates>-58.412227337616955,-34.5610960467589,5.486400000000001</coordinates>
      </Point>
    </Placemark>
    <Placemark>
      <name></name>
      <Point>
        <extrude>1</extrude>
        <altitudeMode>absolute</altitudeMode>
        <coordinates>-58.412698583716434,-34.5608342808131,5.486400000000001</coordinates>
      </Point>
    </Placemark>
    <Placemark>
      <name></name>
      <Point>
        <extrude>1</extrude>
        <altitudeMode>absolute</altitudeMode>
        <coordinates>-58.41318728177998,-34.56056281979762,5.486400000000001</coordinates>
      </Point>
    </Placemark>
    <Placemark>
      <name></name>
      <Point>
        <extrude>1</extrude>
        <altitudeMode>absolute</altitudeMode>
        <coordinates>-58.4136934316347,-34.56028166370999,5.486400000000001</coordinates>
      </Point>
    </Placemark>
    <Placemark>
      <name></name>
      <Point>
        <extrude>1</extrude>
        <altitudeMode>absolute</altitudeMode>
        <coordinates>-58.41421703310158,-34.55999081254774,5.486400000000001</coordinates>
      </Point>
    </Placemark>
    <Placemark>
      <name></name>
      <Point>
        <extrude>1</extrude>
        <altitudeMode>absolute</altitudeMode>
        <coordinates>-58.41475808599549,-34.5596902663084,5.486400000000001</coordinates>
      </Point>
    </Placemark>
    <Placemark>
      <name></name>
      <Point>
        <extrude>1</extrude>
        <altitudeMode>absolute</altitudeMode>
        <coordinates>-58.41531659012523,-34.55938002498948,5.486400000000001</coordinates>
      </Point>
    </Placemark>
    <Placemark>
      <name></name>
      <Point>
        <extrude>1</extrude>
        <altitudeMode>absolute</altitudeMode>
        <coordinates>-58.41589254529353,-34.55906008858852,5.486400000000001</coordinates>
      </Point>
    </Placemark>
    <Placemark>
      <name></name>
      <Point>
        <extrude>1</extrude>
        <altitudeMode>absolute</altitudeMode>
        <coordinates>-58.41648595129695,-34.55873045710303,5.486400000000001</coordinates>
      </Point>
    </Placemark>
    <Placemark>
      <name></name>
      <Point>
        <extrude>1</extrude>
        <altitudeMode>absolute</altitudeMode>
        <coordinates>-58.417096807926015,-34.558391130530566,5.486400000000001</coordinates>
      </Point>
    </Placemark>
    <Placemark>
      <name></name>
      <Point>
        <extrude>1</extrude>
        <altitudeMode>absolute</altitudeMode>
        <coordinates>-58.41772511496515,-34.55804210886864,5.486400000000001</coordinates>
      </Point>
    </Placemark>
    <Placemark>
      <name></name>
      <Point>
        <extrude>1</extrude>
        <altitudeMode>absolute</altitudeMode>
        <coordinates>-58.41837087219264,-34.55768339211478,5.486400000000001</coordinates>
      </Point>
    </Placemark>
    <Placemark>
      <name></name>
      <Point>
        <extrude>1</extrude>
        <altitudeMode>absolute</altitudeMode>
        <coordinates>-58.41903407938071,-34.55731498026652,5.486400000000001</coordinates>
      </Point>
    </Placemark>
    <Placemark>
      <name></name>
      <Point>
        <extrude>1</extrude>
        <altitudeMode>absolute</altitudeMode>
        <coordinates>-58.419714736295504,-34.556936873321376,5.486400000000001</coordinates>
      </Point>
    </Placemark>
    <Placemark>
      <name></name>
      <Point>
        <extrude>1</extrude>
        <altitudeMode>absolute</altitudeMode>
        <coordinates>-58.42041284269706,-34.55654907127689,5.486400000000001</coordinates>
      </Point>
    </Placemark>
    <Placemark>
      <name></name>
      <Point>
        <extrude>1</extrude>
        <altitudeMode>absolute</altitudeMode>
        <coordinates>-58.421128398339306,-34.556151574130574,5.486400000000001</coordinates>
      </Point>
    </Placemark>
    <Placemark>
      <name></name>
      <Point>
        <extrude>1</extrude>
        <altitudeMode>absolute</altitudeMode>
        <coordinates>-58.42186140297005,-34.555744381879975,5.486400000000001</coordinates>
      </Point>
    </Placemark>
    <Placemark>
      <name></name>
      <Point>
        <extrude>1</extrude>
        <altitudeMode>absolute</altitudeMode>
        <coordinates>-58.422611856331116,-34.55532749452261,5.486400000000001</coordinates>
      </Point>
    </Placemark>
    <Placemark>
      <name></name>
      <Point>
        <extrude>1</extrude>
        <altitudeMode>absolute</altitudeMode>
        <coordinates>-58.42337975815812,-34.55490091205601,5.486400000000001</coordinates>
      </Point>
    </Placemark>
    <Placemark>
      <name>takeOff-1997.5-meters</name>
      <Point>
        <extrude>1</extrude>
        <altitudeMode>absolute</altitudeMode>
        <coordinates>-58.424165108180674,-34.55446463447771,5.486400000000001</coordinates>
      </Point>
    </Placemark>
    <Placemark>
      <name>climbRamp-31</name>
      <Point>
        <extrude>1</extrude>
        <altitudeMode>absolute</altitudeMode>
        <coordinates>-58.424946471959544,-34.55403056908522,18.0764</coordinates>
      </Point>
    </Placemark>
    <Placemark>
      <name></name>
      <Point>
        <extrude>1</extrude>
        <altitudeMode>absolute</altitudeMode>
        <coordinates>-58.42572783166051,-34.55359650369352,25.7064</coordinates>
      </Point>
    </Placemark>
    <Placemark>
      <name></name>
      <Point>
        <extrude>1</extrude>
        <altitudeMode>absolute</altitudeMode>
        <coordinates>-58.42650946802436,-34.553162282341425,33.3364</coordinates>
      </Point>
    </Placemark>
    <Placemark>
      <name></name>
      <Point>
        <extrude>1</extrude>
        <altitudeMode>absolute</altitudeMode>
        <coordinates>-58.42729138119111,-34.55272790494875,40.96639999999999</coordinates>
      </Point>
    </Placemark>
    <Placemark>
      <name></name>
      <Point>
        <extrude>1</extrude>
        <altitudeMode>absolute</altitudeMode>
        <coordinates>-58.42807357130087,-34.55229337143526,48.59639999999999</coordinates>
      </Point>
    </Placemark>
    <Placemark>
      <name></name>
      <Point>
        <extrude>1</extrude>
        <altitudeMode>absolute</altitudeMode>
        <coordinates>-58.428856038493805,-34.55185868172068,56.226399999999984</coordinates>
      </Point>
    </Placemark>
    <Placemark>
      <name></name>
      <Point>
        <extrude>1</extrude>
        <altitudeMode>absolute</altitudeMode>
        <coordinates>-58.429638782910246,-34.55142383572466,63.85639999999998</coordinates>
      </Point>
    </Placemark>
    <Placemark>
      <name></name>
      <Point>
        <extrude>1</extrude>
        <altitudeMode>absolute</altitudeMode>
        <coordinates>-58.43042180469055,-34.55098883336684,71.48639999999997</coordinates>
      </Point>
    </Placemark>
    <Placemark>
      <name></name>
      <Point>
        <extrude>1</extrude>
        <altitudeMode>absolute</altitudeMode>
        <coordinates>-58.431205103975174,-34.55055367456676,79.11639999999997</coordinates>
      </Point>
    </Placemark>
    <Placemark>
      <name></name>
      <Point>
        <extrude>1</extrude>
        <altitudeMode>absolute</altitudeMode>
        <coordinates>-58.43198868090471,-34.550118359243925,86.74639999999997</coordinates>
      </Point>
    </Placemark>
    <Placemark>
      <name></name>
      <Point>
        <extrude>1</extrude>
        <altitudeMode>absolute</altitudeMode>
        <coordinates>-58.43277253561973,-34.549682887317815,94.37639999999996</coordinates>
      </Point>
    </Placemark>
    <Placemark>
      <name></name>
      <Point>
        <extrude>1</extrude>
        <altitudeMode>absolute</altitudeMode>
        <coordinates>-58.43355666826099,-34.54924725870782,102.00639999999996</coordinates>
      </Point>
    </Placemark>
    <Placemark>
      <name></name>
      <Point>
        <extrude>1</extrude>
        <altitudeMode>absolute</altitudeMode>
        <coordinates>-58.434341078969325,-34.54881147333331,109.63639999999995</coordinates>
      </Point>
    </Placemark>
    <Placemark>
      <name></name>
      <Point>
        <extrude>1</extrude>
        <altitudeMode>absolute</altitudeMode>
        <coordinates>-58.43512576788564,-34.548375531113564,117.26639999999995</coordinates>
      </Point>
    </Placemark>
    <Placemark>
      <name></name>
      <Point>
        <extrude>1</extrude>
        <altitudeMode>absolute</altitudeMode>
        <coordinates>-58.43591073515093,-34.54793943196783,124.89639999999994</coordinates>
      </Point>
    </Placemark>
    <Placemark>
      <name></name>
      <Point>
        <extrude>1</extrude>
        <altitudeMode>absolute</altitudeMode>
        <coordinates>-58.43669598090628,-34.54750317581532,132.52639999999994</coordinates>
      </Point>
    </Placemark>
    <Placemark>
      <name></name>
      <Point>
        <extrude>1</extrude>
        <altitudeMode>absolute</altitudeMode>
        <coordinates>-58.43748150529285,-34.547066762575184,140.15639999999993</coordinates>
      </Point>
    </Placemark>
    <Placemark>
      <name></name>
      <Point>
        <extrude>1</extrude>
        <altitudeMode>absolute</altitudeMode>
        <coordinates>-58.43826730845194,-34.5466301921665,147.78639999999993</coordinates>
      </Point>
    </Placemark>
    <Placemark>
      <name></name>
      <Point>
        <extrude>1</extrude>
        <altitudeMode>absolute</altitudeMode>
        <coordinates>-58.43905339052486,-34.546193464508306,155.41639999999992</coordinates>
      </Point>
    </Placemark>
    <Placemark>
      <name></name>
      <Point>
        <extrude>1</extrude>
        <altitudeMode>absolute</altitudeMode>
        <coordinates>-58.439839751653096,-34.5457565795196,163.04639999999992</coordinates>
      </Point>
    </Placemark>
    <Placemark>
      <name></name>
      <Point>
        <extrude>1</extrude>
        <altitudeMode>absolute</altitudeMode>
        <coordinates>-58.440626391978185,-34.54531953711932,170.67639999999992</coordinates>
      </Point>
    </Placemark>
    <Placemark>
      <name></name>
      <Point>
        <extrude>1</extrude>
        <altitudeMode>absolute</altitudeMode>
        <coordinates>-58.441413311641725,-34.54488233722633,178.3063999999999</coordinates>
      </Point>
    </Placemark>
    <Placemark>
      <name></name>
      <Point>
        <extrude>1</extrude>
        <altitudeMode>absolute</altitudeMode>
        <coordinates>-58.442200510785426,-34.54444497975948,185.9363999999999</coordinates>
      </Point>
    </Placemark>
    <Placemark>
      <name></name>
      <Point>
        <extrude>1</extrude>
        <altitudeMode>absolute</altitudeMode>
        <coordinates>-58.44298798955113,-34.54400746463755,193.5663999999999</coordinates>
      </Point>
    </Placemark>
    <Placemark>
      <name></name>
      <Point>
        <extrude>1</extrude>
        <altitudeMode>absolute</altitudeMode>
        <coordinates>-58.44377574808067,-34.543569791779255,201.1963999999999</coordinates>
      </Point>
    </Placemark>
    <Placemark>
      <name></name>
      <Point>
        <extrude>1</extrude>
        <altitudeMode>absolute</altitudeMode>
        <coordinates>-58.444563786516085,-34.543131961103285,208.8263999999999</coordinates>
      </Point>
    </Placemark>
    <Placemark>
      <name></name>
      <Point>
        <extrude>1</extrude>
        <altitudeMode>absolute</altitudeMode>
        <coordinates>-58.445352104999444,-34.54269397252824,216.4563999999999</coordinates>
      </Point>
    </Placemark>
    <Placemark>
      <name></name>
      <Point>
        <extrude>1</extrude>
        <altitudeMode>absolute</altitudeMode>
        <coordinates>-58.44614070367288,-34.54225582597271,224.08639999999988</coordinates>
      </Point>
    </Placemark>
    <Placemark>
      <name></name>
      <Point>
        <extrude>1</extrude>
        <altitudeMode>absolute</altitudeMode>
        <coordinates>-58.44692958267868,-34.5418175213552,231.71639999999988</coordinates>
      </Point>
    </Placemark>
    <Placemark>
      <name></name>
      <Point>
        <extrude>1</extrude>
        <altitudeMode>absolute</altitudeMode>
        <coordinates>-58.447718742159196,-34.54137905859416,239.34639999999987</coordinates>
      </Point>
    </Placemark>
    <Placemark>
      <name></name>
      <Point>
        <extrude>1</extrude>
        <altitudeMode>absolute</altitudeMode>
        <coordinates>-58.4485081822568,-34.54094043760803,246.97639999999987</coordinates>
      </Point>
    </Placemark>
    <Placemark>
      <name></name>
      <Point>
        <extrude>1</extrude>
        <altitudeMode>absolute</altitudeMode>
        <coordinates>-58.449297903114086,-34.54050165831515,254.60639999999987</coordinates>
      </Point>
    </Placemark>
    <Placemark>
      <name></name>
      <Point>
        <extrude>1</extrude>
        <altitudeMode>absolute</altitudeMode>
        <coordinates>-58.45008790487364,-34.54006272063382,262.2363999999999</coordinates>
      </Point>
    </Placemark>
    <Placemark>
      <name></name>
      <Point>
        <extrude>1</extrude>
        <altitudeMode>absolute</altitudeMode>
        <coordinates>-58.45087818767816,-34.5396236244823,269.8663999999999</coordinates>
      </Point>
    </Placemark>
    <Placemark>
      <name></name>
      <Point>
        <extrude>1</extrude>
        <altitudeMode>absolute</altitudeMode>
        <coordinates>-58.45166875167047,-34.5391843697788,277.4963999999999</coordinates>
      </Point>
    </Placemark>
    <Placemark>
      <name></name>
      <Point>
        <extrude>1</extrude>
        <altitudeMode>absolute</altitudeMode>
        <coordinates>-58.452459596993435,-34.538744956441455,285.1263999999999</coordinates>
      </Point>
    </Placemark>
    <Placemark>
      <name></name>
      <Point>
        <extrude>1</extrude>
        <altitudeMode>absolute</altitudeMode>
        <coordinates>-58.45325072379006,-34.538305384388366,292.75639999999987</coordinates>
      </Point>
    </Placemark>
    <Placemark>
      <name></name>
      <Point>
        <extrude>1</extrude>
        <altitudeMode>absolute</altitudeMode>
        <coordinates>-58.45404213220337,-34.53786565353756,300.38639999999987</coordinates>
      </Point>
    </Placemark>
    <Placemark>
      <name></name>
      <Point>
        <extrude>1</extrude>
        <altitudeMode>absolute</altitudeMode>
        <coordinates>-58.45483382237657,-34.53742576380703,308.01639999999986</coordinates>
      </Point>
    </Placemark>
    <Placemark>
      <name></name>
      <Point>
        <extrude>1</extrude>
        <altitudeMode>absolute</altitudeMode>
        <coordinates>-58.4556257944529,-34.53698571511472,315.64639999999986</coordinates>
      </Point>
    </Placemark>
    <Placemark>
      <name></name>
      <Point>
        <extrude>1</extrude>
        <altitudeMode>absolute</altitudeMode>
        <coordinates>-58.456418048575685,-34.53654550737851,323.27639999999985</coordinates>
      </Point>
    </Placemark>
    <Placemark>
      <name></name>
      <Point>
        <extrude>1</extrude>
        <altitudeMode>absolute</altitudeMode>
        <coordinates>-58.45721058488837,-34.53610514051622,330.90639999999985</coordinates>
      </Point>
    </Placemark>
    <Placemark>
      <name></name>
      <Point>
        <extrude>1</extrude>
        <altitudeMode>absolute</altitudeMode>
        <coordinates>-58.45800340353446,-34.53566461444563,338.53639999999984</coordinates>
      </Point>
    </Placemark>
    <Placemark>
      <name></name>
      <Point>
        <extrude>1</extrude>
        <altitudeMode>absolute</altitudeMode>
        <coordinates>-58.458796504657585,-34.53522392908446,346.16639999999984</coordinates>
      </Point>
    </Placemark>
    <Placemark>
      <name></name>
      <Point>
        <extrude>1</extrude>
        <altitudeMode>absolute</altitudeMode>
        <coordinates>-58.45958988840144,-34.53478308435038,353.79639999999984</coordinates>
      </Point>
    </Placemark>
    <Placemark>
      <name></name>
      <Point>
        <extrude>1</extrude>
        <altitudeMode>absolute</altitudeMode>
        <coordinates>-58.46038355490984,-34.534342080161004,361.42639999999983</coordinates>
      </Point>
    </Placemark>
    <Placemark>
      <name></name>
      <Point>
        <extrude>1</extrude>
        <altitudeMode>absolute</altitudeMode>
        <coordinates>-58.461177504326685,-34.5339009164339,369.0563999999998</coordinates>
      </Point>
    </Placemark>
    <Placemark>
      <name></name>
      <Point>
        <extrude>1</extrude>
        <altitudeMode>absolute</altitudeMode>
        <coordinates>-58.46197173679593,-34.53345959308658,376.6863999999998</coordinates>
      </Point>
    </Placemark>
    <Placemark>
      <name></name>
      <Point>
        <extrude>1</extrude>
        <altitudeMode>absolute</altitudeMode>
        <coordinates>-58.46276625246166,-34.53301811003649,384.3163999999998</coordinates>
      </Point>
    </Placemark>
    <Placemark>
      <name></name>
      <Point>
        <extrude>1</extrude>
        <altitudeMode>absolute</altitudeMode>
        <coordinates>-58.46356105146802,-34.53257646720104,391.9463999999998</coordinates>
      </Point>
    </Placemark>
    <Placemark>
      <name></name>
      <Point>
        <extrude>1</extrude>
        <altitudeMode>absolute</altitudeMode>
        <coordinates>-58.46435613395926,-34.53213466449756,399.5763999999998</coordinates>
      </Point>
    </Placemark>
    <Placemark>
      <name></name>
      <Point>
        <extrude>1</extrude>
        <altitudeMode>absolute</altitudeMode>
        <coordinates>-58.46515150007977,-34.53169270184337,407.2063999999998</coordinates>
      </Point>
    </Placemark>
    <Placemark>
      <name></name>
      <Point>
        <extrude>1</extrude>
        <altitudeMode>absolute</altitudeMode>
        <coordinates>-58.46594714997394,-34.5312505791557,414.8363999999998</coordinates>
      </Point>
    </Placemark>
    <Placemark>
      <name></name>
      <Point>
        <extrude>1</extrude>
        <altitudeMode>absolute</altitudeMode>
        <coordinates>-58.46674308378634,-34.53080829635175,422.4663999999998</coordinates>
      </Point>
    </Placemark>
    <Placemark>
      <name></name>
      <Point>
        <extrude>1</extrude>
        <altitudeMode>absolute</altitudeMode>
        <coordinates>-58.46753930166156,-34.53036585334863,430.0963999999998</coordinates>
      </Point>
    </Placemark>
    <Placemark>
      <name></name>
      <Point>
        <extrude>1</extrude>
        <altitudeMode>absolute</altitudeMode>
        <coordinates>-58.46833580374434,-34.52992325006344,437.7263999999998</coordinates>
      </Point>
    </Placemark>
    <Placemark>
      <name></name>
      <Point>
        <extrude>1</extrude>
        <altitudeMode>absolute</altitudeMode>
        <coordinates>-58.469132590179484,-34.5294804864132,445.3563999999998</coordinates>
      </Point>
    </Placemark>
    <Placemark>
      <name></name>
      <Point>
        <extrude>1</extrude>
        <altitudeMode>absolute</altitudeMode>
        <coordinates>-58.46992966111185,-34.52903756231489,452.9863999999998</coordinates>
      </Point>
    </Placemark>
    <Placemark>
      <name></name>
      <Point>
        <extrude>1</extrude>
        <altitudeMode>absolute</altitudeMode>
        <coordinates>-58.47072701668648,-34.528594477685424,460.61639999999977</coordinates>
      </Point>
    </Placemark>
    <Placemark>
      <name></name>
      <Point>
        <extrude>1</extrude>
        <altitudeMode>absolute</altitudeMode>
        <coordinates>-58.47152465704845,-34.52815123244166,468.24639999999977</coordinates>
      </Point>
    </Placemark>
    <Placemark>
      <name></name>
      <Point>
        <extrude>1</extrude>
        <altitudeMode>absolute</altitudeMode>
        <coordinates>-58.47232258234291,-34.527707826500425,475.87639999999976</coordinates>
      </Point>
    </Placemark>
    <Placemark>
      <name></name>
      <Point>
        <extrude>1</extrude>
        <altitudeMode>absolute</altitudeMode>
        <coordinates>-58.473120792715136,-34.527264259778484,483.50639999999976</coordinates>
      </Point>
    </Placemark>
    <Placemark>
      <name></name>
      <Point>
        <extrude>1</extrude>
        <altitudeMode>absolute</altitudeMode>
        <coordinates>-58.4739192883105,-34.52682053219251,491.13639999999975</coordinates>
      </Point>
    </Placemark>
    <Placemark>
      <name></name>
      <Point>
        <extrude>1</extrude>
        <altitudeMode>absolute</altitudeMode>
        <coordinates>-58.47471806927442,-34.52637664365918,498.76639999999975</coordinates>
      </Point>
    </Placemark>
    <Placemark>
      <name></name>
      <Point>
        <extrude>1</extrude>
        <altitudeMode>absolute</altitudeMode>
        <coordinates>-58.47551713575247,-34.52593259409507,506.39639999999974</coordinates>
      </Point>
    </Placemark>
    <Placemark>
      <name></name>
      <Point>
        <extrude>1</extrude>
        <altitudeMode>absolute</altitudeMode>
        <coordinates>-58.47631648789027,-34.52548838341673,514.0263999999997</coordinates>
      </Point>
    </Placemark>
    <Placemark>
      <name></name>
      <Point>
        <extrude>1</extrude>
        <altitudeMode>absolute</altitudeMode>
        <coordinates>-58.47711612583356,-34.52504401154065,521.6563999999997</coordinates>
      </Point>
    </Placemark>
    <Placemark>
      <name></name>
      <Point>
        <extrude>1</extrude>
        <altitudeMode>absolute</altitudeMode>
        <coordinates>-58.47791604972818,-34.524599478383266,529.2863999999997</coordinates>
      </Point>
    </Placemark>
    <Placemark>
      <name></name>
      <Point>
        <extrude>1</extrude>
        <altitudeMode>absolute</altitudeMode>
        <coordinates>-58.47871625972002,-34.52415478386096,536.9163999999997</coordinates>
      </Point>
    </Placemark>
    <Placemark>
      <name></name>
      <Point>
        <extrude>1</extrude>
        <altitudeMode>absolute</altitudeMode>
        <coordinates>-58.479516755955075,-34.52370992789007,544.5463999999997</coordinates>
      </Point>
    </Placemark>
    <Placemark>
      <name></name>
      <Point>
        <extrude>1</extrude>
        <altitudeMode>absolute</altitudeMode>
        <coordinates>-58.48031753857947,-34.523264910386835,552.1763999999997</coordinates>
      </Point>
    </Placemark>
    <Placemark>
      <name></name>
      <Point>
        <extrude>1</extrude>
        <altitudeMode>absolute</altitudeMode>
        <coordinates>-58.48111860773939,-34.5228197312675,559.8063999999997</coordinates>
      </Point>
    </Placemark>
    <Placemark>
      <name></name>
      <Point>
        <extrude>1</extrude>
        <altitudeMode>absolute</altitudeMode>
        <coordinates>-58.481919963581134,-34.5223743904482,567.4363999999997</coordinates>
      </Point>
    </Placemark>
    <Placemark>
      <name></name>
      <Point>
        <extrude>1</extrude>
        <altitudeMode>absolute</altitudeMode>
        <coordinates>-58.48272160625105,-34.52192888784508,575.0663999999997</coordinates>
      </Point>
    </Placemark>
    <Placemark>
      <name></name>
      <Point>
        <extrude>1</extrude>
        <altitudeMode>absolute</altitudeMode>
        <coordinates>-58.48352353589564,-34.52148322337415,582.6963999999997</coordinates>
      </Point>
    </Placemark>
    <Placemark>
      <name></name>
      <Point>
        <extrude>1</extrude>
        <altitudeMode>absolute</altitudeMode>
        <coordinates>-58.484325752661476,-34.52103739695144,590.3263999999997</coordinates>
      </Point>
    </Placemark>
    <Placemark>
      <name></name>
      <Point>
        <extrude>1</extrude>
        <altitudeMode>absolute</altitudeMode>
        <coordinates>-58.48512825669519,-34.5205914084929,597.9563999999997</coordinates>
      </Point>
    </Placemark>
    <Placemark>
      <name></name>
      <Point>
        <extrude>1</extrude>
        <altitudeMode>absolute</altitudeMode>
        <coordinates>-58.485931048143556,-34.520145257914386,605.5863999999997</coordinates>
      </Point>
    </Placemark>
    <Placemark>
      <name></name>
      <Point>
        <extrude>1</extrude>
        <altitudeMode>absolute</altitudeMode>
        <coordinates>-58.486734127153426,-34.519698945131765,613.2163999999997</coordinates>
      </Point>
    </Placemark>
    <Placemark>
      <name></name>
      <Point>
        <extrude>1</extrude>
        <altitudeMode>absolute</altitudeMode>
        <coordinates>-58.48753749387173,-34.5192524700608,620.8463999999997</coordinates>
      </Point>
    </Placemark>
    <Placemark>
      <name></name>
      <Point>
        <extrude>1</extrude>
        <altitudeMode>absolute</altitudeMode>
        <coordinates>-58.4883411484455,-34.518805832617225,628.4763999999997</coordinates>
      </Point>
    </Placemark>
    <Placemark>
      <name></name>
      <Point>
        <extrude>1</extrude>
        <altitudeMode>absolute</altitudeMode>
        <coordinates>-58.489145091021854,-34.518359032716724,636.1063999999997</coordinates>
      </Point>
    </Placemark>
    <Placemark>
      <name></name>
      <Point>
        <extrude>1</extrude>
        <altitudeMode>absolute</altitudeMode>
        <coordinates>-58.489949321748014,-34.5179120702749,643.7363999999997</coordinates>
      </Point>
    </Placemark>
    <Placemark>
      <name></name>
      <Point>
        <extrude>1</extrude>
        <altitudeMode>absolute</altitudeMode>
        <coordinates>-58.490753840771305,-34.517464945207315,651.3663999999997</coordinates>
      </Point>
    </Placemark>
    <Placemark>
      <name></name>
      <Point>
        <extrude>1</extrude>
        <altitudeMode>absolute</altitudeMode>
        <coordinates>-58.49155864823916,-34.517017657429484,658.9963999999997</coordinates>
      </Point>
    </Placemark>
    <Placemark>
      <name></name>
      <Point>
        <extrude>1</extrude>
        <altitudeMode>absolute</altitudeMode>
        <coordinates>-58.49236374429904,-34.51657020685684,666.6263999999996</coordinates>
      </Point>
    </Placemark>
    <Placemark>
      <name></name>
      <Point>
        <extrude>1</extrude>
        <altitudeMode>absolute</altitudeMode>
        <coordinates>-58.49316912909855,-34.5161225934048,674.2563999999996</coordinates>
      </Point>
    </Placemark>
    <Placemark>
      <name></name>
      <Point>
        <extrude>1</extrude>
        <altitudeMode>absolute</altitudeMode>
        <coordinates>-58.4939748027854,-34.51567481698871,681.8863999999996</coordinates>
      </Point>
    </Placemark>
    <Placemark>
      <name></name>
      <Point>
        <extrude>1</extrude>
        <altitudeMode>absolute</altitudeMode>
        <coordinates>-58.49478076550734,-34.515226877523844,689.5163999999996</coordinates>
      </Point>
    </Placemark>
    <Placemark>
      <name></name>
      <Point>
        <extrude>1</extrude>
        <altitudeMode>absolute</altitudeMode>
        <coordinates>-58.495587017412305,-34.514778774925446,697.1463999999996</coordinates>
      </Point>
    </Placemark>
    <Placemark>
      <name></name>
      <Point>
        <extrude>1</extrude>
        <altitudeMode>absolute</altitudeMode>
        <coordinates>-58.49639355864821,-34.51433050910868,704.7763999999996</coordinates>
      </Point>
    </Placemark>
    <Placemark>
      <name></name>
      <Point>
        <extrude>1</extrude>
        <altitudeMode>absolute</altitudeMode>
        <coordinates>-58.497200389363144,-34.51388207998869,712.4063999999996</coordinates>
      </Point>
    </Placemark>
    <Placemark>
      <name></name>
      <Point>
        <extrude>1</extrude>
        <altitudeMode>absolute</altitudeMode>
        <coordinates>-58.498007509705275,-34.51343348748053,720.0363999999996</coordinates>
      </Point>
    </Placemark>
    <Placemark>
      <name></name>
      <Point>
        <extrude>1</extrude>
        <altitudeMode>absolute</altitudeMode>
        <coordinates>-58.49881491982285,-34.512984731499216,727.6663999999996</coordinates>
      </Point>
    </Placemark>
    <Placemark>
      <name>climbRamp-4.5 nm</name>
      <Point>
        <extrude>1</extrude>
        <altitudeMode>absolute</altitudeMode>
        <coordinates>-58.49962261986421,-34.512535811959694,727.6664011060526</coordinates>
      </Point>
    </Placemark>
    <Placemark>
      <name>turn-305.7-deg</name>
      <Point>
        <extrude>1</extrude>
        <altitudeMode>absolute</altitudeMode>
        <coordinates>-58.50041403001393,-34.512067612275224,735.2964011060526</coordinates>
      </Point>
    </Placemark>
    <Placemark>
      <name></name>
      <Point>
        <extrude>1</extrude>
        <altitudeMode>absolute</altitudeMode>
        <coordinates>-58.501221062708765,-34.5116178893942,735.2964022121057</coordinates>
      </Point>
    </Placemark>
    <Placemark>
      <name></name>
      <Point>
        <extrude>1</extrude>
        <altitudeMode>absolute</altitudeMode>
        <coordinates>-58.502028086692675,-34.511168161206214,735.2964033181587</coordinates>
      </Point>
    </Placemark>
    <Placemark>
      <name></name>
      <Point>
        <extrude>1</extrude>
        <altitudeMode>absolute</altitudeMode>
        <coordinates>-58.502835101965786,-34.51071842771142,735.2964044242117</coordinates>
      </Point>
    </Placemark>
    <Placemark>
      <name></name>
      <Point>
        <extrude>1</extrude>
        <altitudeMode>absolute</altitudeMode>
        <coordinates>-58.50364210852825,-34.51026868890994,735.2964055302648</coordinates>
      </Point>
    </Placemark>
    <Placemark>
      <name></name>
      <Point>
        <extrude>1</extrude>
        <altitudeMode>absolute</altitudeMode>
        <coordinates>-58.504449106380186,-34.50981894480194,735.2964066363178</coordinates>
      </Point>
    </Placemark>
    <Placemark>
      <name></name>
      <Point>
        <extrude>1</extrude>
        <altitudeMode>absolute</altitudeMode>
        <coordinates>-58.50525609552176,-34.509369195387556,735.2964077423708</coordinates>
      </Point>
    </Placemark>
    <Placemark>
      <name></name>
      <Point>
        <extrude>1</extrude>
        <altitudeMode>absolute</altitudeMode>
        <coordinates>-58.50606307595307,-34.50891944066695,735.2964088484239</coordinates>
      </Point>
    </Placemark>
    <Placemark>
      <name></name>
      <Point>
        <extrude>1</extrude>
        <altitudeMode>absolute</altitudeMode>
        <coordinates>-58.506870047674305,-34.50846968064026,735.2964099544769</coordinates>
      </Point>
    </Placemark>
    <Placemark>
      <name></name>
      <Point>
        <extrude>1</extrude>
        <altitudeMode>absolute</altitudeMode>
        <coordinates>-58.507677010685555,-34.50801991530762,735.2964110605299</coordinates>
      </Point>
    </Placemark>
    <Placemark>
      <name></name>
      <Point>
        <extrude>1</extrude>
        <altitudeMode>absolute</altitudeMode>
        <coordinates>-58.50848396498697,-34.50757014466919,735.296412166583</coordinates>
      </Point>
    </Placemark>
    <Placemark>
      <name></name>
      <Point>
        <extrude>1</extrude>
        <altitudeMode>absolute</altitudeMode>
        <coordinates>-58.50929091057871,-34.50712036872512,735.296413272636</coordinates>
      </Point>
    </Placemark>
    <Placemark>
      <name></name>
      <Point>
        <extrude>1</extrude>
        <altitudeMode>absolute</altitudeMode>
        <coordinates>-58.5100978474609,-34.50667058747554,735.296414378689</coordinates>
      </Point>
    </Placemark>
    <Placemark>
      <name></name>
      <Point>
        <extrude>1</extrude>
        <altitudeMode>absolute</altitudeMode>
        <coordinates>-58.51090477563366,-34.506220800920616,735.296415484742</coordinates>
      </Point>
    </Placemark>
    <Placemark>
      <name></name>
      <Point>
        <extrude>1</extrude>
        <altitudeMode>absolute</altitudeMode>
        <coordinates>-58.511711695097155,-34.505771009060474,735.296416590795</coordinates>
      </Point>
    </Placemark>
    <Placemark>
      <name></name>
      <Point>
        <extrude>1</extrude>
        <altitudeMode>absolute</altitudeMode>
        <coordinates>-58.512518605851504,-34.505321211895286,735.296417696848</coordinates>
      </Point>
    </Placemark>
    <Placemark>
      <name></name>
      <Point>
        <extrude>1</extrude>
        <altitudeMode>absolute</altitudeMode>
        <coordinates>-58.51332550789685,-34.50487140942518,735.2964188029011</coordinates>
      </Point>
    </Placemark>
    <Placemark>
      <name></name>
      <Point>
        <extrude>1</extrude>
        <altitudeMode>absolute</altitudeMode>
        <coordinates>-58.51413240123333,-34.5044216016503,735.2964199089541</coordinates>
      </Point>
    </Placemark>
    <Placemark>
      <name></name>
      <Point>
        <extrude>1</extrude>
        <altitudeMode>absolute</altitudeMode>
        <coordinates>-58.51493928586109,-34.50397178857081,735.2964210150071</coordinates>
      </Point>
    </Placemark>
    <Placemark>
      <name></name>
      <Point>
        <extrude>1</extrude>
        <altitudeMode>absolute</altitudeMode>
        <coordinates>-58.51574616178026,-34.50352197018683,735.2964221210602</coordinates>
      </Point>
    </Placemark>
    <Placemark>
      <name></name>
      <Point>
        <extrude>1</extrude>
        <altitudeMode>absolute</altitudeMode>
        <coordinates>-58.51655302899098,-34.50307214649854,735.2964232271132</coordinates>
      </Point>
    </Placemark>
    <Placemark>
      <name></name>
      <Point>
        <extrude>1</extrude>
        <altitudeMode>absolute</altitudeMode>
        <coordinates>-58.51735988749339,-34.50262231750605,735.2964243331662</coordinates>
      </Point>
    </Placemark>
    <Placemark>
      <name></name>
      <Point>
        <extrude>1</extrude>
        <altitudeMode>absolute</altitudeMode>
        <coordinates>-58.51816673728761,-34.50217248320955,735.2964254392193</coordinates>
      </Point>
    </Placemark>
    <Placemark>
      <name></name>
      <Point>
        <extrude>1</extrude>
        <altitudeMode>absolute</altitudeMode>
        <coordinates>-58.5189735783738,-34.501722643609135,735.2964265452723</coordinates>
      </Point>
    </Placemark>
    <Placemark>
      <name></name>
      <Point>
        <extrude>1</extrude>
        <altitudeMode>absolute</altitudeMode>
        <coordinates>-58.51978041075209,-34.50127279870499,735.2964276513253</coordinates>
      </Point>
    </Placemark>
    <Placemark>
      <name></name>
      <Point>
        <extrude>1</extrude>
        <altitudeMode>absolute</altitudeMode>
        <coordinates>-58.52058723442262,-34.50082294849725,735.2964287573784</coordinates>
      </Point>
    </Placemark>
    <Placemark>
      <name></name>
      <Point>
        <extrude>1</extrude>
        <altitudeMode>absolute</altitudeMode>
        <coordinates>-58.52139404938553,-34.50037309298605,735.2964298634314</coordinates>
      </Point>
    </Placemark>
    <Placemark>
      <name></name>
      <Point>
        <extrude>1</extrude>
        <altitudeMode>absolute</altitudeMode>
        <coordinates>-58.522200855640946,-34.49992323217157,735.2964309694844</coordinates>
      </Point>
    </Placemark>
    <Placemark>
      <name></name>
      <Point>
        <extrude>1</extrude>
        <altitudeMode>absolute</altitudeMode>
        <coordinates>-58.52300765318902,-34.499473366053905,735.2964320755375</coordinates>
      </Point>
    </Placemark>
    <Placemark>
      <name></name>
      <Point>
        <extrude>1</extrude>
        <altitudeMode>absolute</altitudeMode>
        <coordinates>-58.52381444202987,-34.499023494633256,735.2964331815905</coordinates>
      </Point>
    </Placemark>
    <Placemark>
      <name></name>
      <Point>
        <extrude>1</extrude>
        <altitudeMode>absolute</altitudeMode>
        <coordinates>-58.52462122216365,-34.49857361790973,735.2964342876435</coordinates>
      </Point>
    </Placemark>
    <Placemark>
      <name></name>
      <Point>
        <extrude>1</extrude>
        <altitudeMode>absolute</altitudeMode>
        <coordinates>-58.525427993590505,-34.49812373588349,735.2964353936966</coordinates>
      </Point>
    </Placemark>
    <Placemark>
      <name></name>
      <Point>
        <extrude>1</extrude>
        <altitudeMode>absolute</altitudeMode>
        <coordinates>-58.526234756310565,-34.497673848554676,735.2964364997496</coordinates>
      </Point>
    </Placemark>
    <Placemark>
      <name></name>
      <Point>
        <extrude>1</extrude>
        <altitudeMode>absolute</altitudeMode>
        <coordinates>-58.527041510323954,-34.49722395592344,735.2964376058026</coordinates>
      </Point>
    </Placemark>
    <Placemark>
      <name></name>
      <Point>
        <extrude>1</extrude>
        <altitudeMode>absolute</altitudeMode>
        <coordinates>-58.527848255630836,-34.496774057989924,735.2964387118557</coordinates>
      </Point>
    </Placemark>
    <Placemark>
      <name></name>
      <Point>
        <extrude>1</extrude>
        <altitudeMode>absolute</altitudeMode>
        <coordinates>-58.52865499223132,-34.496324154754284,735.2964398179087</coordinates>
      </Point>
    </Placemark>
    <Placemark>
      <name></name>
      <Point>
        <extrude>1</extrude>
        <altitudeMode>absolute</altitudeMode>
        <coordinates>-58.52946172012556,-34.49587424621665,735.2964409239617</coordinates>
      </Point>
    </Placemark>
    <Placemark>
      <name></name>
      <Point>
        <extrude>1</extrude>
        <altitudeMode>absolute</altitudeMode>
        <coordinates>-58.53026843931369,-34.49542433237719,735.2964420300148</coordinates>
      </Point>
    </Placemark>
    <Placemark>
      <name></name>
      <Point>
        <extrude>1</extrude>
        <altitudeMode>absolute</altitudeMode>
        <coordinates>-58.53107514979585,-34.49497441323602,735.2964431360678</coordinates>
      </Point>
    </Placemark>
    <Placemark>
      <name></name>
      <Point>
        <extrude>1</extrude>
        <altitudeMode>absolute</altitudeMode>
        <coordinates>-58.53188185157217,-34.49452448879332,735.2964442421207</coordinates>
      </Point>
    </Placemark>
    <Placemark>
      <name></name>
      <Point>
        <extrude>1</extrude>
        <altitudeMode>absolute</altitudeMode>
        <coordinates>-58.5326885446428,-34.4940745590492,735.2964453481738</coordinates>
      </Point>
    </Placemark>
    <Placemark>
      <name></name>
      <Point>
        <extrude>1</extrude>
        <altitudeMode>absolute</altitudeMode>
        <coordinates>-58.533495229007876,-34.49362462400384,735.296446454227</coordinates>
      </Point>
    </Placemark>
    <Placemark>
      <name></name>
      <Point>
        <extrude>1</extrude>
        <altitudeMode>absolute</altitudeMode>
        <coordinates>-58.534301904667544,-34.49317468365739,735.2964475602801</coordinates>
      </Point>
    </Placemark>
    <Placemark>
      <name></name>
      <Point>
        <extrude>1</extrude>
        <altitudeMode>absolute</altitudeMode>
        <coordinates>-58.53510857162191,-34.492724738009954,735.2964486663332</coordinates>
      </Point>
    </Placemark>
    <Placemark>
      <name></name>
      <Point>
        <extrude>1</extrude>
        <altitudeMode>absolute</altitudeMode>
        <coordinates>-58.535915229871144,-34.49227478706172,735.2964497723862</coordinates>
      </Point>
    </Placemark>
    <Placemark>
      <name></name>
      <Point>
        <extrude>1</extrude>
        <altitudeMode>absolute</altitudeMode>
        <coordinates>-58.53672187941536,-34.49182483081281,735.2964508784393</coordinates>
      </Point>
    </Placemark>
    <Placemark>
      <name></name>
      <Point>
        <extrude>1</extrude>
        <altitudeMode>absolute</altitudeMode>
        <coordinates>-58.53752852025473,-34.49137486926338,735.2964519844923</coordinates>
      </Point>
    </Placemark>
    <Placemark>
      <name></name>
      <Point>
        <extrude>1</extrude>
        <altitudeMode>absolute</altitudeMode>
        <coordinates>-58.53833515238936,-34.49092490241358,735.2964530905454</coordinates>
      </Point>
    </Placemark>
    <Placemark>
      <name></name>
      <Point>
        <extrude>1</extrude>
        <altitudeMode>absolute</altitudeMode>
        <coordinates>-58.539141775819395,-34.490474930263545,735.2964541965985</coordinates>
      </Point>
    </Placemark>
    <Placemark>
      <name></name>
      <Point>
        <extrude>1</extrude>
        <altitudeMode>absolute</altitudeMode>
        <coordinates>-58.53994839054497,-34.490024952813435,735.2964553026515</coordinates>
      </Point>
    </Placemark>
    <Placemark>
      <name></name>
      <Point>
        <extrude>1</extrude>
        <altitudeMode>absolute</altitudeMode>
        <coordinates>-58.54075499656624,-34.48957497006339,735.2964564087046</coordinates>
      </Point>
    </Placemark>
    <Placemark>
      <name></name>
      <Point>
        <extrude>1</extrude>
        <altitudeMode>absolute</altitudeMode>
        <coordinates>-58.54156159388332,-34.48912498201355,735.2964575147577</coordinates>
      </Point>
    </Placemark>
    <Placemark>
      <name></name>
      <Point>
        <extrude>1</extrude>
        <altitudeMode>absolute</altitudeMode>
        <coordinates>-58.54236818249637,-34.488674988664066,735.2964586208108</coordinates>
      </Point>
    </Placemark>
    <Placemark>
      <name></name>
      <Point>
        <extrude>1</extrude>
        <altitudeMode>absolute</altitudeMode>
        <coordinates>-58.54317476240551,-34.48822499001509,735.2964597268639</coordinates>
      </Point>
    </Placemark>
    <Placemark>
      <name></name>
      <Point>
        <extrude>1</extrude>
        <altitudeMode>absolute</altitudeMode>
        <coordinates>-58.54398133361089,-34.48777498606676,735.296460832917</coordinates>
      </Point>
    </Placemark>
    <Placemark>
      <name></name>
      <Point>
        <extrude>1</extrude>
        <altitudeMode>absolute</altitudeMode>
        <coordinates>-58.54478789611264,-34.48732497681923,735.2964619389701</coordinates>
      </Point>
    </Placemark>
    <Placemark>
      <name></name>
      <Point>
        <extrude>1</extrude>
        <altitudeMode>absolute</altitudeMode>
        <coordinates>-58.5455944499109,-34.486874962272644,735.2964630450231</coordinates>
      </Point>
    </Placemark>
    <Placemark>
      <name></name>
      <Point>
        <extrude>1</extrude>
        <altitudeMode>absolute</altitudeMode>
        <coordinates>-58.546400995005804,-34.48642494242715,735.2964641510762</coordinates>
      </Point>
    </Placemark>
    <Placemark>
      <name></name>
      <Point>
        <extrude>1</extrude>
        <altitudeMode>absolute</altitudeMode>
        <coordinates>-58.547207531397504,-34.48597491728288,735.2964652571293</coordinates>
      </Point>
    </Placemark>
    <Placemark>
      <name></name>
      <Point>
        <extrude>1</extrude>
        <altitudeMode>absolute</altitudeMode>
        <coordinates>-58.54801405908613,-34.48552488684,735.2964663631824</coordinates>
      </Point>
    </Placemark>
    <Placemark>
      <name></name>
      <Point>
        <extrude>1</extrude>
        <altitudeMode>absolute</altitudeMode>
        <coordinates>-58.54882057807182,-34.485074851098645,735.2964674692355</coordinates>
      </Point>
    </Placemark>
    <Placemark>
      <name></name>
      <Point>
        <extrude>1</extrude>
        <altitudeMode>absolute</altitudeMode>
        <coordinates>-58.5496270883547,-34.48462481005897,735.2964685752886</coordinates>
      </Point>
    </Placemark>
    <Placemark>
      <name></name>
      <Point>
        <extrude>1</extrude>
        <altitudeMode>absolute</altitudeMode>
        <coordinates>-58.550433589934926,-34.484174763721114,735.2964696813417</coordinates>
      </Point>
    </Placemark>
    <Placemark>
      <name></name>
      <Point>
        <extrude>1</extrude>
        <altitudeMode>absolute</altitudeMode>
        <coordinates>-58.551240082812626,-34.48372471208522,735.2964707873947</coordinates>
      </Point>
    </Placemark>
    <Placemark>
      <name></name>
      <Point>
        <extrude>1</extrude>
        <altitudeMode>absolute</altitudeMode>
        <coordinates>-58.55204656698794,-34.48327465515144,735.2964718934478</coordinates>
      </Point>
    </Placemark>
    <Placemark>
      <name></name>
      <Point>
        <extrude>1</extrude>
        <altitudeMode>absolute</altitudeMode>
        <coordinates>-58.552853042460995,-34.48282459291992,735.2964729995009</coordinates>
      </Point>
    </Placemark>
    <Placemark>
      <name></name>
      <Point>
        <extrude>1</extrude>
        <altitudeMode>absolute</altitudeMode>
        <coordinates>-58.553659509231956,-34.48237452539081,735.296474105554</coordinates>
      </Point>
    </Placemark>
    <Placemark>
      <name></name>
      <Point>
        <extrude>1</extrude>
        <altitudeMode>absolute</altitudeMode>
        <coordinates>-58.55446596730094,-34.48192445256425,735.2964752116071</coordinates>
      </Point>
    </Placemark>
    <Placemark>
      <name></name>
      <Point>
        <extrude>1</extrude>
        <altitudeMode>absolute</altitudeMode>
        <coordinates>-58.55527241666809,-34.48147437444039,735.2964763176602</coordinates>
      </Point>
    </Placemark>
    <Placemark>
      <name></name>
      <Point>
        <extrude>1</extrude>
        <altitudeMode>absolute</altitudeMode>
        <coordinates>-58.556078857333546,-34.481024291019374,735.2964774237133</coordinates>
      </Point>
    </Placemark>
    <Placemark>
      <name></name>
      <Point>
        <extrude>1</extrude>
        <altitudeMode>absolute</altitudeMode>
        <coordinates>-58.55688528929743,-34.48057420230135,735.2964785297665</coordinates>
      </Point>
    </Placemark>
    <Placemark>
      <name></name>
      <Point>
        <extrude>1</extrude>
        <altitudeMode>absolute</altitudeMode>
        <coordinates>-58.55769171255992,-34.48012410828646,735.2964796358197</coordinates>
      </Point>
    </Placemark>
    <Placemark>
      <name></name>
      <Point>
        <extrude>1</extrude>
        <altitudeMode>absolute</altitudeMode>
        <coordinates>-58.558498127121105,-34.47967400897486,735.2964807418728</coordinates>
      </Point>
    </Placemark>
    <Placemark>
      <name></name>
      <Point>
        <extrude>1</extrude>
        <altitudeMode>absolute</altitudeMode>
        <coordinates>-58.55930453298115,-34.47922390436669,735.2964818479259</coordinates>
      </Point>
    </Placemark>
    <Placemark>
      <name></name>
      <Point>
        <extrude>1</extrude>
        <altitudeMode>absolute</altitudeMode>
        <coordinates>-58.5601109301402,-34.47877379446209,735.2964829539791</coordinates>
      </Point>
    </Placemark>
    <Placemark>
      <name></name>
      <Point>
        <extrude>1</extrude>
        <altitudeMode>absolute</altitudeMode>
        <coordinates>-58.56091731859837,-34.478323679261216,735.2964840600322</coordinates>
      </Point>
    </Placemark>
    <Placemark>
      <name></name>
      <Point>
        <extrude>1</extrude>
        <altitudeMode>absolute</altitudeMode>
        <coordinates>-58.561723698355834,-34.477873558764216,735.2964851660853</coordinates>
      </Point>
    </Placemark>
    <Placemark>
      <name></name>
      <Point>
        <extrude>1</extrude>
        <altitudeMode>absolute</altitudeMode>
        <coordinates>-58.56253006941268,-34.47742343297122,735.2964862721384</coordinates>
      </Point>
    </Placemark>
    <Placemark>
      <name></name>
      <Point>
        <extrude>1</extrude>
        <altitudeMode>absolute</altitudeMode>
        <coordinates>-58.56333643176907,-34.4769733018824,735.2964873781916</coordinates>
      </Point>
    </Placemark>
    <Placemark>
      <name></name>
      <Point>
        <extrude>1</extrude>
        <altitudeMode>absolute</altitudeMode>
        <coordinates>-58.564142785425155,-34.47652316549788,735.2964884842447</coordinates>
      </Point>
    </Placemark>
    <Placemark>
      <name></name>
      <Point>
        <extrude>1</extrude>
        <altitudeMode>absolute</altitudeMode>
        <coordinates>-58.564949130381045,-34.47607302381782,735.2964895902979</coordinates>
      </Point>
    </Placemark>
    <Placemark>
      <name></name>
      <Point>
        <extrude>1</extrude>
        <altitudeMode>absolute</altitudeMode>
        <coordinates>-58.565755466636915,-34.47562287684236,735.296490696351</coordinates>
      </Point>
    </Placemark>
    <Placemark>
      <name></name>
      <Point>
        <extrude>1</extrude>
        <altitudeMode>absolute</altitudeMode>
        <coordinates>-58.566561794192886,-34.475172724571635,735.2964918024041</coordinates>
      </Point>
    </Placemark>
    <Placemark>
      <name></name>
      <Point>
        <extrude>1</extrude>
        <altitudeMode>absolute</altitudeMode>
        <coordinates>-58.56736811304907,-34.47472256700582,735.2964929084573</coordinates>
      </Point>
    </Placemark>
    <Placemark>
      <name></name>
      <Point>
        <extrude>1</extrude>
        <altitudeMode>absolute</altitudeMode>
        <coordinates>-58.56817442320565,-34.47427240414504,735.2964940145105</coordinates>
      </Point>
    </Placemark>
    <Placemark>
      <name></name>
      <Point>
        <extrude>1</extrude>
        <altitudeMode>absolute</altitudeMode>
        <coordinates>-58.56898072466273,-34.47382223598944,735.2964951205636</coordinates>
      </Point>
    </Placemark>
    <Placemark>
      <name></name>
      <Point>
        <extrude>1</extrude>
        <altitudeMode>absolute</altitudeMode>
        <coordinates>-58.56978701742047,-34.47337206253918,735.2964962266167</coordinates>
      </Point>
    </Placemark>
    <Placemark>
      <name></name>
      <Point>
        <extrude>1</extrude>
        <altitudeMode>absolute</altitudeMode>
        <coordinates>-58.57059330147898,-34.47292188379439,735.2964973326698</coordinates>
      </Point>
    </Placemark>
    <Placemark>
      <name></name>
      <Point>
        <extrude>1</extrude>
        <altitudeMode>absolute</altitudeMode>
        <coordinates>-58.57139957683842,-34.472471699755225,735.296498438723</coordinates>
      </Point>
    </Placemark>
    <Placemark>
      <name></name>
      <Point>
        <extrude>1</extrude>
        <altitudeMode>absolute</altitudeMode>
        <coordinates>-58.57220584349893,-34.47202151042184,735.2964995447761</coordinates>
      </Point>
    </Placemark>
    <Placemark>
      <name></name>
      <Point>
        <extrude>1</extrude>
        <altitudeMode>absolute</altitudeMode>
        <coordinates>-58.573012101460634,-34.471571315794364,735.2965006508293</coordinates>
      </Point>
    </Placemark>
    <Placemark>
      <name>EndOfClimbRamp</name>
      <Point>
        <extrude>1</extrude>
        <altitudeMode>absolute</altitudeMode>
        <coordinates>-58.573818350723684,-34.471121115872954,735.2965017568824</coordinates>
      </Point>
    </Placemark>
    <Placemark>
      <name></name>
      <Point>
        <extrude>1</extrude>
        <altitudeMode>absolute</altitudeMode>
        <coordinates>-58.57419297221929,-34.470883563253075,735.2965028629355</coordinates>
      </Point>
    </Placemark>
    <Placemark>
      <name></name>
      <Point>
        <extrude>1</extrude>
        <altitudeMode>absolute</altitudeMode>
        <coordinates>-58.57496616915381,-34.4703950719305,742.9265028629355</coordinates>
      </Point>
    </Placemark>
    <Placemark>
      <name></name>
      <Point>
        <extrude>1</extrude>
        <altitudeMode>absolute</altitudeMode>
        <coordinates>-58.57572195683713,-34.46988794169614,750.5565028629355</coordinates>
      </Point>
    </Placemark>
    <Placemark>
      <name></name>
      <Point>
        <extrude>1</extrude>
        <altitudeMode>absolute</altitudeMode>
        <coordinates>-58.57645966748484,-34.46936258750103,758.1865028629355</coordinates>
      </Point>
    </Placemark>
    <Placemark>
      <name></name>
      <Point>
        <extrude>1</extrude>
        <altitudeMode>absolute</altitudeMode>
        <coordinates>-58.577178647659366,-34.4688194407197,765.8165028629355</coordinates>
      </Point>
    </Placemark>
    <Placemark>
      <name></name>
      <Point>
        <extrude>1</extrude>
        <altitudeMode>absolute</altitudeMode>
        <coordinates>-58.57787825886956,-34.468258948820534,773.4465028629355</coordinates>
      </Point>
    </Placemark>
    <Placemark>
      <name></name>
      <Point>
        <extrude>1</extrude>
        <altitudeMode>absolute</altitudeMode>
        <coordinates>-58.57855787815943,-34.46768157502122,781.0765028629355</coordinates>
      </Point>
    </Placemark>
    <Placemark>
      <name></name>
      <Point>
        <extrude>1</extrude>
        <altitudeMode>absolute</altitudeMode>
        <coordinates>-58.57921689868519,-34.46708779792933,788.7065028629355</coordinates>
      </Point>
    </Placemark>
    <Placemark>
      <name></name>
      <Point>
        <extrude>1</extrude>
        <altitudeMode>absolute</altitudeMode>
        <coordinates>-58.579854730280346,-34.46647811116853,796.3365028629355</coordinates>
      </Point>
    </Placemark>
    <Placemark>
      <name></name>
      <Point>
        <extrude>1</extrude>
        <altitudeMode>absolute</altitudeMode>
        <coordinates>-58.580470800007916,-34.46585302299051,803.9665028629355</coordinates>
      </Point>
    </Placemark>
    <Placemark>
      <name></name>
      <Point>
        <extrude>1</extrude>
        <altitudeMode>absolute</altitudeMode>
        <coordinates>-58.581064552699644,-34.46521305587298,811.5965028629355</coordinates>
      </Point>
    </Placemark>
    <Placemark>
      <name></name>
      <Point>
        <extrude>1</extrude>
        <altitudeMode>absolute</altitudeMode>
        <coordinates>-58.58163545148142,-34.464558746104025,819.2265028629355</coordinates>
      </Point>
    </Placemark>
    <Placemark>
      <name></name>
      <Point>
        <extrude>1</extrude>
        <altitudeMode>absolute</altitudeMode>
        <coordinates>-58.58218297828442,-34.463890643353125,826.8565028629355</coordinates>
      </Point>
    </Placemark>
    <Placemark>
      <name></name>
      <Point>
        <extrude>1</extrude>
        <altitudeMode>absolute</altitudeMode>
        <coordinates>-58.58270663434172,-34.463209310229104,834.4865028629355</coordinates>
      </Point>
    </Placemark>
    <Placemark>
      <name></name>
      <Point>
        <extrude>1</extrude>
        <altitudeMode>absolute</altitudeMode>
        <coordinates>-58.583205940669416,-34.46251532182551,842.1165028629355</coordinates>
      </Point>
    </Placemark>
    <Placemark>
      <name></name>
      <Point>
        <extrude>1</extrude>
        <altitudeMode>absolute</altitudeMode>
        <coordinates>-58.583680438532355,-34.46180926525346,849.7465028629355</coordinates>
      </Point>
    </Placemark>
    <Placemark>
      <name></name>
      <Point>
        <extrude>1</extrude>
        <altitudeMode>absolute</altitudeMode>
        <coordinates>-58.584129689893444,-34.46109173916267,857.3765028629355</coordinates>
      </Point>
    </Placemark>
    <Placemark>
      <name></name>
      <Point>
        <extrude>1</extrude>
        <altitudeMode>absolute</altitudeMode>
        <coordinates>-58.58455327784657,-34.46036335325082,865.0065028629355</coordinates>
      </Point>
    </Placemark>
    <Placemark>
      <name></name>
      <Point>
        <extrude>1</extrude>
        <altitudeMode>absolute</altitudeMode>
        <coordinates>-58.584950807032314,-34.45962472776158,872.6365028629355</coordinates>
      </Point>
    </Placemark>
    <Placemark>
      <name>turn-337.8-deg</name>
      <Point>
        <extrude>1</extrude>
        <altitudeMode>absolute</altitudeMode>
        <coordinates>-58.58532190403625,-34.45887649297196,880.2665028629355</coordinates>
      </Point>
    </Placemark>
  </Document>
</kml>
