<?xml version="1.0" encoding="utf-8"?>
<kml xmlns="http://earth.google.com/kml/2.2">
  <Document>
    <Placemark>
      <name>17R-Orlando-Orlando Intl</name>
      <Point>
        <extrude>1</extrude>
        <altitudeMode>absolute</altitudeMode>
        <coordinates>-81.2958984375,28.43560028076172,29.260800000000003</coordinates>
      </Point>
    </Placemark>
    <Placemark>
      <name>groundRun-17R</name>
      <Point>
        <extrude>1</extrude>
        <altitudeMode>absolute</altitudeMode>
        <coordinates>-81.29589809340504,28.43558294591188,29.260800000000003</coordinates>
      </Point>
    </Placemark>
    <Placemark>
      <name></name>
      <Point>
        <extrude>1</extrude>
        <altitudeMode>absolute</altitudeMode>
        <coordinates>-81.29587572736705,28.434456180675593,29.260800000000003</coordinates>
      </Point>
    </Placemark>
    <Placemark>
      <name></name>
      <Point>
        <extrude>1</extrude>
        <altitudeMode>absolute</altitudeMode>
        <coordinates>-81.2958189531525,28.43159593047117,29.260800000000003</coordinates>
      </Point>
    </Placemark>
    <Placemark>
      <name></name>
      <Point>
        <extrude>1</extrude>
        <altitudeMode>absolute</altitudeMode>
        <coordinates>-81.29572777360784,28.427002195312717,29.260800000000003</coordinates>
      </Point>
    </Placemark>
    <Placemark>
      <name></name>
      <Point>
        <extrude>1</extrude>
        <altitudeMode>absolute</altitudeMode>
        <coordinates>-81.29560219326878,28.420674975214325,29.260800000000003</coordinates>
      </Point>
    </Placemark>
    <Placemark>
      <name>takeOff-1997.5-meters</name>
      <Point>
        <extrude>1</extrude>
        <altitudeMode>absolute</altitudeMode>
        <coordinates>-81.29554233024803,28.41765871139495,29.260800000000003</coordinates>
      </Point>
    </Placemark>
    <Placemark>
      <name>climbRamp-17R</name>
      <Point>
        <extrude>1</extrude>
        <altitudeMode>absolute</altitudeMode>
        <coordinates>-81.29552689904828,28.41688117949368,41.85080000000001</coordinates>
      </Point>
    </Placemark>
    <Placemark>
      <name></name>
      <Point>
        <extrude>1</extrude>
        <altitudeMode>absolute</altitudeMode>
        <coordinates>-81.29537234334717,28.409093266001815,118.15079999999996</coordinates>
      </Point>
    </Placemark>
    <Placemark>
      <name></name>
      <Point>
        <extrude>1</extrude>
        <altitudeMode>absolute</altitudeMode>
        <coordinates>-81.29521724182483,28.401277273347297,194.45079999999993</coordinates>
      </Point>
    </Placemark>
    <Placemark>
      <name></name>
      <Point>
        <extrude>1</extrude>
        <altitudeMode>absolute</altitudeMode>
        <coordinates>-81.29506159172315,28.39343305653515,270.7507999999999</coordinates>
      </Point>
    </Placemark>
    <Placemark>
      <name></name>
      <Point>
        <extrude>1</extrude>
        <altitudeMode>absolute</altitudeMode>
        <coordinates>-81.29490539026641,28.385560469631134,347.05079999999987</coordinates>
      </Point>
    </Placemark>
    <Placemark>
      <name></name>
      <Point>
        <extrude>1</extrude>
        <altitudeMode>absolute</altitudeMode>
        <coordinates>-81.29474863466143,28.377659365754855,423.3507999999998</coordinates>
      </Point>
    </Placemark>
    <Placemark>
      <name></name>
      <Point>
        <extrude>1</extrude>
        <altitudeMode>absolute</altitudeMode>
        <coordinates>-81.29459132209738,28.36972959707292,499.6507999999998</coordinates>
      </Point>
    </Placemark>
    <Placemark>
      <name></name>
      <Point>
        <extrude>1</extrude>
        <altitudeMode>absolute</altitudeMode>
        <coordinates>-81.29443344974548,28.361771014791948,575.9507999999997</coordinates>
      </Point>
    </Placemark>
    <Placemark>
      <name></name>
      <Point>
        <extrude>1</extrude>
        <altitudeMode>absolute</altitudeMode>
        <coordinates>-81.29427501475918,28.353783469151516,652.2507999999997</coordinates>
      </Point>
    </Placemark>
    <Placemark>
      <name></name>
      <Point>
        <extrude>1</extrude>
        <altitudeMode>absolute</altitudeMode>
        <coordinates>-81.2941160142737,28.345766809417203,728.5507999999996</coordinates>
      </Point>
    </Placemark>
    <Placemark>
      <name>climbRamp-4.5 nm</name>
      <Point>
        <extrude>1</extrude>
        <altitudeMode>absolute</altitudeMode>
        <coordinates>-81.29406820342524,28.34335611159291,743.8108011305922</coordinates>
      </Point>
    </Placemark>
    <Placemark>
      <name>turn-180.7-deg</name>
      <Point>
        <extrude>1</extrude>
        <altitudeMode>absolute</altitudeMode>
        <coordinates>-81.29407895079743,28.34255218593639,751.4408011305921</coordinates>
      </Point>
    </Placemark>
    <Placemark>
      <name></name>
      <Point>
        <extrude>1</extrude>
        <altitudeMode>absolute</altitudeMode>
        <coordinates>-81.29391683752117,28.33451363915787,751.4408124365171</coordinates>
      </Point>
    </Placemark>
    <Placemark>
      <name></name>
      <Point>
        <extrude>1</extrude>
        <altitudeMode>absolute</altitudeMode>
        <coordinates>-81.29375474877145,28.326475092183422,751.4408237424421</coordinates>
      </Point>
    </Placemark>
    <Placemark>
      <name></name>
      <Point>
        <extrude>1</extrude>
        <altitudeMode>absolute</altitudeMode>
        <coordinates>-81.29359268453635,28.31843654501313,751.4408350483673</coordinates>
      </Point>
    </Placemark>
    <Placemark>
      <name></name>
      <Point>
        <extrude>1</extrude>
        <altitudeMode>absolute</altitudeMode>
        <coordinates>-81.2934306448039,28.310397997647094,751.4408463542927</coordinates>
      </Point>
    </Placemark>
    <Placemark>
      <name></name>
      <Point>
        <extrude>1</extrude>
        <altitudeMode>absolute</altitudeMode>
        <coordinates>-81.29326862956222,28.302359450085405,751.4408576602184</coordinates>
      </Point>
    </Placemark>
    <Placemark>
      <name></name>
      <Point>
        <extrude>1</extrude>
        <altitudeMode>absolute</altitudeMode>
        <coordinates>-81.29310663879933,28.29432090232816,751.440868966144</coordinates>
      </Point>
    </Placemark>
    <Placemark>
      <name></name>
      <Point>
        <extrude>1</extrude>
        <altitudeMode>absolute</altitudeMode>
        <coordinates>-81.29294467250332,28.286282354375455,751.4408802720702</coordinates>
      </Point>
    </Placemark>
    <Placemark>
      <name></name>
      <Point>
        <extrude>1</extrude>
        <altitudeMode>absolute</altitudeMode>
        <coordinates>-81.2927827306623,28.278243806227376,751.4408915779965</coordinates>
      </Point>
    </Placemark>
    <Placemark>
      <name></name>
      <Point>
        <extrude>1</extrude>
        <altitudeMode>absolute</altitudeMode>
        <coordinates>-81.2926208132643,28.27020525788402,751.4409028839228</coordinates>
      </Point>
    </Placemark>
    <Placemark>
      <name>EndOfClimbRamp</name>
      <Point>
        <extrude>1</extrude>
        <altitudeMode>absolute</altitudeMode>
        <coordinates>-81.29258843271683,28.268597548191917,751.4409051451081</coordinates>
      </Point>
    </Placemark>
    <Placemark>
      <name>turn-162.2-deg</name>
      <Point>
        <extrude>1</extrude>
        <altitudeMode>absolute</altitudeMode>
        <coordinates>-81.29098223742903,28.26136073882934,820.1109062757007</coordinates>
      </Point>
    </Placemark>
    <Placemark>
      <name>17R-Orlando-Orlando Intl</name>
      <Point>
        <extrude>1</extrude>
        <altitudeMode>absolute</altitudeMode>
        <coordinates>-81.2958984375,28.43560028076172,29.260800000000003</coordinates>
      </Point>
    </Placemark>
    <Placemark>
      <name>groundRun-17R</name>
      <Point>
        <extrude>1</extrude>
        <altitudeMode>absolute</altitudeMode>
        <coordinates>-81.29589809340504,28.43558294591188,29.260800000000003</coordinates>
      </Point>
    </Placemark>
    <Placemark>
      <name></name>
      <Point>
        <extrude>1</extrude>
        <altitudeMode>absolute</altitudeMode>
        <coordinates>-81.29589740521538,28.435548276212224,29.260800000000003</coordinates>
      </Point>
    </Placemark>
    <Placemark>
      <name></name>
      <Point>
        <extrude>1</extrude>
        <altitudeMode>absolute</altitudeMode>
        <coordinates>-81.29589637293141,28.43549627166276,29.260800000000003</coordinates>
      </Point>
    </Placemark>
    <Placemark>
      <name></name>
      <Point>
        <extrude>1</extrude>
        <altitudeMode>absolute</altitudeMode>
        <coordinates>-81.29589499655366,28.435426932263493,29.260800000000003</coordinates>
      </Point>
    </Placemark>
    <Placemark>
      <name></name>
      <Point>
        <extrude>1</extrude>
        <altitudeMode>absolute</altitudeMode>
        <coordinates>-81.29589327608288,28.43534025801445,29.260800000000003</coordinates>
      </Point>
    </Placemark>
    <Placemark>
      <name></name>
      <Point>
        <extrude>1</extrude>
        <altitudeMode>absolute</altitudeMode>
        <coordinates>-81.29589121151999,28.435236248915643,29.260800000000003</coordinates>
      </Point>
    </Placemark>
    <Placemark>
      <name></name>
      <Point>
        <extrude>1</extrude>
        <altitudeMode>absolute</altitudeMode>
        <coordinates>-81.29588880286603,28.435114904967083,29.260800000000003</coordinates>
      </Point>
    </Placemark>
    <Placemark>
      <name></name>
      <Point>
        <extrude>1</extrude>
        <altitudeMode>absolute</altitudeMode>
        <coordinates>-81.29588605012228,28.434976226168782,29.260800000000003</coordinates>
      </Point>
    </Placemark>
    <Placemark>
      <name></name>
      <Point>
        <extrude>1</extrude>
        <altitudeMode>absolute</altitudeMode>
        <coordinates>-81.29588295329012,28.43482021252076,29.260800000000003</coordinates>
      </Point>
    </Placemark>
    <Placemark>
      <name></name>
      <Point>
        <extrude>1</extrude>
        <altitudeMode>absolute</altitudeMode>
        <coordinates>-81.29587951237112,28.434646864023023,29.260800000000003</coordinates>
      </Point>
    </Placemark>
    <Placemark>
      <name></name>
      <Point>
        <extrude>1</extrude>
        <altitudeMode>absolute</altitudeMode>
        <coordinates>-81.29587572736705,28.434456180675593,29.260800000000003</coordinates>
      </Point>
    </Placemark>
    <Placemark>
      <name></name>
      <Point>
        <extrude>1</extrude>
        <altitudeMode>absolute</altitudeMode>
        <coordinates>-81.29587159827982,28.434248162478486,29.260800000000003</coordinates>
      </Point>
    </Placemark>
    <Placemark>
      <name></name>
      <Point>
        <extrude>1</extrude>
        <altitudeMode>absolute</altitudeMode>
        <coordinates>-81.29586712511151,28.43402280943171,29.260800000000003</coordinates>
      </Point>
    </Placemark>
    <Placemark>
      <name></name>
      <Point>
        <extrude>1</extrude>
        <altitudeMode>absolute</altitudeMode>
        <coordinates>-81.2958623078644,28.43378012153528,29.260800000000003</coordinates>
      </Point>
    </Placemark>
    <Placemark>
      <name></name>
      <Point>
        <extrude>1</extrude>
        <altitudeMode>absolute</altitudeMode>
        <coordinates>-81.29585714654088,28.433520098789213,29.260800000000003</coordinates>
      </Point>
    </Placemark>
    <Placemark>
      <name></name>
      <Point>
        <extrude>1</extrude>
        <altitudeMode>absolute</altitudeMode>
        <coordinates>-81.29585164114357,28.43324274119352,29.260800000000003</coordinates>
      </Point>
    </Placemark>
    <Placemark>
      <name></name>
      <Point>
        <extrude>1</extrude>
        <altitudeMode>absolute</altitudeMode>
        <coordinates>-81.2958457916752,28.432948048748216,29.260800000000003</coordinates>
      </Point>
    </Placemark>
    <Placemark>
      <name></name>
      <Point>
        <extrude>1</extrude>
        <altitudeMode>absolute</altitudeMode>
        <coordinates>-81.29583959813873,28.432636021453312,29.260800000000003</coordinates>
      </Point>
    </Placemark>
    <Placemark>
      <name></name>
      <Point>
        <extrude>1</extrude>
        <altitudeMode>absolute</altitudeMode>
        <coordinates>-81.29583306053725,28.432306659308825,29.260800000000003</coordinates>
      </Point>
    </Placemark>
    <Placemark>
      <name></name>
      <Point>
        <extrude>1</extrude>
        <altitudeMode>absolute</altitudeMode>
        <coordinates>-81.29582617887402,28.431959962314775,29.260800000000003</coordinates>
      </Point>
    </Placemark>
    <Placemark>
      <name></name>
      <Point>
        <extrude>1</extrude>
        <altitudeMode>absolute</altitudeMode>
        <coordinates>-81.2958189531525,28.43159593047117,29.260800000000003</coordinates>
      </Point>
    </Placemark>
    <Placemark>
      <name></name>
      <Point>
        <extrude>1</extrude>
        <altitudeMode>absolute</altitudeMode>
        <coordinates>-81.29581138337629,28.431214563778024,29.260800000000003</coordinates>
      </Point>
    </Placemark>
    <Placemark>
      <name></name>
      <Point>
        <extrude>1</extrude>
        <altitudeMode>absolute</altitudeMode>
        <coordinates>-81.29580346954916,28.43081586223535,29.260800000000003</coordinates>
      </Point>
    </Placemark>
    <Placemark>
      <name></name>
      <Point>
        <extrude>1</extrude>
        <altitudeMode>absolute</altitudeMode>
        <coordinates>-81.29579521167504,28.430399825843164,29.260800000000003</coordinates>
      </Point>
    </Placemark>
    <Placemark>
      <name></name>
      <Point>
        <extrude>1</extrude>
        <altitudeMode>absolute</altitudeMode>
        <coordinates>-81.29578660975808,28.42996645460148,29.260800000000003</coordinates>
      </Point>
    </Placemark>
    <Placemark>
      <name></name>
      <Point>
        <extrude>1</extrude>
        <altitudeMode>absolute</altitudeMode>
        <coordinates>-81.29577766380254,28.429515748510315,29.260800000000003</coordinates>
      </Point>
    </Placemark>
    <Placemark>
      <name></name>
      <Point>
        <extrude>1</extrude>
        <altitudeMode>absolute</altitudeMode>
        <coordinates>-81.29576837381286,28.42904770756968,29.260800000000003</coordinates>
      </Point>
    </Placemark>
    <Placemark>
      <name></name>
      <Point>
        <extrude>1</extrude>
        <altitudeMode>absolute</altitudeMode>
        <coordinates>-81.29575873979367,28.428562331779585,29.260800000000003</coordinates>
      </Point>
    </Placemark>
    <Placemark>
      <name></name>
      <Point>
        <extrude>1</extrude>
        <altitudeMode>absolute</altitudeMode>
        <coordinates>-81.29574876174978,28.42805962114005,29.260800000000003</coordinates>
      </Point>
    </Placemark>
    <Placemark>
      <name></name>
      <Point>
        <extrude>1</extrude>
        <altitudeMode>absolute</altitudeMode>
        <coordinates>-81.29573843968612,28.42753957565109,29.260800000000003</coordinates>
      </Point>
    </Placemark>
    <Placemark>
      <name></name>
      <Point>
        <extrude>1</extrude>
        <altitudeMode>absolute</altitudeMode>
        <coordinates>-81.29572777360784,28.427002195312717,29.260800000000003</coordinates>
      </Point>
    </Placemark>
    <Placemark>
      <name></name>
      <Point>
        <extrude>1</extrude>
        <altitudeMode>absolute</altitudeMode>
        <coordinates>-81.29571676352022,28.42644748012494,29.260800000000003</coordinates>
      </Point>
    </Placemark>
    <Placemark>
      <name></name>
      <Point>
        <extrude>1</extrude>
        <altitudeMode>absolute</altitudeMode>
        <coordinates>-81.29570540942873,28.425875430087775,29.260800000000003</coordinates>
      </Point>
    </Placemark>
    <Placemark>
      <name></name>
      <Point>
        <extrude>1</extrude>
        <altitudeMode>absolute</altitudeMode>
        <coordinates>-81.295693711339,28.42528604520124,29.260800000000003</coordinates>
      </Point>
    </Placemark>
    <Placemark>
      <name></name>
      <Point>
        <extrude>1</extrude>
        <altitudeMode>absolute</altitudeMode>
        <coordinates>-81.29568166925684,28.424679325465352,29.260800000000003</coordinates>
      </Point>
    </Placemark>
    <Placemark>
      <name></name>
      <Point>
        <extrude>1</extrude>
        <altitudeMode>absolute</altitudeMode>
        <coordinates>-81.2956692831882,28.42405527088012,29.260800000000003</coordinates>
      </Point>
    </Placemark>
    <Placemark>
      <name></name>
      <Point>
        <extrude>1</extrude>
        <altitudeMode>absolute</altitudeMode>
        <coordinates>-81.29565655313924,28.423413881445562,29.260800000000003</coordinates>
      </Point>
    </Placemark>
    <Placemark>
      <name></name>
      <Point>
        <extrude>1</extrude>
        <altitudeMode>absolute</altitudeMode>
        <coordinates>-81.29564347911625,28.422755157161692,29.260800000000003</coordinates>
      </Point>
    </Placemark>
    <Placemark>
      <name></name>
      <Point>
        <extrude>1</extrude>
        <altitudeMode>absolute</altitudeMode>
        <coordinates>-81.29563006112572,28.42207909802852,29.260800000000003</coordinates>
      </Point>
    </Placemark>
    <Placemark>
      <name></name>
      <Point>
        <extrude>1</extrude>
        <altitudeMode>absolute</altitudeMode>
        <coordinates>-81.2956162991743,28.42138570404606,29.260800000000003</coordinates>
      </Point>
    </Placemark>
    <Placemark>
      <name></name>
      <Point>
        <extrude>1</extrude>
        <altitudeMode>absolute</altitudeMode>
        <coordinates>-81.29560219326878,28.420674975214325,29.260800000000003</coordinates>
      </Point>
    </Placemark>
    <Placemark>
      <name></name>
      <Point>
        <extrude>1</extrude>
        <altitudeMode>absolute</altitudeMode>
        <coordinates>-81.29558774341616,28.41994691153333,29.260800000000003</coordinates>
      </Point>
    </Placemark>
    <Placemark>
      <name></name>
      <Point>
        <extrude>1</extrude>
        <altitudeMode>absolute</altitudeMode>
        <coordinates>-81.29557294962359,28.419201513003095,29.260800000000003</coordinates>
      </Point>
    </Placemark>
    <Placemark>
      <name></name>
      <Point>
        <extrude>1</extrude>
        <altitudeMode>absolute</altitudeMode>
        <coordinates>-81.29555781189838,28.41843877962363,29.260800000000003</coordinates>
      </Point>
    </Placemark>
    <Placemark>
      <name>takeOff-1997.5-meters</name>
      <Point>
        <extrude>1</extrude>
        <altitudeMode>absolute</altitudeMode>
        <coordinates>-81.29554233024803,28.41765871139495,29.260800000000003</coordinates>
      </Point>
    </Placemark>
    <Placemark>
      <name>climbRamp-17R</name>
      <Point>
        <extrude>1</extrude>
        <altitudeMode>absolute</altitudeMode>
        <coordinates>-81.29552689904828,28.41688117949368,41.85080000000001</coordinates>
      </Point>
    </Placemark>
    <Placemark>
      <name></name>
      <Point>
        <extrude>1</extrude>
        <altitudeMode>absolute</altitudeMode>
        <coordinates>-81.29551146796187,28.416103647593758,49.4808</coordinates>
      </Point>
    </Placemark>
    <Placemark>
      <name></name>
      <Point>
        <extrude>1</extrude>
        <altitudeMode>absolute</altitudeMode>
        <coordinates>-81.29549603144194,28.41532583619995,57.1108</coordinates>
      </Point>
    </Placemark>
    <Placemark>
      <name></name>
      <Point>
        <extrude>1</extrude>
        <altitudeMode>absolute</altitudeMode>
        <coordinates>-81.29548058948575,28.414547745168523,64.7408</coordinates>
      </Point>
    </Placemark>
    <Placemark>
      <name></name>
      <Point>
        <extrude>1</extrude>
        <altitudeMode>absolute</altitudeMode>
        <coordinates>-81.29546514209055,28.41376937435565,72.37079999999999</coordinates>
      </Point>
    </Placemark>
    <Placemark>
      <name></name>
      <Point>
        <extrude>1</extrude>
        <altitudeMode>absolute</altitudeMode>
        <coordinates>-81.29544968925364,28.4129907236174,80.00079999999998</coordinates>
      </Point>
    </Placemark>
    <Placemark>
      <name></name>
      <Point>
        <extrude>1</extrude>
        <altitudeMode>absolute</altitudeMode>
        <coordinates>-81.29543423097226,28.412211792809767,87.63079999999998</coordinates>
      </Point>
    </Placemark>
    <Placemark>
      <name></name>
      <Point>
        <extrude>1</extrude>
        <altitudeMode>absolute</altitudeMode>
        <coordinates>-81.29541876724367,28.411432581788638,95.26079999999997</coordinates>
      </Point>
    </Placemark>
    <Placemark>
      <name></name>
      <Point>
        <extrude>1</extrude>
        <altitudeMode>absolute</altitudeMode>
        <coordinates>-81.29540329806512,28.41065309040982,102.89079999999997</coordinates>
      </Point>
    </Placemark>
    <Placemark>
      <name></name>
      <Point>
        <extrude>1</extrude>
        <altitudeMode>absolute</altitudeMode>
        <coordinates>-81.29538782343387,28.409873318529005,110.52079999999997</coordinates>
      </Point>
    </Placemark>
    <Placemark>
      <name></name>
      <Point>
        <extrude>1</extrude>
        <altitudeMode>absolute</altitudeMode>
        <coordinates>-81.29537234334717,28.409093266001815,118.15079999999996</coordinates>
      </Point>
    </Placemark>
    <Placemark>
      <name></name>
      <Point>
        <extrude>1</extrude>
        <altitudeMode>absolute</altitudeMode>
        <coordinates>-81.29535685780225,28.408312932683764,125.78079999999996</coordinates>
      </Point>
    </Placemark>
    <Placemark>
      <name></name>
      <Point>
        <extrude>1</extrude>
        <altitudeMode>absolute</altitudeMode>
        <coordinates>-81.29534136679639,28.407532318430295,133.41079999999997</coordinates>
      </Point>
    </Placemark>
    <Placemark>
      <name></name>
      <Point>
        <extrude>1</extrude>
        <altitudeMode>absolute</altitudeMode>
        <coordinates>-81.29532587032683,28.406751423096722,141.04079999999996</coordinates>
      </Point>
    </Placemark>
    <Placemark>
      <name></name>
      <Point>
        <extrude>1</extrude>
        <altitudeMode>absolute</altitudeMode>
        <coordinates>-81.29531036839083,28.405970246538285,148.67079999999996</coordinates>
      </Point>
    </Placemark>
    <Placemark>
      <name></name>
      <Point>
        <extrude>1</extrude>
        <altitudeMode>absolute</altitudeMode>
        <coordinates>-81.29529486098562,28.405188788610147,156.30079999999995</coordinates>
      </Point>
    </Placemark>
    <Placemark>
      <name></name>
      <Point>
        <extrude>1</extrude>
        <altitudeMode>absolute</altitudeMode>
        <coordinates>-81.29527934810844,28.40440704916734,163.93079999999995</coordinates>
      </Point>
    </Placemark>
    <Placemark>
      <name></name>
      <Point>
        <extrude>1</extrude>
        <altitudeMode>absolute</altitudeMode>
        <coordinates>-81.29526382975654,28.403625028064834,171.56079999999994</coordinates>
      </Point>
    </Placemark>
    <Placemark>
      <name></name>
      <Point>
        <extrude>1</extrude>
        <altitudeMode>absolute</altitudeMode>
        <coordinates>-81.29524830592715,28.402842725157495,179.19079999999994</coordinates>
      </Point>
    </Placemark>
    <Placemark>
      <name></name>
      <Point>
        <extrude>1</extrude>
        <altitudeMode>absolute</altitudeMode>
        <coordinates>-81.2952327766175,28.40206014030009,186.82079999999993</coordinates>
      </Point>
    </Placemark>
    <Placemark>
      <name></name>
      <Point>
        <extrude>1</extrude>
        <altitudeMode>absolute</altitudeMode>
        <coordinates>-81.29521724182483,28.401277273347297,194.45079999999993</coordinates>
      </Point>
    </Placemark>
    <Placemark>
      <name></name>
      <Point>
        <extrude>1</extrude>
        <altitudeMode>absolute</altitudeMode>
        <coordinates>-81.29520170154639,28.40049412415371,202.08079999999993</coordinates>
      </Point>
    </Placemark>
    <Placemark>
      <name></name>
      <Point>
        <extrude>1</extrude>
        <altitudeMode>absolute</altitudeMode>
        <coordinates>-81.29518615577942,28.39971069257381,209.71079999999992</coordinates>
      </Point>
    </Placemark>
    <Placemark>
      <name></name>
      <Point>
        <extrude>1</extrude>
        <altitudeMode>absolute</altitudeMode>
        <coordinates>-81.29517060452112,28.398926978461994,217.34079999999992</coordinates>
      </Point>
    </Placemark>
    <Placemark>
      <name></name>
      <Point>
        <extrude>1</extrude>
        <altitudeMode>absolute</altitudeMode>
        <coordinates>-81.29515504776873,28.398142981672567,224.9707999999999</coordinates>
      </Point>
    </Placemark>
    <Placemark>
      <name></name>
      <Point>
        <extrude>1</extrude>
        <altitudeMode>absolute</altitudeMode>
        <coordinates>-81.29513948551948,28.397358702059734,232.6007999999999</coordinates>
      </Point>
    </Placemark>
    <Placemark>
      <name></name>
      <Point>
        <extrude>1</extrude>
        <altitudeMode>absolute</altitudeMode>
        <coordinates>-81.2951239177706,28.396574139477607,240.2307999999999</coordinates>
      </Point>
    </Placemark>
    <Placemark>
      <name></name>
      <Point>
        <extrude>1</extrude>
        <altitudeMode>absolute</altitudeMode>
        <coordinates>-81.2951083445193,28.395789293780204,247.8607999999999</coordinates>
      </Point>
    </Placemark>
    <Placemark>
      <name></name>
      <Point>
        <extrude>1</extrude>
        <altitudeMode>absolute</altitudeMode>
        <coordinates>-81.29509276576283,28.395004164821454,255.4907999999999</coordinates>
      </Point>
    </Placemark>
    <Placemark>
      <name></name>
      <Point>
        <extrude>1</extrude>
        <altitudeMode>absolute</altitudeMode>
        <coordinates>-81.29507718149837,28.39421875245519,263.1207999999999</coordinates>
      </Point>
    </Placemark>
    <Placemark>
      <name></name>
      <Point>
        <extrude>1</extrude>
        <altitudeMode>absolute</altitudeMode>
        <coordinates>-81.29506159172315,28.39343305653515,270.7507999999999</coordinates>
      </Point>
    </Placemark>
    <Placemark>
      <name></name>
      <Point>
        <extrude>1</extrude>
        <altitudeMode>absolute</altitudeMode>
        <coordinates>-81.29504599643441,28.392647076914972,278.3807999999999</coordinates>
      </Point>
    </Placemark>
    <Placemark>
      <name></name>
      <Point>
        <extrude>1</extrude>
        <altitudeMode>absolute</altitudeMode>
        <coordinates>-81.29503039562935,28.3918608134482,286.0107999999999</coordinates>
      </Point>
    </Placemark>
    <Placemark>
      <name></name>
      <Point>
        <extrude>1</extrude>
        <altitudeMode>absolute</altitudeMode>
        <coordinates>-81.29501478930517,28.391074265988294,293.6407999999999</coordinates>
      </Point>
    </Placemark>
    <Placemark>
      <name></name>
      <Point>
        <extrude>1</extrude>
        <altitudeMode>absolute</altitudeMode>
        <coordinates>-81.2949991774591,28.390287434388604,301.2707999999999</coordinates>
      </Point>
    </Placemark>
    <Placemark>
      <name></name>
      <Point>
        <extrude>1</extrude>
        <altitudeMode>absolute</altitudeMode>
        <coordinates>-81.29498356008834,28.389500318502392,308.9007999999999</coordinates>
      </Point>
    </Placemark>
    <Placemark>
      <name></name>
      <Point>
        <extrude>1</extrude>
        <altitudeMode>absolute</altitudeMode>
        <coordinates>-81.2949679371901,28.388712918182833,316.5307999999999</coordinates>
      </Point>
    </Placemark>
    <Placemark>
      <name></name>
      <Point>
        <extrude>1</extrude>
        <altitudeMode>absolute</altitudeMode>
        <coordinates>-81.29495230876158,28.387925233282992,324.1607999999999</coordinates>
      </Point>
    </Placemark>
    <Placemark>
      <name></name>
      <Point>
        <extrude>1</extrude>
        <altitudeMode>absolute</altitudeMode>
        <coordinates>-81.29493667479998,28.38713726365586,331.7907999999999</coordinates>
      </Point>
    </Placemark>
    <Placemark>
      <name></name>
      <Point>
        <extrude>1</extrude>
        <altitudeMode>absolute</altitudeMode>
        <coordinates>-81.29492103530252,28.38634900915431,339.4207999999999</coordinates>
      </Point>
    </Placemark>
    <Placemark>
      <name></name>
      <Point>
        <extrude>1</extrude>
        <altitudeMode>absolute</altitudeMode>
        <coordinates>-81.29490539026641,28.385560469631134,347.05079999999987</coordinates>
      </Point>
    </Placemark>
    <Placemark>
      <name></name>
      <Point>
        <extrude>1</extrude>
        <altitudeMode>absolute</altitudeMode>
        <coordinates>-81.29488973968883,28.384771644939015,354.68079999999986</coordinates>
      </Point>
    </Placemark>
    <Placemark>
      <name></name>
      <Point>
        <extrude>1</extrude>
        <altitudeMode>absolute</altitudeMode>
        <coordinates>-81.29487408356697,28.38398253493056,362.31079999999986</coordinates>
      </Point>
    </Placemark>
    <Placemark>
      <name></name>
      <Point>
        <extrude>1</extrude>
        <altitudeMode>absolute</altitudeMode>
        <coordinates>-81.29485842189804,28.383193139458267,369.94079999999985</coordinates>
      </Point>
    </Placemark>
    <Placemark>
      <name></name>
      <Point>
        <extrude>1</extrude>
        <altitudeMode>absolute</altitudeMode>
        <coordinates>-81.29484275467922,28.38240345837454,377.57079999999985</coordinates>
      </Point>
    </Placemark>
    <Placemark>
      <name></name>
      <Point>
        <extrude>1</extrude>
        <altitudeMode>absolute</altitudeMode>
        <coordinates>-81.29482708190771,28.38161349153169,385.20079999999984</coordinates>
      </Point>
    </Placemark>
    <Placemark>
      <name></name>
      <Point>
        <extrude>1</extrude>
        <altitudeMode>absolute</altitudeMode>
        <coordinates>-81.29481140358071,28.380823238781947,392.83079999999984</coordinates>
      </Point>
    </Placemark>
    <Placemark>
      <name></name>
      <Point>
        <extrude>1</extrude>
        <altitudeMode>absolute</altitudeMode>
        <coordinates>-81.29479571969539,28.38003269997741,400.46079999999984</coordinates>
      </Point>
    </Placemark>
    <Placemark>
      <name></name>
      <Point>
        <extrude>1</extrude>
        <altitudeMode>absolute</altitudeMode>
        <coordinates>-81.29478003024894,28.379241874970113,408.09079999999983</coordinates>
      </Point>
    </Placemark>
    <Placemark>
      <name></name>
      <Point>
        <extrude>1</extrude>
        <altitudeMode>absolute</altitudeMode>
        <coordinates>-81.29476433523857,28.378450763611987,415.7207999999998</coordinates>
      </Point>
    </Placemark>
    <Placemark>
      <name></name>
      <Point>
        <extrude>1</extrude>
        <altitudeMode>absolute</altitudeMode>
        <coordinates>-81.29474863466143,28.377659365754855,423.3507999999998</coordinates>
      </Point>
    </Placemark>
    <Placemark>
      <name></name>
      <Point>
        <extrude>1</extrude>
        <altitudeMode>absolute</altitudeMode>
        <coordinates>-81.29473292851472,28.376867681250463,430.9807999999998</coordinates>
      </Point>
    </Placemark>
    <Placemark>
      <name></name>
      <Point>
        <extrude>1</extrude>
        <altitudeMode>absolute</altitudeMode>
        <coordinates>-81.2947172167956,28.37607570995044,438.6107999999998</coordinates>
      </Point>
    </Placemark>
    <Placemark>
      <name></name>
      <Point>
        <extrude>1</extrude>
        <altitudeMode>absolute</altitudeMode>
        <coordinates>-81.29470149950127,28.37528345170634,446.2407999999998</coordinates>
      </Point>
    </Placemark>
    <Placemark>
      <name></name>
      <Point>
        <extrude>1</extrude>
        <altitudeMode>absolute</altitudeMode>
        <coordinates>-81.2946857766289,28.37449090636961,453.8707999999998</coordinates>
      </Point>
    </Placemark>
    <Placemark>
      <name></name>
      <Point>
        <extrude>1</extrude>
        <altitudeMode>absolute</altitudeMode>
        <coordinates>-81.29467004817565,28.373698073791594,461.5007999999998</coordinates>
      </Point>
    </Placemark>
    <Placemark>
      <name></name>
      <Point>
        <extrude>1</extrude>
        <altitudeMode>absolute</altitudeMode>
        <coordinates>-81.29465431413871,28.37290495382356,469.1307999999998</coordinates>
      </Point>
    </Placemark>
    <Placemark>
      <name></name>
      <Point>
        <extrude>1</extrude>
        <altitudeMode>absolute</altitudeMode>
        <coordinates>-81.29463857451525,28.372111546316663,476.7607999999998</coordinates>
      </Point>
    </Placemark>
    <Placemark>
      <name></name>
      <Point>
        <extrude>1</extrude>
        <altitudeMode>absolute</altitudeMode>
        <coordinates>-81.29462282930243,28.371317851121958,484.3907999999998</coordinates>
      </Point>
    </Placemark>
    <Placemark>
      <name></name>
      <Point>
        <extrude>1</extrude>
        <altitudeMode>absolute</altitudeMode>
        <coordinates>-81.29460707849742,28.37052386809042,492.0207999999998</coordinates>
      </Point>
    </Placemark>
    <Placemark>
      <name></name>
      <Point>
        <extrude>1</extrude>
        <altitudeMode>absolute</altitudeMode>
        <coordinates>-81.29459132209738,28.36972959707292,499.6507999999998</coordinates>
      </Point>
    </Placemark>
    <Placemark>
      <name></name>
      <Point>
        <extrude>1</extrude>
        <altitudeMode>absolute</altitudeMode>
        <coordinates>-81.29457556009946,28.36893503792022,507.2807999999998</coordinates>
      </Point>
    </Placemark>
    <Placemark>
      <name></name>
      <Point>
        <extrude>1</extrude>
        <altitudeMode>absolute</altitudeMode>
        <coordinates>-81.29455979250085,28.368140190483008,514.9107999999998</coordinates>
      </Point>
    </Placemark>
    <Placemark>
      <name></name>
      <Point>
        <extrude>1</extrude>
        <altitudeMode>absolute</altitudeMode>
        <coordinates>-81.2945440192987,28.367345054611864,522.5407999999998</coordinates>
      </Point>
    </Placemark>
    <Placemark>
      <name></name>
      <Point>
        <extrude>1</extrude>
        <altitudeMode>absolute</altitudeMode>
        <coordinates>-81.29452824049017,28.36654963015726,530.1707999999998</coordinates>
      </Point>
    </Placemark>
    <Placemark>
      <name></name>
      <Point>
        <extrude>1</extrude>
        <altitudeMode>absolute</altitudeMode>
        <coordinates>-81.29451245607241,28.365753916969588,537.8007999999998</coordinates>
      </Point>
    </Placemark>
    <Placemark>
      <name></name>
      <Point>
        <extrude>1</extrude>
        <altitudeMode>absolute</altitudeMode>
        <coordinates>-81.29449666604258,28.364957914899144,545.4307999999997</coordinates>
      </Point>
    </Placemark>
    <Placemark>
      <name></name>
      <Point>
        <extrude>1</extrude>
        <altitudeMode>absolute</altitudeMode>
        <coordinates>-81.2944808703978,28.36416162379611,553.0607999999997</coordinates>
      </Point>
    </Placemark>
    <Placemark>
      <name></name>
      <Point>
        <extrude>1</extrude>
        <altitudeMode>absolute</altitudeMode>
        <coordinates>-81.29446506913527,28.363365043510584,560.6907999999997</coordinates>
      </Point>
    </Placemark>
    <Placemark>
      <name></name>
      <Point>
        <extrude>1</extrude>
        <altitudeMode>absolute</altitudeMode>
        <coordinates>-81.29444926225212,28.362568173892562,568.3207999999997</coordinates>
      </Point>
    </Placemark>
    <Placemark>
      <name></name>
      <Point>
        <extrude>1</extrude>
        <altitudeMode>absolute</altitudeMode>
        <coordinates>-81.29443344974548,28.361771014791948,575.9507999999997</coordinates>
      </Point>
    </Placemark>
    <Placemark>
      <name></name>
      <Point>
        <extrude>1</extrude>
        <altitudeMode>absolute</altitudeMode>
        <coordinates>-81.29441763161253,28.36097356605854,583.5807999999997</coordinates>
      </Point>
    </Placemark>
    <Placemark>
      <name></name>
      <Point>
        <extrude>1</extrude>
        <altitudeMode>absolute</altitudeMode>
        <coordinates>-81.29440180785039,28.36017582754205,591.2107999999997</coordinates>
      </Point>
    </Placemark>
    <Placemark>
      <name></name>
      <Point>
        <extrude>1</extrude>
        <altitudeMode>absolute</altitudeMode>
        <coordinates>-81.2943859784562,28.35937779909208,598.8407999999997</coordinates>
      </Point>
    </Placemark>
    <Placemark>
      <name></name>
      <Point>
        <extrude>1</extrude>
        <altitudeMode>absolute</altitudeMode>
        <coordinates>-81.29437014342712,28.35857948055814,606.4707999999997</coordinates>
      </Point>
    </Placemark>
    <Placemark>
      <name></name>
      <Point>
        <extrude>1</extrude>
        <altitudeMode>absolute</altitudeMode>
        <coordinates>-81.29435430276027,28.35778087178965,614.1007999999997</coordinates>
      </Point>
    </Placemark>
    <Placemark>
      <name></name>
      <Point>
        <extrude>1</extrude>
        <altitudeMode>absolute</altitudeMode>
        <coordinates>-81.29433845645278,28.356981972635925,621.7307999999997</coordinates>
      </Point>
    </Placemark>
    <Placemark>
      <name></name>
      <Point>
        <extrude>1</extrude>
        <altitudeMode>absolute</altitudeMode>
        <coordinates>-81.29432260450179,28.356182782946178,629.3607999999997</coordinates>
      </Point>
    </Placemark>
    <Placemark>
      <name></name>
      <Point>
        <extrude>1</extrude>
        <altitudeMode>absolute</altitudeMode>
        <coordinates>-81.29430674690444,28.35538330256953,636.9907999999997</coordinates>
      </Point>
    </Placemark>
    <Placemark>
      <name></name>
      <Point>
        <extrude>1</extrude>
        <altitudeMode>absolute</altitudeMode>
        <coordinates>-81.29429088365785,28.354583531355,644.6207999999997</coordinates>
      </Point>
    </Placemark>
    <Placemark>
      <name></name>
      <Point>
        <extrude>1</extrude>
        <altitudeMode>absolute</altitudeMode>
        <coordinates>-81.29427501475918,28.353783469151516,652.2507999999997</coordinates>
      </Point>
    </Placemark>
    <Placemark>
      <name></name>
      <Point>
        <extrude>1</extrude>
        <altitudeMode>absolute</altitudeMode>
        <coordinates>-81.29425914020551,28.352983115807902,659.8807999999997</coordinates>
      </Point>
    </Placemark>
    <Placemark>
      <name></name>
      <Point>
        <extrude>1</extrude>
        <altitudeMode>absolute</altitudeMode>
        <coordinates>-81.29424325999399,28.352182471172885,667.5107999999997</coordinates>
      </Point>
    </Placemark>
    <Placemark>
      <name></name>
      <Point>
        <extrude>1</extrude>
        <altitudeMode>absolute</altitudeMode>
        <coordinates>-81.29422737412175,28.351381535095097,675.1407999999997</coordinates>
      </Point>
    </Placemark>
    <Placemark>
      <name></name>
      <Point>
        <extrude>1</extrude>
        <altitudeMode>absolute</altitudeMode>
        <coordinates>-81.2942114825859,28.350580307423073,682.7707999999997</coordinates>
      </Point>
    </Placemark>
    <Placemark>
      <name></name>
      <Point>
        <extrude>1</extrude>
        <altitudeMode>absolute</altitudeMode>
        <coordinates>-81.29419558538356,28.349778788005235,690.4007999999997</coordinates>
      </Point>
    </Placemark>
    <Placemark>
      <name></name>
      <Point>
        <extrude>1</extrude>
        <altitudeMode>absolute</altitudeMode>
        <coordinates>-81.29417968251187,28.348976976689926,698.0307999999997</coordinates>
      </Point>
    </Placemark>
    <Placemark>
      <name></name>
      <Point>
        <extrude>1</extrude>
        <altitudeMode>absolute</altitudeMode>
        <coordinates>-81.29416377396791,28.348174873325384,705.6607999999997</coordinates>
      </Point>
    </Placemark>
    <Placemark>
      <name></name>
      <Point>
        <extrude>1</extrude>
        <altitudeMode>absolute</altitudeMode>
        <coordinates>-81.29414785974882,28.34737247775974,713.2907999999996</coordinates>
      </Point>
    </Placemark>
    <Placemark>
      <name></name>
      <Point>
        <extrude>1</extrude>
        <altitudeMode>absolute</altitudeMode>
        <coordinates>-81.29413193985171,28.346569789841034,720.9207999999996</coordinates>
      </Point>
    </Placemark>
    <Placemark>
      <name></name>
      <Point>
        <extrude>1</extrude>
        <altitudeMode>absolute</altitudeMode>
        <coordinates>-81.2941160142737,28.345766809417203,728.5507999999996</coordinates>
      </Point>
    </Placemark>
    <Placemark>
      <name></name>
      <Point>
        <extrude>1</extrude>
        <altitudeMode>absolute</altitudeMode>
        <coordinates>-81.29410008301188,28.3449635363361,736.1807999999996</coordinates>
      </Point>
    </Placemark>
    <Placemark>
      <name></name>
      <Point>
        <extrude>1</extrude>
        <altitudeMode>absolute</altitudeMode>
        <coordinates>-81.29408414606335,28.34415997044545,743.8107999999996</coordinates>
      </Point>
    </Placemark>
    <Placemark>
      <name>climbRamp-4.5 nm</name>
      <Point>
        <extrude>1</extrude>
        <altitudeMode>absolute</altitudeMode>
        <coordinates>-81.29406820342524,28.34335611159291,743.8108011305922</coordinates>
      </Point>
    </Placemark>
    <Placemark>
      <name>turn-180.7-deg</name>
      <Point>
        <extrude>1</extrude>
        <altitudeMode>absolute</altitudeMode>
        <coordinates>-81.29407895079743,28.34255218593639,751.4408011305921</coordinates>
      </Point>
    </Placemark>
    <Placemark>
      <name></name>
      <Point>
        <extrude>1</extrude>
        <altitudeMode>absolute</altitudeMode>
        <coordinates>-81.29406273836577,28.341748331267354,751.4408022611847</coordinates>
      </Point>
    </Placemark>
    <Placemark>
      <name></name>
      <Point>
        <extrude>1</extrude>
        <altitudeMode>absolute</altitudeMode>
        <coordinates>-81.29404652617949,28.340944476596366,751.4408033917771</coordinates>
      </Point>
    </Placemark>
    <Placemark>
      <name></name>
      <Point>
        <extrude>1</extrude>
        <altitudeMode>absolute</altitudeMode>
        <coordinates>-81.29403031423855,28.34014062192341,751.4408045223696</coordinates>
      </Point>
    </Placemark>
    <Placemark>
      <name></name>
      <Point>
        <extrude>1</extrude>
        <altitudeMode>absolute</altitudeMode>
        <coordinates>-81.29401410254297,28.3393367672485,751.4408056529621</coordinates>
      </Point>
    </Placemark>
    <Placemark>
      <name></name>
      <Point>
        <extrude>1</extrude>
        <altitudeMode>absolute</altitudeMode>
        <coordinates>-81.29399789109273,28.33853291257163,751.4408067835546</coordinates>
      </Point>
    </Placemark>
    <Placemark>
      <name></name>
      <Point>
        <extrude>1</extrude>
        <altitudeMode>absolute</altitudeMode>
        <coordinates>-81.29398167988782,28.337729057892794,751.4408079141471</coordinates>
      </Point>
    </Placemark>
    <Placemark>
      <name></name>
      <Point>
        <extrude>1</extrude>
        <altitudeMode>absolute</altitudeMode>
        <coordinates>-81.29396546892822,28.336925203212004,751.4408090447396</coordinates>
      </Point>
    </Placemark>
    <Placemark>
      <name></name>
      <Point>
        <extrude>1</extrude>
        <altitudeMode>absolute</altitudeMode>
        <coordinates>-81.29394925821391,28.336121348529247,751.4408101753321</coordinates>
      </Point>
    </Placemark>
    <Placemark>
      <name></name>
      <Point>
        <extrude>1</extrude>
        <altitudeMode>absolute</altitudeMode>
        <coordinates>-81.2939330477449,28.335317493844542,751.4408113059246</coordinates>
      </Point>
    </Placemark>
    <Placemark>
      <name></name>
      <Point>
        <extrude>1</extrude>
        <altitudeMode>absolute</altitudeMode>
        <coordinates>-81.29391683752117,28.33451363915787,751.4408124365171</coordinates>
      </Point>
    </Placemark>
    <Placemark>
      <name></name>
      <Point>
        <extrude>1</extrude>
        <altitudeMode>absolute</altitudeMode>
        <coordinates>-81.2939006275427,28.333709784469242,751.4408135671097</coordinates>
      </Point>
    </Placemark>
    <Placemark>
      <name></name>
      <Point>
        <extrude>1</extrude>
        <altitudeMode>absolute</altitudeMode>
        <coordinates>-81.29388441780948,28.33290592977865,751.4408146977022</coordinates>
      </Point>
    </Placemark>
    <Placemark>
      <name></name>
      <Point>
        <extrude>1</extrude>
        <altitudeMode>absolute</altitudeMode>
        <coordinates>-81.29386820832151,28.332102075086098,751.4408158282946</coordinates>
      </Point>
    </Placemark>
    <Placemark>
      <name></name>
      <Point>
        <extrude>1</extrude>
        <altitudeMode>absolute</altitudeMode>
        <coordinates>-81.29385199907877,28.3312982203916,751.4408169588871</coordinates>
      </Point>
    </Placemark>
    <Placemark>
      <name></name>
      <Point>
        <extrude>1</extrude>
        <altitudeMode>absolute</altitudeMode>
        <coordinates>-81.29383579008123,28.330494365695134,751.4408180894796</coordinates>
      </Point>
    </Placemark>
    <Placemark>
      <name></name>
      <Point>
        <extrude>1</extrude>
        <altitudeMode>absolute</altitudeMode>
        <coordinates>-81.29381958132892,28.32969051099671,751.4408192200722</coordinates>
      </Point>
    </Placemark>
    <Placemark>
      <name></name>
      <Point>
        <extrude>1</extrude>
        <altitudeMode>absolute</altitudeMode>
        <coordinates>-81.29380337282178,28.328886656296323,751.4408203506647</coordinates>
      </Point>
    </Placemark>
    <Placemark>
      <name></name>
      <Point>
        <extrude>1</extrude>
        <altitudeMode>absolute</altitudeMode>
        <coordinates>-81.29378716455984,28.32808280159398,751.4408214812572</coordinates>
      </Point>
    </Placemark>
    <Placemark>
      <name></name>
      <Point>
        <extrude>1</extrude>
        <altitudeMode>absolute</altitudeMode>
        <coordinates>-81.29377095654307,28.327278946889685,751.4408226118497</coordinates>
      </Point>
    </Placemark>
    <Placemark>
      <name></name>
      <Point>
        <extrude>1</extrude>
        <altitudeMode>absolute</altitudeMode>
        <coordinates>-81.29375474877145,28.326475092183422,751.4408237424421</coordinates>
      </Point>
    </Placemark>
    <Placemark>
      <name></name>
      <Point>
        <extrude>1</extrude>
        <altitudeMode>absolute</altitudeMode>
        <coordinates>-81.29373854124498,28.325671237475202,751.4408248730347</coordinates>
      </Point>
    </Placemark>
    <Placemark>
      <name></name>
      <Point>
        <extrude>1</extrude>
        <altitudeMode>absolute</altitudeMode>
        <coordinates>-81.29372233396364,28.324867382765024,751.4408260036272</coordinates>
      </Point>
    </Placemark>
    <Placemark>
      <name></name>
      <Point>
        <extrude>1</extrude>
        <altitudeMode>absolute</altitudeMode>
        <coordinates>-81.29370612692743,28.32406352805289,751.4408271342197</coordinates>
      </Point>
    </Placemark>
    <Placemark>
      <name></name>
      <Point>
        <extrude>1</extrude>
        <altitudeMode>absolute</altitudeMode>
        <coordinates>-81.29368992013633,28.3232596733388,751.4408282648122</coordinates>
      </Point>
    </Placemark>
    <Placemark>
      <name></name>
      <Point>
        <extrude>1</extrude>
        <altitudeMode>absolute</altitudeMode>
        <coordinates>-81.29367371359032,28.32245581862275,751.4408293954048</coordinates>
      </Point>
    </Placemark>
    <Placemark>
      <name></name>
      <Point>
        <extrude>1</extrude>
        <altitudeMode>absolute</altitudeMode>
        <coordinates>-81.2936575072894,28.32165196390474,751.4408305259973</coordinates>
      </Point>
    </Placemark>
    <Placemark>
      <name></name>
      <Point>
        <extrude>1</extrude>
        <altitudeMode>absolute</altitudeMode>
        <coordinates>-81.29364130123355,28.320848109184777,751.4408316565897</coordinates>
      </Point>
    </Placemark>
    <Placemark>
      <name></name>
      <Point>
        <extrude>1</extrude>
        <altitudeMode>absolute</altitudeMode>
        <coordinates>-81.29362509542277,28.320044254462847,751.4408327871822</coordinates>
      </Point>
    </Placemark>
    <Placemark>
      <name></name>
      <Point>
        <extrude>1</extrude>
        <altitudeMode>absolute</altitudeMode>
        <coordinates>-81.29360888985704,28.319240399738973,751.4408339177747</coordinates>
      </Point>
    </Placemark>
    <Placemark>
      <name></name>
      <Point>
        <extrude>1</extrude>
        <altitudeMode>absolute</altitudeMode>
        <coordinates>-81.29359268453635,28.31843654501313,751.4408350483673</coordinates>
      </Point>
    </Placemark>
    <Placemark>
      <name></name>
      <Point>
        <extrude>1</extrude>
        <altitudeMode>absolute</altitudeMode>
        <coordinates>-81.29357647946068,28.317632690285336,751.4408361789598</coordinates>
      </Point>
    </Placemark>
    <Placemark>
      <name></name>
      <Point>
        <extrude>1</extrude>
        <altitudeMode>absolute</altitudeMode>
        <coordinates>-81.29356027463002,28.31682883555558,751.4408373095523</coordinates>
      </Point>
    </Placemark>
    <Placemark>
      <name></name>
      <Point>
        <extrude>1</extrude>
        <altitudeMode>absolute</altitudeMode>
        <coordinates>-81.29354407004438,28.316024980823872,751.4408384401448</coordinates>
      </Point>
    </Placemark>
    <Placemark>
      <name></name>
      <Point>
        <extrude>1</extrude>
        <altitudeMode>absolute</altitudeMode>
        <coordinates>-81.29352786570372,28.3152211260902,751.4408395707375</coordinates>
      </Point>
    </Placemark>
    <Placemark>
      <name></name>
      <Point>
        <extrude>1</extrude>
        <altitudeMode>absolute</altitudeMode>
        <coordinates>-81.29351166160804,28.31441727135457,751.44084070133</coordinates>
      </Point>
    </Placemark>
    <Placemark>
      <name></name>
      <Point>
        <extrude>1</extrude>
        <altitudeMode>absolute</altitudeMode>
        <coordinates>-81.29349545775733,28.31361341661699,751.4408418319225</coordinates>
      </Point>
    </Placemark>
    <Placemark>
      <name></name>
      <Point>
        <extrude>1</extrude>
        <altitudeMode>absolute</altitudeMode>
        <coordinates>-81.29347925415156,28.312809561877454,751.440842962515</coordinates>
      </Point>
    </Placemark>
    <Placemark>
      <name></name>
      <Point>
        <extrude>1</extrude>
        <altitudeMode>absolute</altitudeMode>
        <coordinates>-81.29346305079076,28.31200570713596,751.4408440931076</coordinates>
      </Point>
    </Placemark>
    <Placemark>
      <name></name>
      <Point>
        <extrude>1</extrude>
        <altitudeMode>absolute</altitudeMode>
        <coordinates>-81.29344684767487,28.3112018523925,751.4408452237001</coordinates>
      </Point>
    </Placemark>
    <Placemark>
      <name></name>
      <Point>
        <extrude>1</extrude>
        <altitudeMode>absolute</altitudeMode>
        <coordinates>-81.2934306448039,28.310397997647094,751.4408463542927</coordinates>
      </Point>
    </Placemark>
    <Placemark>
      <name></name>
      <Point>
        <extrude>1</extrude>
        <altitudeMode>absolute</altitudeMode>
        <coordinates>-81.29341444217786,28.30959414289973,751.4408474848852</coordinates>
      </Point>
    </Placemark>
    <Placemark>
      <name></name>
      <Point>
        <extrude>1</extrude>
        <altitudeMode>absolute</altitudeMode>
        <coordinates>-81.29339823979669,28.308790288150405,751.4408486154779</coordinates>
      </Point>
    </Placemark>
    <Placemark>
      <name></name>
      <Point>
        <extrude>1</extrude>
        <altitudeMode>absolute</altitudeMode>
        <coordinates>-81.29338203766042,28.30798643339913,751.4408497460704</coordinates>
      </Point>
    </Placemark>
    <Placemark>
      <name></name>
      <Point>
        <extrude>1</extrude>
        <altitudeMode>absolute</altitudeMode>
        <coordinates>-81.29336583576901,28.307182578645893,751.4408508766629</coordinates>
      </Point>
    </Placemark>
    <Placemark>
      <name></name>
      <Point>
        <extrude>1</extrude>
        <altitudeMode>absolute</altitudeMode>
        <coordinates>-81.29334963412248,28.306378723890706,751.4408520072556</coordinates>
      </Point>
    </Placemark>
    <Placemark>
      <name></name>
      <Point>
        <extrude>1</extrude>
        <altitudeMode>absolute</altitudeMode>
        <coordinates>-81.29333343272077,28.305574869133558,751.4408531378481</coordinates>
      </Point>
    </Placemark>
    <Placemark>
      <name></name>
      <Point>
        <extrude>1</extrude>
        <altitudeMode>absolute</altitudeMode>
        <coordinates>-81.2933172315639,28.304771014374452,751.4408542684406</coordinates>
      </Point>
    </Placemark>
    <Placemark>
      <name></name>
      <Point>
        <extrude>1</extrude>
        <altitudeMode>absolute</altitudeMode>
        <coordinates>-81.29330103065186,28.303967159613396,751.4408553990332</coordinates>
      </Point>
    </Placemark>
    <Placemark>
      <name></name>
      <Point>
        <extrude>1</extrude>
        <altitudeMode>absolute</altitudeMode>
        <coordinates>-81.29328482998464,28.30316330485038,751.4408565296258</coordinates>
      </Point>
    </Placemark>
    <Placemark>
      <name></name>
      <Point>
        <extrude>1</extrude>
        <altitudeMode>absolute</altitudeMode>
        <coordinates>-81.29326862956222,28.302359450085405,751.4408576602184</coordinates>
      </Point>
    </Placemark>
    <Placemark>
      <name></name>
      <Point>
        <extrude>1</extrude>
        <altitudeMode>absolute</altitudeMode>
        <coordinates>-81.29325242938458,28.301555595318487,751.4408587908109</coordinates>
      </Point>
    </Placemark>
    <Placemark>
      <name></name>
      <Point>
        <extrude>1</extrude>
        <altitudeMode>absolute</altitudeMode>
        <coordinates>-81.29323622945172,28.300751740549604,751.4408599214034</coordinates>
      </Point>
    </Placemark>
    <Placemark>
      <name></name>
      <Point>
        <extrude>1</extrude>
        <altitudeMode>absolute</altitudeMode>
        <coordinates>-81.2932200297636,28.299947885778767,751.4408610519961</coordinates>
      </Point>
    </Placemark>
    <Placemark>
      <name></name>
      <Point>
        <extrude>1</extrude>
        <altitudeMode>absolute</altitudeMode>
        <coordinates>-81.29320383032028,28.29914403100597,751.4408621825886</coordinates>
      </Point>
    </Placemark>
    <Placemark>
      <name></name>
      <Point>
        <extrude>1</extrude>
        <altitudeMode>absolute</altitudeMode>
        <coordinates>-81.29318763112167,28.29834017623123,751.4408633131812</coordinates>
      </Point>
    </Placemark>
    <Placemark>
      <name></name>
      <Point>
        <extrude>1</extrude>
        <altitudeMode>absolute</altitudeMode>
        <coordinates>-81.29317143216778,28.29753632145453,751.4408644437738</coordinates>
      </Point>
    </Placemark>
    <Placemark>
      <name></name>
      <Point>
        <extrude>1</extrude>
        <altitudeMode>absolute</altitudeMode>
        <coordinates>-81.29315523345863,28.296732466675863,751.4408655743663</coordinates>
      </Point>
    </Placemark>
    <Placemark>
      <name></name>
      <Point>
        <extrude>1</extrude>
        <altitudeMode>absolute</altitudeMode>
        <coordinates>-81.29313903499417,28.29592861189525,751.4408667049589</coordinates>
      </Point>
    </Placemark>
    <Placemark>
      <name></name>
      <Point>
        <extrude>1</extrude>
        <altitudeMode>absolute</altitudeMode>
        <coordinates>-81.2931228367744,28.29512475711269,751.4408678355514</coordinates>
      </Point>
    </Placemark>
    <Placemark>
      <name></name>
      <Point>
        <extrude>1</extrude>
        <altitudeMode>absolute</altitudeMode>
        <coordinates>-81.29310663879933,28.29432090232816,751.440868966144</coordinates>
      </Point>
    </Placemark>
    <Placemark>
      <name></name>
      <Point>
        <extrude>1</extrude>
        <altitudeMode>absolute</altitudeMode>
        <coordinates>-81.29309044106891,28.29351704754169,751.4408700967366</coordinates>
      </Point>
    </Placemark>
    <Placemark>
      <name></name>
      <Point>
        <extrude>1</extrude>
        <altitudeMode>absolute</altitudeMode>
        <coordinates>-81.29307424358315,28.292713192753258,751.4408712273291</coordinates>
      </Point>
    </Placemark>
    <Placemark>
      <name></name>
      <Point>
        <extrude>1</extrude>
        <altitudeMode>absolute</altitudeMode>
        <coordinates>-81.29305804634204,28.291909337962874,751.4408723579218</coordinates>
      </Point>
    </Placemark>
    <Placemark>
      <name></name>
      <Point>
        <extrude>1</extrude>
        <altitudeMode>absolute</altitudeMode>
        <coordinates>-81.29304184934556,28.291105483170533,751.4408734885144</coordinates>
      </Point>
    </Placemark>
    <Placemark>
      <name></name>
      <Point>
        <extrude>1</extrude>
        <altitudeMode>absolute</altitudeMode>
        <coordinates>-81.29302565259371,28.290301628376234,751.440874619107</coordinates>
      </Point>
    </Placemark>
    <Placemark>
      <name></name>
      <Point>
        <extrude>1</extrude>
        <altitudeMode>absolute</altitudeMode>
        <coordinates>-81.29300945608647,28.289497773579992,751.4408757496997</coordinates>
      </Point>
    </Placemark>
    <Placemark>
      <name></name>
      <Point>
        <extrude>1</extrude>
        <altitudeMode>absolute</altitudeMode>
        <coordinates>-81.2929932598238,28.28869391878179,751.4408768802923</coordinates>
      </Point>
    </Placemark>
    <Placemark>
      <name></name>
      <Point>
        <extrude>1</extrude>
        <altitudeMode>absolute</altitudeMode>
        <coordinates>-81.29297706380574,28.287890063981635,751.440878010885</coordinates>
      </Point>
    </Placemark>
    <Placemark>
      <name></name>
      <Point>
        <extrude>1</extrude>
        <altitudeMode>absolute</altitudeMode>
        <coordinates>-81.29296086803224,28.28708620917952,751.4408791414776</coordinates>
      </Point>
    </Placemark>
    <Placemark>
      <name></name>
      <Point>
        <extrude>1</extrude>
        <altitudeMode>absolute</altitudeMode>
        <coordinates>-81.29294467250332,28.286282354375455,751.4408802720702</coordinates>
      </Point>
    </Placemark>
    <Placemark>
      <name></name>
      <Point>
        <extrude>1</extrude>
        <altitudeMode>absolute</altitudeMode>
        <coordinates>-81.29292847721894,28.285478499569443,751.4408814026629</coordinates>
      </Point>
    </Placemark>
    <Placemark>
      <name></name>
      <Point>
        <extrude>1</extrude>
        <altitudeMode>absolute</altitudeMode>
        <coordinates>-81.2929122821791,28.284674644761466,751.4408825332555</coordinates>
      </Point>
    </Placemark>
    <Placemark>
      <name></name>
      <Point>
        <extrude>1</extrude>
        <altitudeMode>absolute</altitudeMode>
        <coordinates>-81.29289608738378,28.283870789951546,751.4408836638481</coordinates>
      </Point>
    </Placemark>
    <Placemark>
      <name></name>
      <Point>
        <extrude>1</extrude>
        <altitudeMode>absolute</altitudeMode>
        <coordinates>-81.29287989283297,28.28306693513966,751.4408847944408</coordinates>
      </Point>
    </Placemark>
    <Placemark>
      <name></name>
      <Point>
        <extrude>1</extrude>
        <altitudeMode>absolute</altitudeMode>
        <coordinates>-81.29286369852667,28.28226308032583,751.4408859250334</coordinates>
      </Point>
    </Placemark>
    <Placemark>
      <name></name>
      <Point>
        <extrude>1</extrude>
        <altitudeMode>absolute</altitudeMode>
        <coordinates>-81.29284750446487,28.28145922551005,751.440887055626</coordinates>
      </Point>
    </Placemark>
    <Placemark>
      <name></name>
      <Point>
        <extrude>1</extrude>
        <altitudeMode>absolute</altitudeMode>
        <coordinates>-81.29283131064753,28.28065537069231,751.4408881862186</coordinates>
      </Point>
    </Placemark>
    <Placemark>
      <name></name>
      <Point>
        <extrude>1</extrude>
        <altitudeMode>absolute</altitudeMode>
        <coordinates>-81.29281511707467,28.27985151587262,751.4408893168112</coordinates>
      </Point>
    </Placemark>
    <Placemark>
      <name></name>
      <Point>
        <extrude>1</extrude>
        <altitudeMode>absolute</altitudeMode>
        <coordinates>-81.29279892374626,28.27904766105097,751.4408904474038</coordinates>
      </Point>
    </Placemark>
    <Placemark>
      <name></name>
      <Point>
        <extrude>1</extrude>
        <altitudeMode>absolute</altitudeMode>
        <coordinates>-81.2927827306623,28.278243806227376,751.4408915779965</coordinates>
      </Point>
    </Placemark>
    <Placemark>
      <name></name>
      <Point>
        <extrude>1</extrude>
        <altitudeMode>absolute</altitudeMode>
        <coordinates>-81.29276653782274,28.277439951401824,751.4408927085891</coordinates>
      </Point>
    </Placemark>
    <Placemark>
      <name></name>
      <Point>
        <extrude>1</extrude>
        <altitudeMode>absolute</altitudeMode>
        <coordinates>-81.29275034522763,28.276636096574325,751.4408938391817</coordinates>
      </Point>
    </Placemark>
    <Placemark>
      <name></name>
      <Point>
        <extrude>1</extrude>
        <altitudeMode>absolute</altitudeMode>
        <coordinates>-81.29273415287692,28.275832241744865,751.4408949697744</coordinates>
      </Point>
    </Placemark>
    <Placemark>
      <name></name>
      <Point>
        <extrude>1</extrude>
        <altitudeMode>absolute</altitudeMode>
        <coordinates>-81.2927179607706,28.275028386913462,751.440896100367</coordinates>
      </Point>
    </Placemark>
    <Placemark>
      <name></name>
      <Point>
        <extrude>1</extrude>
        <altitudeMode>absolute</altitudeMode>
        <coordinates>-81.29270176890866,28.274224532080105,751.4408972309596</coordinates>
      </Point>
    </Placemark>
    <Placemark>
      <name></name>
      <Point>
        <extrude>1</extrude>
        <altitudeMode>absolute</altitudeMode>
        <coordinates>-81.2926855772911,28.273420677244786,751.4408983615523</coordinates>
      </Point>
    </Placemark>
    <Placemark>
      <name></name>
      <Point>
        <extrude>1</extrude>
        <altitudeMode>absolute</altitudeMode>
        <coordinates>-81.29266938591789,28.27261682240752,751.4408994921449</coordinates>
      </Point>
    </Placemark>
    <Placemark>
      <name></name>
      <Point>
        <extrude>1</extrude>
        <altitudeMode>absolute</altitudeMode>
        <coordinates>-81.29265319478903,28.271812967568305,751.4409006227376</coordinates>
      </Point>
    </Placemark>
    <Placemark>
      <name></name>
      <Point>
        <extrude>1</extrude>
        <altitudeMode>absolute</altitudeMode>
        <coordinates>-81.29263700390452,28.27100911272714,751.4409017533302</coordinates>
      </Point>
    </Placemark>
    <Placemark>
      <name></name>
      <Point>
        <extrude>1</extrude>
        <altitudeMode>absolute</altitudeMode>
        <coordinates>-81.2926208132643,28.27020525788402,751.4409028839228</coordinates>
      </Point>
    </Placemark>
    <Placemark>
      <name></name>
      <Point>
        <extrude>1</extrude>
        <altitudeMode>absolute</altitudeMode>
        <coordinates>-81.29260462286841,28.269401403038945,751.4409040145155</coordinates>
      </Point>
    </Placemark>
    <Placemark>
      <name>EndOfClimbRamp</name>
      <Point>
        <extrude>1</extrude>
        <altitudeMode>absolute</altitudeMode>
        <coordinates>-81.29258843271683,28.268597548191917,751.4409051451081</coordinates>
      </Point>
    </Placemark>
    <Placemark>
      <name></name>
      <Point>
        <extrude>1</extrude>
        <altitudeMode>absolute</altitudeMode>
        <coordinates>-81.29255887770222,28.26845444177187,751.4409062757007</coordinates>
      </Point>
    </Placemark>
    <Placemark>
      <name></name>
      <Point>
        <extrude>1</extrude>
        <altitudeMode>absolute</altitudeMode>
        <coordinates>-81.29248937472192,28.267652500227115,759.0709062757007</coordinates>
      </Point>
    </Placemark>
    <Placemark>
      <name></name>
      <Point>
        <extrude>1</extrude>
        <altitudeMode>absolute</altitudeMode>
        <coordinates>-81.29239324703423,28.266852399442367,766.7009062757007</coordinates>
      </Point>
    </Placemark>
    <Placemark>
      <name></name>
      <Point>
        <extrude>1</extrude>
        <altitudeMode>absolute</altitudeMode>
        <coordinates>-81.29227054817714,28.266054826242154,774.3309062757007</coordinates>
      </Point>
    </Placemark>
    <Placemark>
      <name></name>
      <Point>
        <extrude>1</extrude>
        <altitudeMode>absolute</altitudeMode>
        <coordinates>-81.2921213545578,28.26526046653745,781.9609062757007</coordinates>
      </Point>
    </Placemark>
    <Placemark>
      <name></name>
      <Point>
        <extrude>1</extrude>
        <altitudeMode>absolute</altitudeMode>
        <coordinates>-81.29194576544431,28.26447000473427,789.5909062757007</coordinates>
      </Point>
    </Placemark>
    <Placemark>
      <name></name>
      <Point>
        <extrude>1</extrude>
        <altitudeMode>absolute</altitudeMode>
        <coordinates>-81.29174390293782,28.263684123141644,797.2209062757007</coordinates>
      </Point>
    </Placemark>
    <Placemark>
      <name></name>
      <Point>
        <extrude>1</extrude>
        <altitudeMode>absolute</altitudeMode>
        <coordinates>-81.29151591192492,28.262903501379395,804.8509062757007</coordinates>
      </Point>
    </Placemark>
    <Placemark>
      <name></name>
      <Point>
        <extrude>1</extrude>
        <altitudeMode>absolute</altitudeMode>
        <coordinates>-81.29126196001019,28.262128815786337,812.4809062757007</coordinates>
      </Point>
    </Placemark>
    <Placemark>
      <name>turn-162.2-deg</name>
      <Point>
        <extrude>1</extrude>
        <altitudeMode>absolute</altitudeMode>
        <coordinates>-81.29098223742903,28.26136073882934,820.1109062757007</coordinates>
      </Point>
    </Placemark>
  </Document>
</kml>
