<?xml version="1.0" encoding="utf-8"?>
<kml xmlns="http://earth.google.com/kml/2.2">
  <Document>
    <Placemark>
      <name>19L-Washington-Washington Dulles Airport Intl</name>
      <Point>
        <extrude>1</extrude>
        <altitudeMode>absolute</altitudeMode>
        <coordinates>-77.43599700927734,38.955299377441406,95.4024</coordinates>
      </Point>
    </Placemark>
    <Placemark>
      <name>groundRun-19L</name>
      <Point>
        <extrude>1</extrude>
        <altitudeMode>absolute</altitudeMode>
        <coordinates>-77.43599728165658,38.955282041244885,95.4024</coordinates>
      </Point>
    </Placemark>
    <Placemark>
      <name></name>
      <Point>
        <extrude>1</extrude>
        <altitudeMode>absolute</altitudeMode>
        <coordinates>-77.43601498614862,38.954155188474424,95.4024</coordinates>
      </Point>
    </Placemark>
    <Placemark>
      <name></name>
      <Point>
        <extrude>1</extrude>
        <altitudeMode>absolute</altitudeMode>
        <coordinates>-77.43605992700557,38.95129471606796,95.4024</coordinates>
      </Point>
    </Placemark>
    <Placemark>
      <name></name>
      <Point>
        <extrude>1</extrude>
        <altitudeMode>absolute</altitudeMode>
        <coordinates>-77.43613210086313,38.94670062403989,95.4024</coordinates>
      </Point>
    </Placemark>
    <Placemark>
      <name></name>
      <Point>
        <extrude>1</extrude>
        <altitudeMode>absolute</altitudeMode>
        <coordinates>-77.43623150236036,38.94037291240453,95.4024</coordinates>
      </Point>
    </Placemark>
    <Placemark>
      <name>takeOff-1997.5-meters</name>
      <Point>
        <extrude>1</extrude>
        <altitudeMode>absolute</altitudeMode>
        <coordinates>-77.43627888511766,38.93735641426357,95.4024</coordinates>
      </Point>
    </Placemark>
    <Placemark>
      <name>climbRamp-19L</name>
      <Point>
        <extrude>1</extrude>
        <altitudeMode>absolute</altitudeMode>
        <coordinates>-77.43629109764645,38.9365789149388,107.9924</coordinates>
      </Point>
    </Placemark>
    <Placemark>
      <name></name>
      <Point>
        <extrude>1</extrude>
        <altitudeMode>absolute</altitudeMode>
        <coordinates>-77.43641341365725,38.92879130918652,184.29239999999996</coordinates>
      </Point>
    </Placemark>
    <Placemark>
      <name></name>
      <Point>
        <extrude>1</extrude>
        <altitudeMode>absolute</altitudeMode>
        <coordinates>-77.43653615782375,38.920975583952156,260.59239999999994</coordinates>
      </Point>
    </Placemark>
    <Placemark>
      <name></name>
      <Point>
        <extrude>1</extrude>
        <altitudeMode>absolute</altitudeMode>
        <coordinates>-77.4366593322885,38.91313159382309,336.8923999999999</coordinates>
      </Point>
    </Placemark>
    <Placemark>
      <name></name>
      <Point>
        <extrude>1</extrude>
        <altitudeMode>absolute</altitudeMode>
        <coordinates>-77.43678293920748,38.90525919244339,413.19239999999985</coordinates>
      </Point>
    </Placemark>
    <Placemark>
      <name></name>
      <Point>
        <extrude>1</extrude>
        <altitudeMode>absolute</altitudeMode>
        <coordinates>-77.43690698075011,38.897358232506996,489.4923999999998</coordinates>
      </Point>
    </Placemark>
    <Placemark>
      <name></name>
      <Point>
        <extrude>1</extrude>
        <altitudeMode>absolute</altitudeMode>
        <coordinates>-77.43703145909943,38.889428565750684,565.7923999999998</coordinates>
      </Point>
    </Placemark>
    <Placemark>
      <name></name>
      <Point>
        <extrude>1</extrude>
        <altitudeMode>absolute</altitudeMode>
        <coordinates>-77.43715637645208,38.88147004294718,642.0923999999998</coordinates>
      </Point>
    </Placemark>
    <Placemark>
      <name></name>
      <Point>
        <extrude>1</extrude>
        <altitudeMode>absolute</altitudeMode>
        <coordinates>-77.43728173501853,38.873482513898026,718.3923999999997</coordinates>
      </Point>
    </Placemark>
    <Placemark>
      <name></name>
      <Point>
        <extrude>1</extrude>
        <altitudeMode>absolute</altitudeMode>
        <coordinates>-77.43740753702302,38.86546582742653,794.6923999999997</coordinates>
      </Point>
    </Placemark>
    <Placemark>
      <name>climbRamp-4.5 nm</name>
      <Point>
        <extrude>1</extrude>
        <altitudeMode>absolute</altitudeMode>
        <coordinates>-77.43744536442905,38.863055113065414,809.9524012311274</coordinates>
      </Point>
    </Placemark>
    <Placemark>
      <name>turn-179.0-deg</name>
      <Point>
        <extrude>1</extrude>
        <altitudeMode>absolute</altitudeMode>
        <coordinates>-77.43742780994559,38.86225130447709,817.5824012311274</coordinates>
      </Point>
    </Placemark>
    <Placemark>
      <name></name>
      <Point>
        <extrude>1</extrude>
        <altitudeMode>absolute</altitudeMode>
        <coordinates>-77.4375569712951,38.85421268566018,817.5824135424048</coordinates>
      </Point>
    </Placemark>
    <Placemark>
      <name></name>
      <Point>
        <extrude>1</extrude>
        <altitudeMode>absolute</altitudeMode>
        <coordinates>-77.43768610345157,38.846174066696314,817.5824258536825</coordinates>
      </Point>
    </Placemark>
    <Placemark>
      <name></name>
      <Point>
        <extrude>1</extrude>
        <altitudeMode>absolute</altitudeMode>
        <coordinates>-77.43781520642993,38.83813544758557,817.5824381649604</coordinates>
      </Point>
    </Placemark>
    <Placemark>
      <name></name>
      <Point>
        <extrude>1</extrude>
        <altitudeMode>absolute</altitudeMode>
        <coordinates>-77.43794428024519,38.83009682832804,817.5824504762384</coordinates>
      </Point>
    </Placemark>
    <Placemark>
      <name></name>
      <Point>
        <extrude>1</extrude>
        <altitudeMode>absolute</altitudeMode>
        <coordinates>-77.43807332491228,38.82205820892375,817.5824627875165</coordinates>
      </Point>
    </Placemark>
    <Placemark>
      <name></name>
      <Point>
        <extrude>1</extrude>
        <altitudeMode>absolute</altitudeMode>
        <coordinates>-77.43820234044617,38.814019589372826,817.5824750987947</coordinates>
      </Point>
    </Placemark>
    <Placemark>
      <name></name>
      <Point>
        <extrude>1</extrude>
        <altitudeMode>absolute</altitudeMode>
        <coordinates>-77.4383313268618,38.8059809696753,817.5824874100731</coordinates>
      </Point>
    </Placemark>
    <Placemark>
      <name></name>
      <Point>
        <extrude>1</extrude>
        <altitudeMode>absolute</altitudeMode>
        <coordinates>-77.4384602841741,38.797942349831274,817.5824997213522</coordinates>
      </Point>
    </Placemark>
    <Placemark>
      <name></name>
      <Point>
        <extrude>1</extrude>
        <altitudeMode>absolute</altitudeMode>
        <coordinates>-77.43858921239797,38.789903729840795,817.5825120326315</coordinates>
      </Point>
    </Placemark>
    <Placemark>
      <name>EndOfClimbRamp</name>
      <Point>
        <extrude>1</extrude>
        <altitudeMode>absolute</altitudeMode>
        <coordinates>-77.43861499455345,38.78829600582515,817.5825144948874</coordinates>
      </Point>
    </Placemark>
    <Placemark>
      <name>turn-174.0-deg</name>
      <Point>
        <extrude>1</extrude>
        <altitudeMode>absolute</altitudeMode>
        <coordinates>-77.4383547859477,38.785733881168106,840.4725157260153</coordinates>
      </Point>
    </Placemark>
    <Placemark>
      <name>19L-Washington-Washington Dulles Airport Intl</name>
      <Point>
        <extrude>1</extrude>
        <altitudeMode>absolute</altitudeMode>
        <coordinates>-77.43599700927734,38.955299377441406,95.4024</coordinates>
      </Point>
    </Placemark>
    <Placemark>
      <name>groundRun-19L</name>
      <Point>
        <extrude>1</extrude>
        <altitudeMode>absolute</altitudeMode>
        <coordinates>-77.43599728165658,38.955282041244885,95.4024</coordinates>
      </Point>
    </Placemark>
    <Placemark>
      <name></name>
      <Point>
        <extrude>1</extrude>
        <altitudeMode>absolute</altitudeMode>
        <coordinates>-77.43599782641476,38.95524736885187,95.4024</coordinates>
      </Point>
    </Placemark>
    <Placemark>
      <name></name>
      <Point>
        <extrude>1</extrude>
        <altitudeMode>absolute</altitudeMode>
        <coordinates>-77.43599864355143,38.95519536026237,95.4024</coordinates>
      </Point>
    </Placemark>
    <Placemark>
      <name></name>
      <Point>
        <extrude>1</extrude>
        <altitudeMode>absolute</altitudeMode>
        <coordinates>-77.43599973306593,38.95512601547639,95.4024</coordinates>
      </Point>
    </Placemark>
    <Placemark>
      <name></name>
      <Point>
        <extrude>1</extrude>
        <altitudeMode>absolute</altitudeMode>
        <coordinates>-77.4360010949574,38.95503933449395,95.4024</coordinates>
      </Point>
    </Placemark>
    <Placemark>
      <name></name>
      <Point>
        <extrude>1</extrude>
        <altitudeMode>absolute</altitudeMode>
        <coordinates>-77.43600272922475,38.954935317315055,95.4024</coordinates>
      </Point>
    </Placemark>
    <Placemark>
      <name></name>
      <Point>
        <extrude>1</extrude>
        <altitudeMode>absolute</altitudeMode>
        <coordinates>-77.43600463586672,38.954813963939735,95.4024</coordinates>
      </Point>
    </Placemark>
    <Placemark>
      <name></name>
      <Point>
        <extrude>1</extrude>
        <altitudeMode>absolute</altitudeMode>
        <coordinates>-77.43600681488186,38.95467527436799,95.4024</coordinates>
      </Point>
    </Placemark>
    <Placemark>
      <name></name>
      <Point>
        <extrude>1</extrude>
        <altitudeMode>absolute</altitudeMode>
        <coordinates>-77.4360092662685,38.95451924859985,95.4024</coordinates>
      </Point>
    </Placemark>
    <Placemark>
      <name></name>
      <Point>
        <extrude>1</extrude>
        <altitudeMode>absolute</altitudeMode>
        <coordinates>-77.43601199002478,38.95434588663532,95.4024</coordinates>
      </Point>
    </Placemark>
    <Placemark>
      <name></name>
      <Point>
        <extrude>1</extrude>
        <altitudeMode>absolute</altitudeMode>
        <coordinates>-77.43601498614862,38.954155188474424,95.4024</coordinates>
      </Point>
    </Placemark>
    <Placemark>
      <name></name>
      <Point>
        <extrude>1</extrude>
        <altitudeMode>absolute</altitudeMode>
        <coordinates>-77.43601825463774,38.95394715411715,95.4024</coordinates>
      </Point>
    </Placemark>
    <Placemark>
      <name></name>
      <Point>
        <extrude>1</extrude>
        <altitudeMode>absolute</altitudeMode>
        <coordinates>-77.43602179548971,38.95372178356354,95.4024</coordinates>
      </Point>
    </Placemark>
    <Placemark>
      <name></name>
      <Point>
        <extrude>1</extrude>
        <altitudeMode>absolute</altitudeMode>
        <coordinates>-77.43602560870183,38.9534790768136,95.4024</coordinates>
      </Point>
    </Placemark>
    <Placemark>
      <name></name>
      <Point>
        <extrude>1</extrude>
        <altitudeMode>absolute</altitudeMode>
        <coordinates>-77.43602969427126,38.953219033867335,95.4024</coordinates>
      </Point>
    </Placemark>
    <Placemark>
      <name></name>
      <Point>
        <extrude>1</extrude>
        <altitudeMode>absolute</altitudeMode>
        <coordinates>-77.43603405219493,38.952941654724775,95.4024</coordinates>
      </Point>
    </Placemark>
    <Placemark>
      <name></name>
      <Point>
        <extrude>1</extrude>
        <altitudeMode>absolute</altitudeMode>
        <coordinates>-77.43603868246956,38.952646939385936,95.4024</coordinates>
      </Point>
    </Placemark>
    <Placemark>
      <name></name>
      <Point>
        <extrude>1</extrude>
        <altitudeMode>absolute</altitudeMode>
        <coordinates>-77.43604358509171,38.95233488785082,95.4024</coordinates>
      </Point>
    </Placemark>
    <Placemark>
      <name></name>
      <Point>
        <extrude>1</extrude>
        <altitudeMode>absolute</altitudeMode>
        <coordinates>-77.43604876005772,38.95200550011944,95.4024</coordinates>
      </Point>
    </Placemark>
    <Placemark>
      <name></name>
      <Point>
        <extrude>1</extrude>
        <altitudeMode>absolute</altitudeMode>
        <coordinates>-77.43605420736368,38.95165877619182,95.4024</coordinates>
      </Point>
    </Placemark>
    <Placemark>
      <name></name>
      <Point>
        <extrude>1</extrude>
        <altitudeMode>absolute</altitudeMode>
        <coordinates>-77.43605992700557,38.95129471606796,95.4024</coordinates>
      </Point>
    </Placemark>
    <Placemark>
      <name></name>
      <Point>
        <extrude>1</extrude>
        <altitudeMode>absolute</altitudeMode>
        <coordinates>-77.43606591897911,38.9509133197479,95.4024</coordinates>
      </Point>
    </Placemark>
    <Placemark>
      <name></name>
      <Point>
        <extrude>1</extrude>
        <altitudeMode>absolute</altitudeMode>
        <coordinates>-77.43607218327983,38.95051458723162,95.4024</coordinates>
      </Point>
    </Placemark>
    <Placemark>
      <name></name>
      <Point>
        <extrude>1</extrude>
        <altitudeMode>absolute</altitudeMode>
        <coordinates>-77.4360787199031,38.950098518519155,95.4024</coordinates>
      </Point>
    </Placemark>
    <Placemark>
      <name></name>
      <Point>
        <extrude>1</extrude>
        <altitudeMode>absolute</altitudeMode>
        <coordinates>-77.43608552884403,38.94966511361053,95.4024</coordinates>
      </Point>
    </Placemark>
    <Placemark>
      <name></name>
      <Point>
        <extrude>1</extrude>
        <altitudeMode>absolute</altitudeMode>
        <coordinates>-77.43609261009756,38.94921437250574,95.4024</coordinates>
      </Point>
    </Placemark>
    <Placemark>
      <name></name>
      <Point>
        <extrude>1</extrude>
        <altitudeMode>absolute</altitudeMode>
        <coordinates>-77.43609996365842,38.9487462952048,95.4024</coordinates>
      </Point>
    </Placemark>
    <Placemark>
      <name></name>
      <Point>
        <extrude>1</extrude>
        <altitudeMode>absolute</altitudeMode>
        <coordinates>-77.43610758952119,38.94826088170774,95.4024</coordinates>
      </Point>
    </Placemark>
    <Placemark>
      <name></name>
      <Point>
        <extrude>1</extrude>
        <altitudeMode>absolute</altitudeMode>
        <coordinates>-77.43611548768015,38.947758132014556,95.4024</coordinates>
      </Point>
    </Placemark>
    <Placemark>
      <name></name>
      <Point>
        <extrude>1</extrude>
        <altitudeMode>absolute</altitudeMode>
        <coordinates>-77.4361236581295,38.94723804612527,95.4024</coordinates>
      </Point>
    </Placemark>
    <Placemark>
      <name></name>
      <Point>
        <extrude>1</extrude>
        <altitudeMode>absolute</altitudeMode>
        <coordinates>-77.43613210086313,38.94670062403989,95.4024</coordinates>
      </Point>
    </Placemark>
    <Placemark>
      <name></name>
      <Point>
        <extrude>1</extrude>
        <altitudeMode>absolute</altitudeMode>
        <coordinates>-77.43614081587481,38.946145865758446,95.4024</coordinates>
      </Point>
    </Placemark>
    <Placemark>
      <name></name>
      <Point>
        <extrude>1</extrude>
        <altitudeMode>absolute</altitudeMode>
        <coordinates>-77.43614980315807,38.94557377128094,95.4024</coordinates>
      </Point>
    </Placemark>
    <Placemark>
      <name></name>
      <Point>
        <extrude>1</extrude>
        <altitudeMode>absolute</altitudeMode>
        <coordinates>-77.43615906270625,38.94498434060739,95.4024</coordinates>
      </Point>
    </Placemark>
    <Placemark>
      <name></name>
      <Point>
        <extrude>1</extrude>
        <altitudeMode>absolute</altitudeMode>
        <coordinates>-77.43616859451252,38.94437757373782,95.4024</coordinates>
      </Point>
    </Placemark>
    <Placemark>
      <name></name>
      <Point>
        <extrude>1</extrude>
        <altitudeMode>absolute</altitudeMode>
        <coordinates>-77.4361783985698,38.94375347067222,95.4024</coordinates>
      </Point>
    </Placemark>
    <Placemark>
      <name></name>
      <Point>
        <extrude>1</extrude>
        <altitudeMode>absolute</altitudeMode>
        <coordinates>-77.43618847487082,38.94311203141063,95.4024</coordinates>
      </Point>
    </Placemark>
    <Placemark>
      <name></name>
      <Point>
        <extrude>1</extrude>
        <altitudeMode>absolute</altitudeMode>
        <coordinates>-77.43619882340813,38.94245325595305,95.4024</coordinates>
      </Point>
    </Placemark>
    <Placemark>
      <name></name>
      <Point>
        <extrude>1</extrude>
        <altitudeMode>absolute</altitudeMode>
        <coordinates>-77.43620944417411,38.9417771442995,95.4024</coordinates>
      </Point>
    </Placemark>
    <Placemark>
      <name></name>
      <Point>
        <extrude>1</extrude>
        <altitudeMode>absolute</altitudeMode>
        <coordinates>-77.43622033716086,38.941083696449994,95.4024</coordinates>
      </Point>
    </Placemark>
    <Placemark>
      <name></name>
      <Point>
        <extrude>1</extrude>
        <altitudeMode>absolute</altitudeMode>
        <coordinates>-77.43623150236036,38.94037291240453,95.4024</coordinates>
      </Point>
    </Placemark>
    <Placemark>
      <name></name>
      <Point>
        <extrude>1</extrude>
        <altitudeMode>absolute</altitudeMode>
        <coordinates>-77.43624293976434,38.93964479216314,95.4024</coordinates>
      </Point>
    </Placemark>
    <Placemark>
      <name></name>
      <Point>
        <extrude>1</extrude>
        <altitudeMode>absolute</altitudeMode>
        <coordinates>-77.43625464936434,38.93889933572585,95.4024</coordinates>
      </Point>
    </Placemark>
    <Placemark>
      <name></name>
      <Point>
        <extrude>1</extrude>
        <altitudeMode>absolute</altitudeMode>
        <coordinates>-77.43626663115174,38.938136543092654,95.4024</coordinates>
      </Point>
    </Placemark>
    <Placemark>
      <name>takeOff-1997.5-meters</name>
      <Point>
        <extrude>1</extrude>
        <altitudeMode>absolute</altitudeMode>
        <coordinates>-77.43627888511766,38.93735641426357,95.4024</coordinates>
      </Point>
    </Placemark>
    <Placemark>
      <name>climbRamp-19L</name>
      <Point>
        <extrude>1</extrude>
        <altitudeMode>absolute</altitudeMode>
        <coordinates>-77.43629109764645,38.9365789149388,107.9924</coordinates>
      </Point>
    </Placemark>
    <Placemark>
      <name></name>
      <Point>
        <extrude>1</extrude>
        <altitudeMode>absolute</altitudeMode>
        <coordinates>-77.4363033100413,38.93580141561539,115.6224</coordinates>
      </Point>
    </Placemark>
    <Placemark>
      <name></name>
      <Point>
        <extrude>1</extrude>
        <altitudeMode>absolute</altitudeMode>
        <coordinates>-77.43631552669854,38.93502363639862,123.2524</coordinates>
      </Point>
    </Placemark>
    <Placemark>
      <name></name>
      <Point>
        <extrude>1</extrude>
        <altitudeMode>absolute</altitudeMode>
        <coordinates>-77.43632774762028,38.93424557714436,130.8824</coordinates>
      </Point>
    </Placemark>
    <Placemark>
      <name></name>
      <Point>
        <extrude>1</extrude>
        <altitudeMode>absolute</altitudeMode>
        <coordinates>-77.43633997280865,38.93346723770836,138.51239999999999</coordinates>
      </Point>
    </Placemark>
    <Placemark>
      <name></name>
      <Point>
        <extrude>1</extrude>
        <altitudeMode>absolute</altitudeMode>
        <coordinates>-77.43635220226578,38.93268861794628,146.14239999999998</coordinates>
      </Point>
    </Placemark>
    <Placemark>
      <name></name>
      <Point>
        <extrude>1</extrude>
        <altitudeMode>absolute</altitudeMode>
        <coordinates>-77.43636443599378,38.93190971771371,153.77239999999998</coordinates>
      </Point>
    </Placemark>
    <Placemark>
      <name></name>
      <Point>
        <extrude>1</extrude>
        <altitudeMode>absolute</altitudeMode>
        <coordinates>-77.4363766739948,38.93113053686611,161.40239999999997</coordinates>
      </Point>
    </Placemark>
    <Placemark>
      <name></name>
      <Point>
        <extrude>1</extrude>
        <altitudeMode>absolute</altitudeMode>
        <coordinates>-77.43638891627096,38.93035107525887,169.03239999999997</coordinates>
      </Point>
    </Placemark>
    <Placemark>
      <name></name>
      <Point>
        <extrude>1</extrude>
        <altitudeMode>absolute</altitudeMode>
        <coordinates>-77.4364011628244,38.929571332747265,176.66239999999996</coordinates>
      </Point>
    </Placemark>
    <Placemark>
      <name></name>
      <Point>
        <extrude>1</extrude>
        <altitudeMode>absolute</altitudeMode>
        <coordinates>-77.43641341365725,38.92879130918652,184.29239999999996</coordinates>
      </Point>
    </Placemark>
    <Placemark>
      <name></name>
      <Point>
        <extrude>1</extrude>
        <altitudeMode>absolute</altitudeMode>
        <coordinates>-77.43642566877165,38.92801100443173,191.92239999999995</coordinates>
      </Point>
    </Placemark>
    <Placemark>
      <name></name>
      <Point>
        <extrude>1</extrude>
        <altitudeMode>absolute</altitudeMode>
        <coordinates>-77.43643792816972,38.9272304183379,199.55239999999995</coordinates>
      </Point>
    </Placemark>
    <Placemark>
      <name></name>
      <Point>
        <extrude>1</extrude>
        <altitudeMode>absolute</altitudeMode>
        <coordinates>-77.43645019185361,38.92644955075995,207.18239999999994</coordinates>
      </Point>
    </Placemark>
    <Placemark>
      <name></name>
      <Point>
        <extrude>1</extrude>
        <altitudeMode>absolute</altitudeMode>
        <coordinates>-77.43646245982548,38.92566840155269,214.81239999999994</coordinates>
      </Point>
    </Placemark>
    <Placemark>
      <name></name>
      <Point>
        <extrude>1</extrude>
        <altitudeMode>absolute</altitudeMode>
        <coordinates>-77.43647473208743,38.92488697057087,222.44239999999994</coordinates>
      </Point>
    </Placemark>
    <Placemark>
      <name></name>
      <Point>
        <extrude>1</extrude>
        <altitudeMode>absolute</altitudeMode>
        <coordinates>-77.43648700864163,38.924105257669105,230.07239999999993</coordinates>
      </Point>
    </Placemark>
    <Placemark>
      <name></name>
      <Point>
        <extrude>1</extrude>
        <altitudeMode>absolute</altitudeMode>
        <coordinates>-77.43649928949023,38.92332326270196,237.70239999999993</coordinates>
      </Point>
    </Placemark>
    <Placemark>
      <name></name>
      <Point>
        <extrude>1</extrude>
        <altitudeMode>absolute</altitudeMode>
        <coordinates>-77.43651157463535,38.92254098552387,245.33239999999992</coordinates>
      </Point>
    </Placemark>
    <Placemark>
      <name></name>
      <Point>
        <extrude>1</extrude>
        <altitudeMode>absolute</altitudeMode>
        <coordinates>-77.43652386407913,38.92175842598918,252.96239999999992</coordinates>
      </Point>
    </Placemark>
    <Placemark>
      <name></name>
      <Point>
        <extrude>1</extrude>
        <altitudeMode>absolute</altitudeMode>
        <coordinates>-77.43653615782375,38.920975583952156,260.59239999999994</coordinates>
      </Point>
    </Placemark>
    <Placemark>
      <name></name>
      <Point>
        <extrude>1</extrude>
        <altitudeMode>absolute</altitudeMode>
        <coordinates>-77.43654845587133,38.920192459266964,268.22239999999994</coordinates>
      </Point>
    </Placemark>
    <Placemark>
      <name></name>
      <Point>
        <extrude>1</extrude>
        <altitudeMode>absolute</altitudeMode>
        <coordinates>-77.43656075822405,38.919409051787675,275.85239999999993</coordinates>
      </Point>
    </Placemark>
    <Placemark>
      <name></name>
      <Point>
        <extrude>1</extrude>
        <altitudeMode>absolute</altitudeMode>
        <coordinates>-77.43657306488403,38.918625361368264,283.4823999999999</coordinates>
      </Point>
    </Placemark>
    <Placemark>
      <name></name>
      <Point>
        <extrude>1</extrude>
        <altitudeMode>absolute</altitudeMode>
        <coordinates>-77.43658537585344,38.91784138786261,291.1123999999999</coordinates>
      </Point>
    </Placemark>
    <Placemark>
      <name></name>
      <Point>
        <extrude>1</extrude>
        <altitudeMode>absolute</altitudeMode>
        <coordinates>-77.43659769113441,38.91705713112451,298.7423999999999</coordinates>
      </Point>
    </Placemark>
    <Placemark>
      <name></name>
      <Point>
        <extrude>1</extrude>
        <altitudeMode>absolute</altitudeMode>
        <coordinates>-77.43661001072913,38.91627259100765,306.3723999999999</coordinates>
      </Point>
    </Placemark>
    <Placemark>
      <name></name>
      <Point>
        <extrude>1</extrude>
        <altitudeMode>absolute</altitudeMode>
        <coordinates>-77.43662233463974,38.91548776736562,314.0023999999999</coordinates>
      </Point>
    </Placemark>
    <Placemark>
      <name></name>
      <Point>
        <extrude>1</extrude>
        <altitudeMode>absolute</altitudeMode>
        <coordinates>-77.4366346628684,38.91470266005193,321.6323999999999</coordinates>
      </Point>
    </Placemark>
    <Placemark>
      <name></name>
      <Point>
        <extrude>1</extrude>
        <altitudeMode>absolute</altitudeMode>
        <coordinates>-77.43664699541726,38.91391726891998,329.2623999999999</coordinates>
      </Point>
    </Placemark>
    <Placemark>
      <name></name>
      <Point>
        <extrude>1</extrude>
        <altitudeMode>absolute</altitudeMode>
        <coordinates>-77.4366593322885,38.91313159382309,336.8923999999999</coordinates>
      </Point>
    </Placemark>
    <Placemark>
      <name></name>
      <Point>
        <extrude>1</extrude>
        <altitudeMode>absolute</altitudeMode>
        <coordinates>-77.43667167348427,38.91234563461448,344.5223999999999</coordinates>
      </Point>
    </Placemark>
    <Placemark>
      <name></name>
      <Point>
        <extrude>1</extrude>
        <altitudeMode>absolute</altitudeMode>
        <coordinates>-77.43668401900672,38.91155939114727,352.1523999999999</coordinates>
      </Point>
    </Placemark>
    <Placemark>
      <name></name>
      <Point>
        <extrude>1</extrude>
        <altitudeMode>absolute</altitudeMode>
        <coordinates>-77.43669636885804,38.91077286327448,359.7823999999999</coordinates>
      </Point>
    </Placemark>
    <Placemark>
      <name></name>
      <Point>
        <extrude>1</extrude>
        <altitudeMode>absolute</altitudeMode>
        <coordinates>-77.43670872304038,38.90998605084906,367.4123999999999</coordinates>
      </Point>
    </Placemark>
    <Placemark>
      <name></name>
      <Point>
        <extrude>1</extrude>
        <altitudeMode>absolute</altitudeMode>
        <coordinates>-77.43672108155593,38.90919895372383,375.0423999999999</coordinates>
      </Point>
    </Placemark>
    <Placemark>
      <name></name>
      <Point>
        <extrude>1</extrude>
        <altitudeMode>absolute</altitudeMode>
        <coordinates>-77.43673344440683,38.90841157175156,382.67239999999987</coordinates>
      </Point>
    </Placemark>
    <Placemark>
      <name></name>
      <Point>
        <extrude>1</extrude>
        <altitudeMode>absolute</altitudeMode>
        <coordinates>-77.43674581159526,38.90762390478487,390.30239999999986</coordinates>
      </Point>
    </Placemark>
    <Placemark>
      <name></name>
      <Point>
        <extrude>1</extrude>
        <altitudeMode>absolute</altitudeMode>
        <coordinates>-77.4367581831234,38.90683595267632,397.93239999999986</coordinates>
      </Point>
    </Placemark>
    <Placemark>
      <name></name>
      <Point>
        <extrude>1</extrude>
        <altitudeMode>absolute</altitudeMode>
        <coordinates>-77.4367705589934,38.906047715278376,405.56239999999985</coordinates>
      </Point>
    </Placemark>
    <Placemark>
      <name></name>
      <Point>
        <extrude>1</extrude>
        <altitudeMode>absolute</altitudeMode>
        <coordinates>-77.43678293920748,38.90525919244339,413.19239999999985</coordinates>
      </Point>
    </Placemark>
    <Placemark>
      <name></name>
      <Point>
        <extrude>1</extrude>
        <altitudeMode>absolute</altitudeMode>
        <coordinates>-77.43679532376777,38.90447038402362,420.82239999999985</coordinates>
      </Point>
    </Placemark>
    <Placemark>
      <name></name>
      <Point>
        <extrude>1</extrude>
        <altitudeMode>absolute</altitudeMode>
        <coordinates>-77.43680771267645,38.90368128987125,428.45239999999984</coordinates>
      </Point>
    </Placemark>
    <Placemark>
      <name></name>
      <Point>
        <extrude>1</extrude>
        <altitudeMode>absolute</altitudeMode>
        <coordinates>-77.43682010593572,38.90289190983834,436.08239999999984</coordinates>
      </Point>
    </Placemark>
    <Placemark>
      <name></name>
      <Point>
        <extrude>1</extrude>
        <altitudeMode>absolute</altitudeMode>
        <coordinates>-77.43683250354775,38.902102243776866,443.71239999999983</coordinates>
      </Point>
    </Placemark>
    <Placemark>
      <name></name>
      <Point>
        <extrude>1</extrude>
        <altitudeMode>absolute</altitudeMode>
        <coordinates>-77.43684490551473,38.90131229153872,451.3423999999998</coordinates>
      </Point>
    </Placemark>
    <Placemark>
      <name></name>
      <Point>
        <extrude>1</extrude>
        <altitudeMode>absolute</altitudeMode>
        <coordinates>-77.43685731183882,38.900522052975695,458.9723999999998</coordinates>
      </Point>
    </Placemark>
    <Placemark>
      <name></name>
      <Point>
        <extrude>1</extrude>
        <altitudeMode>absolute</altitudeMode>
        <coordinates>-77.43686972252222,38.899731527939444,466.6023999999998</coordinates>
      </Point>
    </Placemark>
    <Placemark>
      <name></name>
      <Point>
        <extrude>1</extrude>
        <altitudeMode>absolute</altitudeMode>
        <coordinates>-77.43688213756711,38.89894071628161,474.2323999999998</coordinates>
      </Point>
    </Placemark>
    <Placemark>
      <name></name>
      <Point>
        <extrude>1</extrude>
        <altitudeMode>absolute</altitudeMode>
        <coordinates>-77.43689455697569,38.898149617853655,481.8623999999998</coordinates>
      </Point>
    </Placemark>
    <Placemark>
      <name></name>
      <Point>
        <extrude>1</extrude>
        <altitudeMode>absolute</altitudeMode>
        <coordinates>-77.43690698075011,38.897358232506996,489.4923999999998</coordinates>
      </Point>
    </Placemark>
    <Placemark>
      <name></name>
      <Point>
        <extrude>1</extrude>
        <altitudeMode>absolute</altitudeMode>
        <coordinates>-77.4369194088926,38.896566560092936,497.1223999999998</coordinates>
      </Point>
    </Placemark>
    <Placemark>
      <name></name>
      <Point>
        <extrude>1</extrude>
        <altitudeMode>absolute</altitudeMode>
        <coordinates>-77.43693184140534,38.89577460046268,504.7523999999998</coordinates>
      </Point>
    </Placemark>
    <Placemark>
      <name></name>
      <Point>
        <extrude>1</extrude>
        <altitudeMode>absolute</altitudeMode>
        <coordinates>-77.43694427829051,38.894982353467334,512.3823999999998</coordinates>
      </Point>
    </Placemark>
    <Placemark>
      <name></name>
      <Point>
        <extrude>1</extrude>
        <altitudeMode>absolute</altitudeMode>
        <coordinates>-77.43695671955032,38.894189818957926,520.0123999999998</coordinates>
      </Point>
    </Placemark>
    <Placemark>
      <name></name>
      <Point>
        <extrude>1</extrude>
        <altitudeMode>absolute</altitudeMode>
        <coordinates>-77.43696916518697,38.893396996785356,527.6423999999998</coordinates>
      </Point>
    </Placemark>
    <Placemark>
      <name></name>
      <Point>
        <extrude>1</extrude>
        <altitudeMode>absolute</altitudeMode>
        <coordinates>-77.43698161520263,38.89260388680047,535.2723999999998</coordinates>
      </Point>
    </Placemark>
    <Placemark>
      <name></name>
      <Point>
        <extrude>1</extrude>
        <altitudeMode>absolute</altitudeMode>
        <coordinates>-77.4369940695995,38.89181048885398,542.9023999999998</coordinates>
      </Point>
    </Placemark>
    <Placemark>
      <name></name>
      <Point>
        <extrude>1</extrude>
        <altitudeMode>absolute</altitudeMode>
        <coordinates>-77.4370065283798,38.891016802796514,550.5323999999998</coordinates>
      </Point>
    </Placemark>
    <Placemark>
      <name></name>
      <Point>
        <extrude>1</extrude>
        <altitudeMode>absolute</altitudeMode>
        <coordinates>-77.4370189915457,38.890222828478606,558.1623999999998</coordinates>
      </Point>
    </Placemark>
    <Placemark>
      <name></name>
      <Point>
        <extrude>1</extrude>
        <altitudeMode>absolute</altitudeMode>
        <coordinates>-77.43703145909943,38.889428565750684,565.7923999999998</coordinates>
      </Point>
    </Placemark>
    <Placemark>
      <name></name>
      <Point>
        <extrude>1</extrude>
        <altitudeMode>absolute</altitudeMode>
        <coordinates>-77.43704393104318,38.88863401446311,573.4223999999998</coordinates>
      </Point>
    </Placemark>
    <Placemark>
      <name></name>
      <Point>
        <extrude>1</extrude>
        <altitudeMode>absolute</altitudeMode>
        <coordinates>-77.43705640737915,38.88783917446608,581.0523999999998</coordinates>
      </Point>
    </Placemark>
    <Placemark>
      <name></name>
      <Point>
        <extrude>1</extrude>
        <altitudeMode>absolute</altitudeMode>
        <coordinates>-77.43706888810955,38.88704404560977,588.6823999999998</coordinates>
      </Point>
    </Placemark>
    <Placemark>
      <name></name>
      <Point>
        <extrude>1</extrude>
        <altitudeMode>absolute</altitudeMode>
        <coordinates>-77.43708137323661,38.886248627744216,596.3123999999998</coordinates>
      </Point>
    </Placemark>
    <Placemark>
      <name></name>
      <Point>
        <extrude>1</extrude>
        <altitudeMode>absolute</altitudeMode>
        <coordinates>-77.43709386276251,38.88545292071938,603.9423999999998</coordinates>
      </Point>
    </Placemark>
    <Placemark>
      <name></name>
      <Point>
        <extrude>1</extrude>
        <altitudeMode>absolute</altitudeMode>
        <coordinates>-77.43710635668945,38.884656924385105,611.5723999999998</coordinates>
      </Point>
    </Placemark>
    <Placemark>
      <name></name>
      <Point>
        <extrude>1</extrude>
        <altitudeMode>absolute</altitudeMode>
        <coordinates>-77.43711885501968,38.88386063859113,619.2023999999998</coordinates>
      </Point>
    </Placemark>
    <Placemark>
      <name></name>
      <Point>
        <extrude>1</extrude>
        <altitudeMode>absolute</altitudeMode>
        <coordinates>-77.43713135775538,38.883064063187135,626.8323999999998</coordinates>
      </Point>
    </Placemark>
    <Placemark>
      <name></name>
      <Point>
        <extrude>1</extrude>
        <altitudeMode>absolute</altitudeMode>
        <coordinates>-77.43714386489877,38.88226719802266,634.4623999999998</coordinates>
      </Point>
    </Placemark>
    <Placemark>
      <name></name>
      <Point>
        <extrude>1</extrude>
        <altitudeMode>absolute</altitudeMode>
        <coordinates>-77.43715637645208,38.88147004294718,642.0923999999998</coordinates>
      </Point>
    </Placemark>
    <Placemark>
      <name></name>
      <Point>
        <extrude>1</extrude>
        <altitudeMode>absolute</altitudeMode>
        <coordinates>-77.43716889241752,38.88067259781005,649.7223999999998</coordinates>
      </Point>
    </Placemark>
    <Placemark>
      <name></name>
      <Point>
        <extrude>1</extrude>
        <altitudeMode>absolute</altitudeMode>
        <coordinates>-77.43718141279729,38.87987486246052,657.3523999999998</coordinates>
      </Point>
    </Placemark>
    <Placemark>
      <name></name>
      <Point>
        <extrude>1</extrude>
        <altitudeMode>absolute</altitudeMode>
        <coordinates>-77.43719393759363,38.87907683674779,664.9823999999998</coordinates>
      </Point>
    </Placemark>
    <Placemark>
      <name></name>
      <Point>
        <extrude>1</extrude>
        <altitudeMode>absolute</altitudeMode>
        <coordinates>-77.43720646680876,38.87827852052091,672.6123999999998</coordinates>
      </Point>
    </Placemark>
    <Placemark>
      <name></name>
      <Point>
        <extrude>1</extrude>
        <altitudeMode>absolute</altitudeMode>
        <coordinates>-77.4372190004449,38.87747991362885,680.2423999999997</coordinates>
      </Point>
    </Placemark>
    <Placemark>
      <name></name>
      <Point>
        <extrude>1</extrude>
        <altitudeMode>absolute</altitudeMode>
        <coordinates>-77.43723153850425,38.876681015920475,687.8723999999997</coordinates>
      </Point>
    </Placemark>
    <Placemark>
      <name></name>
      <Point>
        <extrude>1</extrude>
        <altitudeMode>absolute</altitudeMode>
        <coordinates>-77.43724408098907,38.875881827244584,695.5023999999997</coordinates>
      </Point>
    </Placemark>
    <Placemark>
      <name></name>
      <Point>
        <extrude>1</extrude>
        <altitudeMode>absolute</altitudeMode>
        <coordinates>-77.43725662790158,38.87508234744985,703.1323999999997</coordinates>
      </Point>
    </Placemark>
    <Placemark>
      <name></name>
      <Point>
        <extrude>1</extrude>
        <altitudeMode>absolute</altitudeMode>
        <coordinates>-77.43726917924398,38.874282576384836,710.7623999999997</coordinates>
      </Point>
    </Placemark>
    <Placemark>
      <name></name>
      <Point>
        <extrude>1</extrude>
        <altitudeMode>absolute</altitudeMode>
        <coordinates>-77.43728173501853,38.873482513898026,718.3923999999997</coordinates>
      </Point>
    </Placemark>
    <Placemark>
      <name></name>
      <Point>
        <extrude>1</extrude>
        <altitudeMode>absolute</altitudeMode>
        <coordinates>-77.43729429522745,38.872682159837815,726.0223999999997</coordinates>
      </Point>
    </Placemark>
    <Placemark>
      <name></name>
      <Point>
        <extrude>1</extrude>
        <altitudeMode>absolute</altitudeMode>
        <coordinates>-77.43730685987296,38.87188151405247,733.6523999999997</coordinates>
      </Point>
    </Placemark>
    <Placemark>
      <name></name>
      <Point>
        <extrude>1</extrude>
        <altitudeMode>absolute</altitudeMode>
        <coordinates>-77.43731942895731,38.87108057639018,741.2823999999997</coordinates>
      </Point>
    </Placemark>
    <Placemark>
      <name></name>
      <Point>
        <extrude>1</extrude>
        <altitudeMode>absolute</altitudeMode>
        <coordinates>-77.43733200248273,38.87027934669903,748.9123999999997</coordinates>
      </Point>
    </Placemark>
    <Placemark>
      <name></name>
      <Point>
        <extrude>1</extrude>
        <altitudeMode>absolute</altitudeMode>
        <coordinates>-77.43734458045145,38.86947782482702,756.5423999999997</coordinates>
      </Point>
    </Placemark>
    <Placemark>
      <name></name>
      <Point>
        <extrude>1</extrude>
        <altitudeMode>absolute</altitudeMode>
        <coordinates>-77.43735716286572,38.868676010622025,764.1723999999997</coordinates>
      </Point>
    </Placemark>
    <Placemark>
      <name></name>
      <Point>
        <extrude>1</extrude>
        <altitudeMode>absolute</altitudeMode>
        <coordinates>-77.43736974972776,38.867873903931844,771.8023999999997</coordinates>
      </Point>
    </Placemark>
    <Placemark>
      <name></name>
      <Point>
        <extrude>1</extrude>
        <altitudeMode>absolute</altitudeMode>
        <coordinates>-77.43738234103984,38.867071504604155,779.4323999999997</coordinates>
      </Point>
    </Placemark>
    <Placemark>
      <name></name>
      <Point>
        <extrude>1</extrude>
        <altitudeMode>absolute</altitudeMode>
        <coordinates>-77.43739493680417,38.866268812486545,787.0623999999997</coordinates>
      </Point>
    </Placemark>
    <Placemark>
      <name></name>
      <Point>
        <extrude>1</extrude>
        <altitudeMode>absolute</altitudeMode>
        <coordinates>-77.43740753702302,38.86546582742653,794.6923999999997</coordinates>
      </Point>
    </Placemark>
    <Placemark>
      <name></name>
      <Point>
        <extrude>1</extrude>
        <altitudeMode>absolute</altitudeMode>
        <coordinates>-77.43742014169861,38.864662549271486,802.3223999999997</coordinates>
      </Point>
    </Placemark>
    <Placemark>
      <name></name>
      <Point>
        <extrude>1</extrude>
        <altitudeMode>absolute</altitudeMode>
        <coordinates>-77.43743275083321,38.863858977868716,809.9523999999997</coordinates>
      </Point>
    </Placemark>
    <Placemark>
      <name>climbRamp-4.5 nm</name>
      <Point>
        <extrude>1</extrude>
        <altitudeMode>absolute</altitudeMode>
        <coordinates>-77.43744536442905,38.863055113065414,809.9524012311274</coordinates>
      </Point>
    </Placemark>
    <Placemark>
      <name>turn-179.0-deg</name>
      <Point>
        <extrude>1</extrude>
        <altitudeMode>absolute</altitudeMode>
        <coordinates>-77.43742780994559,38.86225130447709,817.5824012311274</coordinates>
      </Point>
    </Placemark>
    <Placemark>
      <name></name>
      <Point>
        <extrude>1</extrude>
        <altitudeMode>absolute</altitudeMode>
        <coordinates>-77.43744072739466,38.861447442602014,817.5824024622551</coordinates>
      </Point>
    </Placemark>
    <Placemark>
      <name></name>
      <Point>
        <extrude>1</extrude>
        <altitudeMode>absolute</altitudeMode>
        <coordinates>-77.43745364455165,38.860643580725466,817.5824036933828</coordinates>
      </Point>
    </Placemark>
    <Placemark>
      <name></name>
      <Point>
        <extrude>1</extrude>
        <altitudeMode>absolute</altitudeMode>
        <coordinates>-77.4374665614166,38.85983971884745,817.5824049245106</coordinates>
      </Point>
    </Placemark>
    <Placemark>
      <name></name>
      <Point>
        <extrude>1</extrude>
        <altitudeMode>absolute</altitudeMode>
        <coordinates>-77.43747947798951,38.85903585696797,817.5824061556383</coordinates>
      </Point>
    </Placemark>
    <Placemark>
      <name></name>
      <Point>
        <extrude>1</extrude>
        <altitudeMode>absolute</altitudeMode>
        <coordinates>-77.43749239427041,38.85823199508701,817.582407386766</coordinates>
      </Point>
    </Placemark>
    <Placemark>
      <name></name>
      <Point>
        <extrude>1</extrude>
        <altitudeMode>absolute</altitudeMode>
        <coordinates>-77.43750531025931,38.857428133204586,817.5824086178937</coordinates>
      </Point>
    </Placemark>
    <Placemark>
      <name></name>
      <Point>
        <extrude>1</extrude>
        <altitudeMode>absolute</altitudeMode>
        <coordinates>-77.43751822595621,38.85662427132069,817.5824098490215</coordinates>
      </Point>
    </Placemark>
    <Placemark>
      <name></name>
      <Point>
        <extrude>1</extrude>
        <altitudeMode>absolute</altitudeMode>
        <coordinates>-77.43753114136112,38.85582040943532,817.5824110801493</coordinates>
      </Point>
    </Placemark>
    <Placemark>
      <name></name>
      <Point>
        <extrude>1</extrude>
        <altitudeMode>absolute</altitudeMode>
        <coordinates>-77.4375440564741,38.85501654754849,817.582412311277</coordinates>
      </Point>
    </Placemark>
    <Placemark>
      <name></name>
      <Point>
        <extrude>1</extrude>
        <altitudeMode>absolute</altitudeMode>
        <coordinates>-77.4375569712951,38.85421268566018,817.5824135424048</coordinates>
      </Point>
    </Placemark>
    <Placemark>
      <name></name>
      <Point>
        <extrude>1</extrude>
        <altitudeMode>absolute</altitudeMode>
        <coordinates>-77.43756988582419,38.8534088237704,817.5824147735325</coordinates>
      </Point>
    </Placemark>
    <Placemark>
      <name></name>
      <Point>
        <extrude>1</extrude>
        <altitudeMode>absolute</altitudeMode>
        <coordinates>-77.43758280006136,38.85260496187916,817.5824160046603</coordinates>
      </Point>
    </Placemark>
    <Placemark>
      <name></name>
      <Point>
        <extrude>1</extrude>
        <altitudeMode>absolute</altitudeMode>
        <coordinates>-77.43759571400663,38.851801099986446,817.5824172357881</coordinates>
      </Point>
    </Placemark>
    <Placemark>
      <name></name>
      <Point>
        <extrude>1</extrude>
        <altitudeMode>absolute</altitudeMode>
        <coordinates>-77.43760862766001,38.85099723809226,817.5824184669158</coordinates>
      </Point>
    </Placemark>
    <Placemark>
      <name></name>
      <Point>
        <extrude>1</extrude>
        <altitudeMode>absolute</altitudeMode>
        <coordinates>-77.43762154102154,38.850193376196614,817.5824196980436</coordinates>
      </Point>
    </Placemark>
    <Placemark>
      <name></name>
      <Point>
        <extrude>1</extrude>
        <altitudeMode>absolute</altitudeMode>
        <coordinates>-77.4376344540912,38.84938951429949,817.5824209291715</coordinates>
      </Point>
    </Placemark>
    <Placemark>
      <name></name>
      <Point>
        <extrude>1</extrude>
        <altitudeMode>absolute</altitudeMode>
        <coordinates>-77.437647366869,38.8485856524009,817.5824221602992</coordinates>
      </Point>
    </Placemark>
    <Placemark>
      <name></name>
      <Point>
        <extrude>1</extrude>
        <altitudeMode>absolute</altitudeMode>
        <coordinates>-77.437660279355,38.84778179050083,817.5824233914269</coordinates>
      </Point>
    </Placemark>
    <Placemark>
      <name></name>
      <Point>
        <extrude>1</extrude>
        <altitudeMode>absolute</altitudeMode>
        <coordinates>-77.43767319154918,38.846977928599316,817.5824246225546</coordinates>
      </Point>
    </Placemark>
    <Placemark>
      <name></name>
      <Point>
        <extrude>1</extrude>
        <altitudeMode>absolute</altitudeMode>
        <coordinates>-77.43768610345157,38.846174066696314,817.5824258536825</coordinates>
      </Point>
    </Placemark>
    <Placemark>
      <name></name>
      <Point>
        <extrude>1</extrude>
        <altitudeMode>absolute</altitudeMode>
        <coordinates>-77.43769901506217,38.84537020479184,817.5824270848102</coordinates>
      </Point>
    </Placemark>
    <Placemark>
      <name></name>
      <Point>
        <extrude>1</extrude>
        <altitudeMode>absolute</altitudeMode>
        <coordinates>-77.437711926381,38.84456634288591,817.5824283159379</coordinates>
      </Point>
    </Placemark>
    <Placemark>
      <name></name>
      <Point>
        <extrude>1</extrude>
        <altitudeMode>absolute</altitudeMode>
        <coordinates>-77.43772483740808,38.84376248097851,817.5824295470658</coordinates>
      </Point>
    </Placemark>
    <Placemark>
      <name></name>
      <Point>
        <extrude>1</extrude>
        <altitudeMode>absolute</altitudeMode>
        <coordinates>-77.43773774814345,38.84295861906964,817.5824307781936</coordinates>
      </Point>
    </Placemark>
    <Placemark>
      <name></name>
      <Point>
        <extrude>1</extrude>
        <altitudeMode>absolute</altitudeMode>
        <coordinates>-77.43775065858708,38.8421547571593,817.5824320093215</coordinates>
      </Point>
    </Placemark>
    <Placemark>
      <name></name>
      <Point>
        <extrude>1</extrude>
        <altitudeMode>absolute</altitudeMode>
        <coordinates>-77.437763568739,38.841350895247494,817.5824332404492</coordinates>
      </Point>
    </Placemark>
    <Placemark>
      <name></name>
      <Point>
        <extrude>1</extrude>
        <altitudeMode>absolute</altitudeMode>
        <coordinates>-77.43777647859923,38.84054703333421,817.5824344715769</coordinates>
      </Point>
    </Placemark>
    <Placemark>
      <name></name>
      <Point>
        <extrude>1</extrude>
        <altitudeMode>absolute</altitudeMode>
        <coordinates>-77.43778938816779,38.83974317141947,817.5824357027047</coordinates>
      </Point>
    </Placemark>
    <Placemark>
      <name></name>
      <Point>
        <extrude>1</extrude>
        <altitudeMode>absolute</altitudeMode>
        <coordinates>-77.43780229744469,38.83893930950325,817.5824369338326</coordinates>
      </Point>
    </Placemark>
    <Placemark>
      <name></name>
      <Point>
        <extrude>1</extrude>
        <altitudeMode>absolute</altitudeMode>
        <coordinates>-77.43781520642993,38.83813544758557,817.5824381649604</coordinates>
      </Point>
    </Placemark>
    <Placemark>
      <name></name>
      <Point>
        <extrude>1</extrude>
        <altitudeMode>absolute</altitudeMode>
        <coordinates>-77.43782811512355,38.837331585666426,817.5824393960881</coordinates>
      </Point>
    </Placemark>
    <Placemark>
      <name></name>
      <Point>
        <extrude>1</extrude>
        <altitudeMode>absolute</altitudeMode>
        <coordinates>-77.43784102352556,38.8365277237458,817.5824406272159</coordinates>
      </Point>
    </Placemark>
    <Placemark>
      <name></name>
      <Point>
        <extrude>1</extrude>
        <altitudeMode>absolute</altitudeMode>
        <coordinates>-77.43785393163596,38.83572386182372,817.5824418583437</coordinates>
      </Point>
    </Placemark>
    <Placemark>
      <name></name>
      <Point>
        <extrude>1</extrude>
        <altitudeMode>absolute</altitudeMode>
        <coordinates>-77.43786683945478,38.834919999900166,817.5824430894716</coordinates>
      </Point>
    </Placemark>
    <Placemark>
      <name></name>
      <Point>
        <extrude>1</extrude>
        <altitudeMode>absolute</altitudeMode>
        <coordinates>-77.43787974698202,38.834116137975144,817.5824443205994</coordinates>
      </Point>
    </Placemark>
    <Placemark>
      <name></name>
      <Point>
        <extrude>1</extrude>
        <altitudeMode>absolute</altitudeMode>
        <coordinates>-77.4378926542177,38.83331227604866,817.5824455517271</coordinates>
      </Point>
    </Placemark>
    <Placemark>
      <name></name>
      <Point>
        <extrude>1</extrude>
        <altitudeMode>absolute</altitudeMode>
        <coordinates>-77.43790556116186,38.8325084141207,817.5824467828548</coordinates>
      </Point>
    </Placemark>
    <Placemark>
      <name></name>
      <Point>
        <extrude>1</extrude>
        <altitudeMode>absolute</altitudeMode>
        <coordinates>-77.43791846781447,38.83170455219128,817.5824480139827</coordinates>
      </Point>
    </Placemark>
    <Placemark>
      <name></name>
      <Point>
        <extrude>1</extrude>
        <altitudeMode>absolute</altitudeMode>
        <coordinates>-77.43793137417559,38.83090069026039,817.5824492451105</coordinates>
      </Point>
    </Placemark>
    <Placemark>
      <name></name>
      <Point>
        <extrude>1</extrude>
        <altitudeMode>absolute</altitudeMode>
        <coordinates>-77.43794428024519,38.83009682832804,817.5824504762384</coordinates>
      </Point>
    </Placemark>
    <Placemark>
      <name></name>
      <Point>
        <extrude>1</extrude>
        <altitudeMode>absolute</altitudeMode>
        <coordinates>-77.43795718602333,38.829292966394206,817.5824517073661</coordinates>
      </Point>
    </Placemark>
    <Placemark>
      <name></name>
      <Point>
        <extrude>1</extrude>
        <altitudeMode>absolute</altitudeMode>
        <coordinates>-77.43797009150998,38.82848910445891,817.5824529384939</coordinates>
      </Point>
    </Placemark>
    <Placemark>
      <name></name>
      <Point>
        <extrude>1</extrude>
        <altitudeMode>absolute</altitudeMode>
        <coordinates>-77.43798299670519,38.82768524252216,817.5824541696218</coordinates>
      </Point>
    </Placemark>
    <Placemark>
      <name></name>
      <Point>
        <extrude>1</extrude>
        <altitudeMode>absolute</altitudeMode>
        <coordinates>-77.43799590160896,38.82688138058392,817.5824554007496</coordinates>
      </Point>
    </Placemark>
    <Placemark>
      <name></name>
      <Point>
        <extrude>1</extrude>
        <altitudeMode>absolute</altitudeMode>
        <coordinates>-77.43800880622133,38.826077518644226,817.5824566318774</coordinates>
      </Point>
    </Placemark>
    <Placemark>
      <name></name>
      <Point>
        <extrude>1</extrude>
        <altitudeMode>absolute</altitudeMode>
        <coordinates>-77.43802171054227,38.82527365670307,817.5824578630053</coordinates>
      </Point>
    </Placemark>
    <Placemark>
      <name></name>
      <Point>
        <extrude>1</extrude>
        <altitudeMode>absolute</altitudeMode>
        <coordinates>-77.43803461457183,38.82446979476043,817.582459094133</coordinates>
      </Point>
    </Placemark>
    <Placemark>
      <name></name>
      <Point>
        <extrude>1</extrude>
        <altitudeMode>absolute</altitudeMode>
        <coordinates>-77.43804751831,38.82366593281634,817.5824603252609</coordinates>
      </Point>
    </Placemark>
    <Placemark>
      <name></name>
      <Point>
        <extrude>1</extrude>
        <altitudeMode>absolute</altitudeMode>
        <coordinates>-77.43806042175682,38.822862070870784,817.5824615563887</coordinates>
      </Point>
    </Placemark>
    <Placemark>
      <name></name>
      <Point>
        <extrude>1</extrude>
        <altitudeMode>absolute</altitudeMode>
        <coordinates>-77.43807332491228,38.82205820892375,817.5824627875165</coordinates>
      </Point>
    </Placemark>
    <Placemark>
      <name></name>
      <Point>
        <extrude>1</extrude>
        <altitudeMode>absolute</altitudeMode>
        <coordinates>-77.43808622777642,38.821254346975266,817.5824640186444</coordinates>
      </Point>
    </Placemark>
    <Placemark>
      <name></name>
      <Point>
        <extrude>1</extrude>
        <altitudeMode>absolute</altitudeMode>
        <coordinates>-77.43809913034924,38.8204504850253,817.5824652497722</coordinates>
      </Point>
    </Placemark>
    <Placemark>
      <name></name>
      <Point>
        <extrude>1</extrude>
        <altitudeMode>absolute</altitudeMode>
        <coordinates>-77.43811203263076,38.81964662307387,817.5824664808999</coordinates>
      </Point>
    </Placemark>
    <Placemark>
      <name></name>
      <Point>
        <extrude>1</extrude>
        <altitudeMode>absolute</altitudeMode>
        <coordinates>-77.438124934621,38.818842761120976,817.5824677120278</coordinates>
      </Point>
    </Placemark>
    <Placemark>
      <name></name>
      <Point>
        <extrude>1</extrude>
        <altitudeMode>absolute</altitudeMode>
        <coordinates>-77.43813783631995,38.81803889916661,817.5824689431556</coordinates>
      </Point>
    </Placemark>
    <Placemark>
      <name></name>
      <Point>
        <extrude>1</extrude>
        <altitudeMode>absolute</altitudeMode>
        <coordinates>-77.43815073772765,38.81723503721079,817.5824701742835</coordinates>
      </Point>
    </Placemark>
    <Placemark>
      <name></name>
      <Point>
        <extrude>1</extrude>
        <altitudeMode>absolute</altitudeMode>
        <coordinates>-77.4381636388441,38.81643117525349,817.5824714054113</coordinates>
      </Point>
    </Placemark>
    <Placemark>
      <name></name>
      <Point>
        <extrude>1</extrude>
        <altitudeMode>absolute</altitudeMode>
        <coordinates>-77.43817653966934,38.81562731329474,817.5824726365391</coordinates>
      </Point>
    </Placemark>
    <Placemark>
      <name></name>
      <Point>
        <extrude>1</extrude>
        <altitudeMode>absolute</altitudeMode>
        <coordinates>-77.43818944020336,38.81482345133452,817.582473867667</coordinates>
      </Point>
    </Placemark>
    <Placemark>
      <name></name>
      <Point>
        <extrude>1</extrude>
        <altitudeMode>absolute</altitudeMode>
        <coordinates>-77.43820234044617,38.814019589372826,817.5824750987947</coordinates>
      </Point>
    </Placemark>
    <Placemark>
      <name></name>
      <Point>
        <extrude>1</extrude>
        <altitudeMode>absolute</altitudeMode>
        <coordinates>-77.43821524039782,38.81321572740967,817.5824763299225</coordinates>
      </Point>
    </Placemark>
    <Placemark>
      <name></name>
      <Point>
        <extrude>1</extrude>
        <altitudeMode>absolute</altitudeMode>
        <coordinates>-77.43822814005829,38.81241186544504,817.5824775610504</coordinates>
      </Point>
    </Placemark>
    <Placemark>
      <name></name>
      <Point>
        <extrude>1</extrude>
        <altitudeMode>absolute</altitudeMode>
        <coordinates>-77.43824103942761,38.81160800347895,817.5824787921782</coordinates>
      </Point>
    </Placemark>
    <Placemark>
      <name></name>
      <Point>
        <extrude>1</extrude>
        <altitudeMode>absolute</altitudeMode>
        <coordinates>-77.43825393850578,38.8108041415114,817.5824800233061</coordinates>
      </Point>
    </Placemark>
    <Placemark>
      <name></name>
      <Point>
        <extrude>1</extrude>
        <altitudeMode>absolute</altitudeMode>
        <coordinates>-77.43826683729283,38.810000279542386,817.5824812544339</coordinates>
      </Point>
    </Placemark>
    <Placemark>
      <name></name>
      <Point>
        <extrude>1</extrude>
        <altitudeMode>absolute</altitudeMode>
        <coordinates>-77.43827973578878,38.8091964175719,817.5824824855619</coordinates>
      </Point>
    </Placemark>
    <Placemark>
      <name></name>
      <Point>
        <extrude>1</extrude>
        <altitudeMode>absolute</altitudeMode>
        <coordinates>-77.43829263399365,38.808392555599944,817.5824837166896</coordinates>
      </Point>
    </Placemark>
    <Placemark>
      <name></name>
      <Point>
        <extrude>1</extrude>
        <altitudeMode>absolute</altitudeMode>
        <coordinates>-77.43830553190742,38.80758869362653,817.5824849478174</coordinates>
      </Point>
    </Placemark>
    <Placemark>
      <name></name>
      <Point>
        <extrude>1</extrude>
        <altitudeMode>absolute</altitudeMode>
        <coordinates>-77.43831842953014,38.806784831651655,817.5824861789453</coordinates>
      </Point>
    </Placemark>
    <Placemark>
      <name></name>
      <Point>
        <extrude>1</extrude>
        <altitudeMode>absolute</altitudeMode>
        <coordinates>-77.4383313268618,38.8059809696753,817.5824874100731</coordinates>
      </Point>
    </Placemark>
    <Placemark>
      <name></name>
      <Point>
        <extrude>1</extrude>
        <altitudeMode>absolute</altitudeMode>
        <coordinates>-77.43834422390243,38.80517710769749,817.5824886412009</coordinates>
      </Point>
    </Placemark>
    <Placemark>
      <name></name>
      <Point>
        <extrude>1</extrude>
        <altitudeMode>absolute</altitudeMode>
        <coordinates>-77.43835712065204,38.80437324571822,817.5824898723288</coordinates>
      </Point>
    </Placemark>
    <Placemark>
      <name></name>
      <Point>
        <extrude>1</extrude>
        <altitudeMode>absolute</altitudeMode>
        <coordinates>-77.43837001711066,38.803569383737475,817.5824911034567</coordinates>
      </Point>
    </Placemark>
    <Placemark>
      <name></name>
      <Point>
        <extrude>1</extrude>
        <altitudeMode>absolute</altitudeMode>
        <coordinates>-77.43838291327828,38.80276552175526,817.5824923345847</coordinates>
      </Point>
    </Placemark>
    <Placemark>
      <name></name>
      <Point>
        <extrude>1</extrude>
        <altitudeMode>absolute</altitudeMode>
        <coordinates>-77.43839580915494,38.8019616597716,817.5824935657125</coordinates>
      </Point>
    </Placemark>
    <Placemark>
      <name></name>
      <Point>
        <extrude>1</extrude>
        <altitudeMode>absolute</altitudeMode>
        <coordinates>-77.43840870474062,38.80115779778646,817.5824947968405</coordinates>
      </Point>
    </Placemark>
    <Placemark>
      <name></name>
      <Point>
        <extrude>1</extrude>
        <altitudeMode>absolute</altitudeMode>
        <coordinates>-77.43842160003537,38.80035393579986,817.5824960279684</coordinates>
      </Point>
    </Placemark>
    <Placemark>
      <name></name>
      <Point>
        <extrude>1</extrude>
        <altitudeMode>absolute</altitudeMode>
        <coordinates>-77.43843449503919,38.79955007381181,817.5824972590964</coordinates>
      </Point>
    </Placemark>
    <Placemark>
      <name></name>
      <Point>
        <extrude>1</extrude>
        <altitudeMode>absolute</altitudeMode>
        <coordinates>-77.43844738975208,38.79874621182227,817.5824984902242</coordinates>
      </Point>
    </Placemark>
    <Placemark>
      <name></name>
      <Point>
        <extrude>1</extrude>
        <altitudeMode>absolute</altitudeMode>
        <coordinates>-77.4384602841741,38.797942349831274,817.5824997213522</coordinates>
      </Point>
    </Placemark>
    <Placemark>
      <name></name>
      <Point>
        <extrude>1</extrude>
        <altitudeMode>absolute</altitudeMode>
        <coordinates>-77.43847317830522,38.797138487838815,817.5825009524801</coordinates>
      </Point>
    </Placemark>
    <Placemark>
      <name></name>
      <Point>
        <extrude>1</extrude>
        <altitudeMode>absolute</altitudeMode>
        <coordinates>-77.43848607214547,38.79633462584489,817.5825021836081</coordinates>
      </Point>
    </Placemark>
    <Placemark>
      <name></name>
      <Point>
        <extrude>1</extrude>
        <altitudeMode>absolute</altitudeMode>
        <coordinates>-77.43849896569486,38.795530763849506,817.582503414736</coordinates>
      </Point>
    </Placemark>
    <Placemark>
      <name></name>
      <Point>
        <extrude>1</extrude>
        <altitudeMode>absolute</altitudeMode>
        <coordinates>-77.43851185895342,38.79472690185265,817.5825046458639</coordinates>
      </Point>
    </Placemark>
    <Placemark>
      <name></name>
      <Point>
        <extrude>1</extrude>
        <altitudeMode>absolute</altitudeMode>
        <coordinates>-77.43852475192115,38.79392303985434,817.5825058769918</coordinates>
      </Point>
    </Placemark>
    <Placemark>
      <name></name>
      <Point>
        <extrude>1</extrude>
        <altitudeMode>absolute</altitudeMode>
        <coordinates>-77.43853764459807,38.79311917785456,817.5825071081198</coordinates>
      </Point>
    </Placemark>
    <Placemark>
      <name></name>
      <Point>
        <extrude>1</extrude>
        <altitudeMode>absolute</altitudeMode>
        <coordinates>-77.4385505369842,38.79231531585331,817.5825083392477</coordinates>
      </Point>
    </Placemark>
    <Placemark>
      <name></name>
      <Point>
        <extrude>1</extrude>
        <altitudeMode>absolute</altitudeMode>
        <coordinates>-77.43856342907957,38.79151145385061,817.5825095703757</coordinates>
      </Point>
    </Placemark>
    <Placemark>
      <name></name>
      <Point>
        <extrude>1</extrude>
        <altitudeMode>absolute</altitudeMode>
        <coordinates>-77.43857632088414,38.790707591846434,817.5825108015035</coordinates>
      </Point>
    </Placemark>
    <Placemark>
      <name></name>
      <Point>
        <extrude>1</extrude>
        <altitudeMode>absolute</altitudeMode>
        <coordinates>-77.43858921239797,38.789903729840795,817.5825120326315</coordinates>
      </Point>
    </Placemark>
    <Placemark>
      <name></name>
      <Point>
        <extrude>1</extrude>
        <altitudeMode>absolute</altitudeMode>
        <coordinates>-77.43860210362106,38.789099867833706,817.5825132637594</coordinates>
      </Point>
    </Placemark>
    <Placemark>
      <name>EndOfClimbRamp</name>
      <Point>
        <extrude>1</extrude>
        <altitudeMode>absolute</altitudeMode>
        <coordinates>-77.43861499455345,38.78829600582515,817.5825144948874</coordinates>
      </Point>
    </Placemark>
    <Placemark>
      <name></name>
      <Point>
        <extrude>1</extrude>
        <altitudeMode>absolute</altitudeMode>
        <coordinates>-77.43858736197672,38.788139909301755,817.5825157260153</coordinates>
      </Point>
    </Placemark>
    <Placemark>
      <name></name>
      <Point>
        <extrude>1</extrude>
        <altitudeMode>absolute</altitudeMode>
        <coordinates>-77.4385399667109,38.78733653989991,825.2125157260153</coordinates>
      </Point>
    </Placemark>
    <Placemark>
      <name></name>
      <Point>
        <extrude>1</extrude>
        <altitudeMode>absolute</altitudeMode>
        <coordinates>-77.43846243002903,38.78653430119669,832.8425157260153</coordinates>
      </Point>
    </Placemark>
    <Placemark>
      <name>turn-174.0-deg</name>
      <Point>
        <extrude>1</extrude>
        <altitudeMode>absolute</altitudeMode>
        <coordinates>-77.4383547859477,38.785733881168106,840.4725157260153</coordinates>
      </Point>
    </Placemark>
  </Document>
</kml>
